bus_id,name,country,long_type,capacity,longitude,latitude,type,category,H,marginal_cost
82,Orfey,BG,hydro_pure_ps,160.0,24.356689,41.99216,PS,H,3.0,100
83,Devin,BG,hydro_ror,88.0,24.455566,41.746726,RR,H,3.0,10
84,Teshel,BG,hydro_ror,60.0,24.32373,41.640078,RR,H,3.0,10
92,Ulze,AL,hydro_pure_storage,24.0,20.039062,41.566142,DA,H,4.0,80
515,Vlore,AL,fossil_mixed,100.0,19.434814,40.446947,FM,F,6.0,100
511,Shkopet,AL,hydro_pure_storage,25.0,19.962158,41.640078,DA,H,4.0,80
101,Pournari,GR,hydro_pure_storage,333.600006,21.269531,39.257778,DA,H,4.0,80
103,Stratos,GR,hydro_pure_storage,81.300003,21.335449,38.61687,DA,H,4.0,80
103,Kremasta,GR,hydro_pure_storage,437.200012,21.643066,38.822591,DA,H,4.0,80
103,Kastraki,GR,hydro_pure_storage,320.0,21.390381,38.771216,DA,H,4.0,80
107,N. Plastiras,GR,hydro_pure_storage,129.899994,21.796875,39.283294,DA,H,4.0,80
119,Ladonas,GR,hydro_pure_storage,70.0,21.928711,37.814124,DA,H,4.0,80
99,Megalopoli,GR,fossil_coal_gas_cons,845.0,22.280273,37.422526,CG,G,6.0,110
1379,Chania,GR,fossil_oil,355.200012,23.961182,35.487511,FO,F,6.0,100
114,Thissavros,GR,hydro_mixed,384.0,24.356689,41.244772,HY,H,3.0,60
1379,Linoperamata,GR,fossil_oil,278.799988,24.927979,35.371135,FO,F,6.0,100
124,Ptolemaida,GR,fossil_brown_lignite,593.0,21.665039,40.488737,LI,C,6.0,24
124,Agras,GR,hydro_pure_storage,50.0,21.917725,40.663973,DA,H,4.0,80
121,Assomata,GR,hydro_pure_storage,108.0,22.510986,40.396764,DA,H,4.0,80
122,Sfikia,GR,hydro_mixed,315.0,22.401123,40.33817,HY,H,3.0,60
122,Polyphyto,GR,hydro_pure_storage,375.0,22.324219,40.271144,DA,H,4.0,80
110,Ag. Georgios,GR,fossil_coal_gas,360.0,23.69751,37.926868,CG,G,6.0,110
114,Platanovrisi,GR,hydro_pure_storage,116.0,24.664307,41.253032,DA,H,4.0,80
116,Komotini,GR,fossil_coal_gas,484.600006,25.367432,41.120746,CG,G,6.0,110
115,Meliti,GR,fossil_brown_lignite,330.0,21.478271,40.838749,LI,C,6.0,24
118,Heron,GR,fossil_coal_gas,579.799988,23.203125,38.289937,CG,G,6.0,110
106,Ag.Nikolaos,GR,fossil_coal_gas,448.5,22.543945,38.367502,CG,G,6.0,110
121,Enthes,GR,fossil_coal_gas,395.0,22.609863,40.647304,CG,G,6.0,110
1379,Atherinolakkos,GR,fossil_oil,195.199997,26.114502,35.074965,FO,F,6.0,100
118,Thisvi,GR,fossil_coal_gas,421.600006,23.126221,38.186387,CG,G,6.0,110
129,Levante,IT,fossil_coal_gas,456.0,14.348145,40.813809,CG,G,6.0,110
169,Capriati,IT,hydro_mixed,120.0,14.161377,41.516804,HY,H,3.0,60
167,Presenzano,IT,hydro_ror,1200.0,14.106445,41.385052,RR,H,3.0,10
191,Maddaloni,IT,fossil_oil,415.0,14.468994,41.029643,FO,F,6.0,100
135,Bari,IT,fossil_oil,272.0,16.875,41.104191,FO,F,6.0,100
201,Brindisi /N.,IT,fossil_oil,1436.0,17.95166,40.638967,FO,F,6.0,100
130,Brindisi /S.,IT,fossil_brown_lignite,2910.0,18.061523,40.513799,LI,C,6.0,24
170,Rossano,IT,fossil_oil,1979.0,16.534424,39.512517,FO,F,6.0,100
183,S. F. Mela,IT,fossil_oil,1455.0,15.292969,38.212288,FO,F,6.0,100
176,Anapo,IT,hydro_ror,660.0,14.985352,37.07271,RR,H,3.0,10
171,ISAB,IT,fossil_oil,679.0,15.26001,37.011326,FO,F,6.0,100
154,Giugliano,IT,fossil_oil,423.0,14.0625,40.805494,FO,F,6.0,100
216,Candela,IT,fossil_coal_gas,475.0,15.556641,41.162114,CG,G,6.0,110
185,Rizziconi,IT,fossil_coal_gas,912.0,16.138916,38.281313,CG,G,6.0,110
153,Termini,IT,fossil_oil,1691.0,13.590088,37.996163,FO,F,6.0,100
171,Priolo,IT,fossil_oil,1277.0,15.314941,37.116526,FO,F,6.0,100
219,Termoli Energia,IT,fossil_coal_gas,967.0,14.919434,41.99216,CG,G,6.0,110
202,Scandale,IT,fossil_oil,941.0,17.160645,39.019184,FO,F,6.0,100
204,Taranto,IT,fossil_oil,684.0,17.105713,40.480381,FO,F,6.0,100
223,Negotino,MK,fossil_oil,189.0,22.280273,41.590797,FO,F,6.0,100
222,Vrutok,MK,hydro_ror,150.0,20.775146,41.763117,RR,H,3.0,10
224,Bitola,MK,fossil_brown_lignite,606.0,21.588135,41.029643,LI,C,6.0,24
255,Teruel,ES,other_nl,1102.0,-0.340575999999992,41.013066,OT,O,3.0,10
327,Sagunto,ES,nuclear_cons,1256.0,-0.142822000000005,39.88445,NU,N,6.0,16
6698,Zorlu En.,TR,fossil_coal_gas,115.0,27.487793,41.492121,CG,G,6.0,110
360,Z.Enj.,TR,fossil_coal_gas,133.0,26.949463,41.47566,CG,G,6.0,110
120,Ag.Theodori,GR,fossil_coal_gas,436.600006,23.005371,38.013476,CG,G,6.0,110
121,llarion,GR,hydro_pure_storage_cons,108.0,22.576904,40.472024,DA,H,4.0,80
100,Aliveri,GR,fossil_oil,300.0,24.125977,38.43638,FO,F,6.0,100
106,Alouminio,GR,fossil_coal_gas,334.0,22.675781,38.350273,CG,G,6.0,110
99,Megalopoli B,GR,fossil_brown_lignite,300.0,22.181396,37.352693,LI,C,6.0,24
99,Megalopoli A,GR,fossil_brown_lignite,550.0,22.346191,37.335224,LI,C,6.0,24
221,Kozjak,MK,hydro_ror,85.0,21.291504,41.845013,RR,H,3.0,10
223,Tikves,MK,hydro_ror,96.0,21.895752,41.50035,RR,H,3.0,10
222,Oslomej,MK,fossil_brown_lignite,112.0,21.192627,41.541478,LI,C,6.0,24
221,TE-TO,MK,fossil_coal_gas,250.0,21.621094,41.95132,CG,G,6.0,110
222,Spilje,MK,hydro_ror,84.0,20.566406,41.50035,RR,H,3.0,10
6698,Hamitabat,TR,fossil_coal_gas,1156.0,27.290039,41.599013,CG,G,6.0,110
500,Asphat,AL,hydro_pure_storage,250.0,19.445801,41.8941,DA,H,4.0,80
549,Bele,AL,hydro_ror,24.0,20.489502,41.918629,RR,H,3.0,10
88,Banje,AL,hydro_pure_storage_cons,23.0,20.203857,40.971604,DA,H,4.0,80
514,Kokel,AL,hydro_pure_storage_cons,23.0,20.412598,40.946714,DA,H,4.0,80
513,Moglice,AL,hydro_pure_storage_cons,23.0,20.511475,40.747257,DA,H,4.0,80
549,Peshqesh,AL,hydro_ror,500.0,20.302734,41.975827,RR,H,3.0,10
1078,Alqueva,PT,hydro_mixed,240.0,-7.426758,38.195022,HY,H,3.0,60
1126,Sines,PT,fossil_coal_hard,1180.0,-8.69018599999999,37.848833,HC,C,6.0,35
1523,Bemposta II,PT,hydro_ror,191.0,-6.503906,41.319076,RR,H,3.0,10
1521,Pocinho,PT,hydro_ror,186.0,-7.13012700000001,41.079351,RR,H,3.0,10
126,Lavrio,GR,fossil_coal_gas,1551.800049,23.939209,37.68382,CG,G,6.0,110
1616,Azutan,ES,hydro_ror,198.0,-5.438232,40.245992,RR,H,3.0,10
122,Ag.Dimitrios,GR,fossil_brown_lignite,1595.0,21.96167,40.538852,LI,C,6.0,24
124,Amyndeo,GR,fossil_brown_lignite,600.0,21.730957,40.730608,LI,C,6.0,24
123,Kardia,GR,fossil_brown_lignite,1212.0,21.643066,40.388397,LI,C,6.0,24
1514,T. Outeiro,PT,fossil_coal_gas,990.0,-8.536377,41.021355,CG,G,6.0,110
1502,Salamonde II,PT,hydro_mixed,220.0,-7.80029300000001,41.689322,HY,H,3.0,60
1536,Castelo de Bode,PT,hydro_pure_storage,159.0,-8.31665,39.588757,DA,H,4.0,80
1535,Fratel,PT,hydro_ror,132.0,-7.822266,39.639538,RR,H,3.0,10
1563,Cabril,PT,hydro_pure_storage,108.0,-8.23974600000001,39.876019,DA,H,4.0,80
1537,Miranda,PT,hydro_ror,369.0,-6.42700200000001,41.5497,RR,H,3.0,10
1522,Valeira,PT,hydro_ror,240.0,-7.39379900000001,41.286062,RR,H,3.0,10
1522,Tabuaço,PT,hydro_pure_storage,58.0,-7.53662100000001,41.112469,DA,H,4.0,80
1519,Régua,PT,hydro_ror,180.0,-7.745361,41.186922,RR,H,3.0,10
1502,A.Rabagão,PT,hydro_mixed,68.0,-7.92114300000001,41.738528,HY,H,3.0,60
1503,Vila Nova,PT,hydro_pure_storage,144.0,-7.66845700000001,41.754922,DA,H,4.0,80
1545,Caniçada,PT,hydro_pure_storage,62.0,-8.20678699999999,41.557922,DA,H,4.0,80
1503,Frades II,PT,hydro_mixed_cons,736.0,-7.63549799999999,41.697526,HY,H,3.0,60
1517,Carrapatelo,PT,hydro_ror,201.0,-8.16284199999999,41.029643,RR,H,3.0,10
1517,Torrão,PT,hydro_mixed,140.0,-8.21777299999999,41.079351,HY,H,3.0,60
1488,Aguieira,PT,hydro_mixed,336.0,-8.20678699999999,40.405131,HY,H,3.0,60
1528,Pego,PT,fossil_coal_hard,576.0,-8.20678699999999,39.419221,HC,C,6.0,35
1532,Crestuma,PT,hydro_ror,117.0,-8.51440399999999,40.963308,RR,H,3.0,10
1502,Frades,PT,hydro_mixed,780.0,-7.89916999999999,41.795888,HY,H,3.0,60
1500,Ribatejo,PT,fossil_coal_gas,1176.0,-9.04174799999999,39.155622,CG,G,6.0,110
1528,Pego 2,PT,fossil_coal_gas,837.0,-8.10791000000001,39.410733,CG,G,6.0,110
1540,Lares,PT,fossil_coal_gas,826.0,-8.712158,40.12009,CG,G,6.0,110
1554,Alqueva II,PT,hydro_mixed,254.0,-7.54760699999999,38.186387,HY,H,3.0,60
1635,Villalcampo,ES,hydro_ror,881.0,-6.185303,41.352072,RR,H,3.0,10
1627,Saucelle I,ES,hydro_ror,254.0,-6.756592,40.979898,RR,H,3.0,10
1614,Torrejón,ES,hydro_ror,131.0,-6.273193,39.749434,RR,H,3.0,10
1690,C.N. Almaraz,ES,other_nl,1957.0,-6.141357,39.639538,OT,O,3.0,10
1612,Valdecañas,ES,hydro_ror,249.0,-5.66894500000001,39.740986,RR,H,3.0,10
1623,Puertollano,ES,other_nl,221.0,-4.08691400000001,38.651198,OT,O,3.0,10
1650,Litoral de Almería,ES,other_nl,1159.0,-1.955566,36.958671,OT,O,3.0,10
1011,Portucel Setúbal,PT,biomass,54.0,-8.59130900000001,38.453589,BM,O,0.0,10
1528,Belver,PT,hydro_ror,81.0,-7.92114300000001,39.436193,RR,H,3.0,10
1530,Celbi,PT,biomass,71.0,-8.94287100000001,39.951859,BM,O,0.0,10
1530,Soporcel,PT,biomass,95.0,-8.94287100000001,40.061257,BM,O,0.0,10
1513,Ribeiradio,PT,hydro_pure_storage,75.0,-8.29467799999999,40.722283,DA,H,4.0,80
1523,Bemposta,PT,hydro_ror,240.0,-6.405029,41.368564,RR,H,3.0,10
1537,Picote II,PT,hydro_ror,245.0,-6.28418000000001,41.483891,RR,H,3.0,10
1755,Foz Tua,PT,hydro_mixed_cons,251.0,-7.56958000000001,41.343825,HY,H,3.0,60
1807,Viana,PT,biomass,61.0,-8.76709000000001,41.640078,BM,O,0.0,10
796,ValorSul,PT,waste_nr,51.0,-9.08569299999999,38.83115,WA,O,3.0,10
1501,Alto Lindoso,PT,hydro_pure_storage,630.0,-8.32763700000001,41.95949,DA,H,4.0,80
1634,Villarino,ES,hydro_ror,881.0,-6.48193399999999,41.253032,RR,H,3.0,10
1760,Baixo Sabor,PT,hydro_mixed,153.0,-7.13012700000001,41.26955,HY,H,3.0,60
1759,Aldeadávila II,ES,hydro_ror,820.0,-6.80053699999999,41.037931,RR,H,3.0,10
1632,Santiz,ES,other_nl,120.0,-5.789795,41.203456,OT,O,3.0,10
1674,Alvarado,ES,other_nl,150.0,-6.82251000000001,38.736946,OT,O,3.0,10
1764,Vaguados,ES,other_nl,50.0,-6.91040000000001,38.959409,OT,O,3.0,10
1686,Palos,ES,other_nl,1195.0,-6.679688,37.116526,OT,O,3.0,10
2398,Ledvice,CZ,fossil_brown_lignite,306.0,13.688965,50.562304,LI,C,6.0,24
2412,Nordjyllandsværket,DK,fossil_coal_hard,631.0,9.942627,57.183902,HC,C,6.0,35
2347,Dalešice,CZ,hydro_pure_ps,451.0,15.952148,49.088258,PS,H,3.0,100
2348,Dukovany,CZ,nuclear,1820.0,16.018066,48.850258,NU,N,6.0,16
2349,Orlík,CZ,hydro_ror,360.0,14.282227,49.539469,RR,H,3.0,10
2350,Temelín,CZ,nuclear,1930.0,14.39209,49.339441,NU,N,6.0,16
2351,Chvaletice,CZ,fossil_brown_lignite,740.0,15.303955,50.007739,LI,C,6.0,24
2352,Dlouhé Stránĕ,CZ,hydro_pure_ps,650.0,17.050781,50.155786,PS,H,3.0,100
4286,Lipno,CZ,hydro_ror,120.0,14.238281,48.669199,RR,H,3.0,10
2366,Tušimice,CZ,fossil_brown_lignite,740.0,13.425293,50.422519,LI,C,6.0,24
2367,Prunéřov,CZ,fossil_brown_lignite,1380.0,13.029785,50.34546,LI,C,6.0,24
2393,Tisová,CZ,fossil_brown_lignite,252.0,12.601318,50.064192,LI,C,6.0,24
2394,Počerady,CZ,fossil_brown_lignite,926.0,13.677979,50.443513,LI,C,6.0,24
2395,Mĕlník,CZ,fossil_brown_lignite,890.0,14.556885,50.429518,LI,C,6.0,24
2353,Dětmarovice,CZ,fossil_coal_hard,740.0,18.292236,49.845068,HC,C,6.0,35
2396,Vřesová,CZ,Null,640.0,12.645264,50.233152,XX,X,0.0,0.0
2427,Esbjergværket,DK,fossil_coal_hard,377.0,8.492432,55.478853,HC,C,6.0,35
2461,Asnæsværket,DK,fossil_coal_hard,137.0,11.085205,55.658996,HC,C,6.0,35
2483,Kyndbyværket,DK,fossil_oil,664.0,11.887207,55.819802,FO,F,6.0,100
2514,Skærbækværket,DK,fossil_coal_gas,427.0,9.547119,55.491304,CG,G,6.0,110
2521,Fynsværket,DK,fossil_mixed,442.0,10.601807,55.460171,FM,F,6.0,100
2543,Studstrupværket,DK,fossil_mixed,380.0,10.360107,56.26166,FM,F,6.0,100
2617,Weiher,DE,fossil_brown_lignite,680.0,7.03125,49.339441,LI,C,6.0,24
2619,Voerde,DE,fossil_brown_lignite,2100.0,6.71264599999999,51.549751,LI,C,6.0,24
2703,Bergkamen,DE,fossil_brown_lignite,700.0,7.71240200000001,51.583897,LI,C,6.0,24
2746,Elverlingsen,DE,fossil_coal_gas,755.0,7.66845700000001,51.275662,CG,G,6.0,110
3006,Walchenseewerk,DE,hydro_pure_ps,125.0,11.315918,47.643186,PS,H,3.0,100
2842,BASF,DE,fossil_coal_gas,460.0,8.404541,49.482401,CG,G,6.0,110
2856,Staudinger,DE,fossil_brown_lignite,2978.0,8.964844,50.169862,LI,C,6.0,24
2865,Heyden,DE,fossil_brown_lignite,875.0,9.019775,52.368892,LI,C,6.0,24
2623,Veltheim,DE,fossil_brown_lignite,860.0,8.92089799999999,52.173932,LI,C,6.0,24
2624,Huntorf,DE,fossil_coal_gas,290.0,8.32763700000001,53.107217,CG,G,6.0,110
2625,Farge,DE,fossil_brown_lignite,345.0,8.55834999999999,53.100621,LI,C,6.0,24
2626,Landesbergen,DE,fossil_coal_gas,491.0,9.16259800000001,52.52959,CG,G,6.0,110
2630,Brokdorf,DE,nuclear,1410.0,9.38232400000001,53.826597,NU,N,6.0,16
2631,Erzhausen,DE,hydro_pure_ps,220.0,9.93164099999999,51.815407,PS,H,3.0,100
2904,Happurg,DE,hydro_pure_ps,160.0,11.403809,49.518076,PS,H,3.0,100
2917,Wedel,DE,fossil_coal_hard,260.0,9.79980499999999,53.612062,HC,C,6.0,35
2634,Buschhaus,DE,fossil_brown_lignite,352.0,10.964355,52.113252,LI,C,6.0,24
3030,Flensburg,DE,fossil_brown_lignite,170.0,9.51416000000001,54.686534,LI,C,6.0,24
2945,Reisach,DE,hydro_pure_ps,105.0,12.282715,49.603591,PS,H,3.0,100
2635,Lippendorf,DE,fossil_brown_lignite,2427.0,12.480469,51.316881,LI,C,6.0,24
2636,Schkopau,DE,fossil_brown_lignite,900.0,11.942139,51.392351,LI,C,6.0,24
2637,Reuter West,DE,fossil_coal_hard,564.0,12.930908,52.462704,HC,C,6.0,35
5829,Mitte,DE,fossil_coal_gas,444.0,13.282471,52.281602,CG,G,6.0,110
2990,Rostock,DE,fossil_coal_hard,1653.0,12.030029,54.143132,HC,C,6.0,35
2757,Emden,DE,fossil_brown_lignite,2073.0,7.17407200000001,53.343993,LI,C,6.0,24
2754,Emsland,DE,nuclear,1329.0,7.17407200000001,52.476089,NU,N,6.0,16
2682,Niederaußem,DE,fossil_brown_lignite,3680.0,6.42700200000001,50.993014,LI,C,6.0,24
2692,Neurath,DE,fossil_brown_lignite,2200.0,6.448975,51.062113,LI,C,6.0,24
2693,Frimmersdorf,DE,hydro_pure_ps,2400.0,6.52587899999999,51.138001,PS,H,3.0,100
2661,Bexbach,DE,fossil_brown_lignite,750.0,7.163086,49.482401,LI,C,6.0,24
2674,Karlsruhe RDK 8,DE,fossil_coal_hard,876.0,8.20678699999999,49.001844,HC,C,6.0,35
2843,GKM 9,DE,fossil_coal_hard,870.0,8.404541,49.389524,HC,C,6.0,35
2677,Mainz,DE,fossil_coal_gas,1483.0,8.261719,49.958288,CG,G,6.0,110
2894,Langenprozelten,DE,hydro_pure_ps,160.0,9.766846,50.028917,PS,H,3.0,100
2895,Grafenrheinfeld,DE,nuclear_cons,1275.0,10.107422,50.000678,NU,N,6.0,16
2825,Ingolstadt,DE,fossil_coal_gas,772.0,11.260986,48.821333,CG,G,6.0,110
2819,Irsching,DE,fossil_coal_gas,2227.0,11.447754,48.734455,CG,G,6.0,110
2826,Zolling,DE,fossil_brown_lignite,449.0,11.645508,48.523881,LI,C,6.0,24
2807,Gundremmingen B,DE,nuclear,1284.0,10.513916,48.56025,NU,N,6.0,16
2836,Pleinting,DE,other_nrenew_cons,694.0,13.161621,48.683708,OT,O,3.0,10
6655,Ering,DE,hydro_ror,72.900002,13.249512,48.407326,RR,H,3.0,10
2639,Passau,DE,hydro_ror,86.400002,13.447266,48.57479,RR,H,3.0,10
2639,Jochenstein,AT,hydro_ror,132.0,13.656006,48.494768,RR,H,3.0,10
2970,Thyrow,DE,fossil_coal_gas,296.0,13.249512,52.106505,CG,G,6.0,110
2926,Wolfsburg,DE,fossil_brown_lignite,306.0,10.942383,52.382306,LI,C,6.0,24
2910,Stöcken,DE,fossil_brown_lignite,272.0,9.70092800000001,52.422523,LI,C,6.0,24
2736,Rönkhausen,DE,hydro_pure_ps,140.0,8.07495099999999,51.193115,PS,H,3.0,100
2751,Lippborg,DE,fossil_brown_lignite,888.0,8.19580100000001,51.672555,LI,C,6.0,24
2703,Gersteinwerk,DE,fossil_coal_gas,1182.0,7.866211,51.658927,CG,G,6.0,110
2703,Werne-Stockum,DE,fossil_coal_gas,1110.0,7.69043,51.75424,CG,G,6.0,110
2749,Dortmund,DE,fossil_brown_lignite,330.0,7.470703,51.549751,LI,C,6.0,24
2732,Kusenhorst,DE,fossil_brown_lignite,1330.0,7.17407200000001,51.665741,LI,C,6.0,24
2719,Scholven,DE,fossil_brown_lignite,1990.0,6.95434600000001,51.529251,LI,C,6.0,24
2654,Witznau,DE,hydro_mixed,240.0,8.05297900000001,47.724545,HY,H,3.0,60
2654,Häusern,DE,hydro_mixed,120.0,8.02001999999999,47.791016,HY,H,3.0,60
2640,Wehr,DE,hydro_pure_ps,980.0,7.877197,47.709762,PS,H,3.0,100
2860,Waldeck,DE,hydro_pure_ps,578.0,8.90991200000001,51.041394,PS,H,3.0,100
3034,Markersbach,DE,hydro_pure_ps,1045.0,12.974854,50.555325,PS,H,3.0,100
5829,Wilmersdorf,DE,fossil_coal_hard,276.0,13.051758,52.234528,HC,C,6.0,35
3003,Altbach,DE,fossil_coal_hard,313.0,9.20654300000001,48.661943,HC,C,6.0,35
2802,Heilbronn 5,DE,fossil_coal_hard,118.0,9.31640599999999,49.21042,HC,C,6.0,35
3007,Ibbenbüren,DE,fossil_brown_lignite,720.0,7.70141600000001,52.315195,LI,C,6.0,24
3013,Goldisthal,DE,hydro_pure_ps,1052.0,11.052246,50.408518,PS,H,3.0,100
3023,Jänschwalde,DE,fossil_brown_lignite,2790.0,14.60083,51.727028,LI,C,6.0,24
3024,Schwarze Pumpe,DE,fossil_brown_lignite,1500.0,14.205322,51.501904,LI,C,6.0,24
3025,Boxberg,DE,fossil_brown_lignite,2427.0,14.677734,51.296276,LI,C,6.0,24
3037,Fessenheim,FR,nuclear,1760.0,7.52563500000001,47.842658,NU,N,6.0,16
3039,Moorburg,DE,fossil_coal_hard,1532.0,9.99755900000001,53.494582,HC,C,6.0,35
3084,Vianden,LU,hydro_pure_ps,1096.0,5.98754899999999,50.021858,PS,H,3.0,100
3230,Dolna Odra,PL,fossil_coal_hard,1610.0,14.414062,53.087426,HC,C,6.0,35
3347,Pątnów,PL,fossil_brown_lignite,1116.0,18.07251,52.355474,LI,C,6.0,24
3342,Żarnowiec,PL,hydro_pure_ps,716.0,18.171387,54.769009,PS,H,3.0,100
3274,Rybnik,PL,fossil_coal_hard,1662.0,18.643799,50.176898,HC,C,6.0,35
3275,Łagisza,PL,fossil_coal_hard,1041.0,18.841553,50.035974,HC,C,6.0,35
3280,Porąbka Żar,PL,hydro_pure_ps,540.0,19.368896,49.738682,PS,H,3.0,100
3357,Skawina,PL,fossil_coal_hard,431.0,19.742432,49.922935,HC,C,6.0,35
3338,Jaworzno III,PL,fossil_coal_hard,1227.0,19.215088,50.092393,HC,C,6.0,35
3356,Siersza,PL,fossil_coal_hard,606.0,19.610596,50.212064,HC,C,6.0,35
3227,Bełchatów,PL,fossil_brown_lignite,4887.0,19.313965,51.282535,LI,C,6.0,24
3350,Kozienice,PL,fossil_coal_hard,2668.0,21.687012,51.645294,HC,C,6.0,35
3345,Ostrołęka B,PL,fossil_coal_hard,590.0,21.500244,52.988337,HC,C,6.0,35
3353,Połaniec,PL,fossil_coal_hard,1465.0,21.2146,50.387508,HC,C,6.0,35
3351,Stalowa Wola,PL,fossil_coal_hard,314.0,22.214355,50.541363,HC,C,6.0,35
3240,Turów,PL,fossil_brown_lignite_cons,454.0,15.106201,51.020666,LI,C,6.0,24
3238,Opole,PL,fossil_coal_hard,1426.0,17.819824,50.701677,HC,C,6.0,35
3244,Zielona Góra CHP,PL,fossil_coal_gas,202.0,15.699463,51.930718,CG,G,6.0,110
3685,Jaslovské  Bohunice,SK,nuclear,1000.0,17.512207,48.465637,NU,N,6.0,16
3686,Mochovce,SK,nuclear,940.0,18.380127,48.385442,NU,N,6.0,16
3687,Čierny Váh,SK,hydro_pure_ps,735.0,19.962158,48.965794,PS,H,3.0,100
3688,Vojany,SK,fossil_coal_hard,440.0,21.741943,48.57479,HC,C,6.0,35
3698,Nováky,SK,fossil_brown_lignite,518.0,18.500977,48.596592,LI,C,6.0,24
3713,Malženice,SK,fossil_coal_gas,430.0,17.797852,48.43649,CG,G,6.0,110
4290,Theiß,AT,fossil_coal_gas,805.0,15.358887,48.429201,CG,G,6.0,110
5844,Beznau,CH,nuclear,730.0,8.32763700000001,47.52462,NU,N,6.0,16
3928,Maritsa Iztok 2,BG,fossil_oil,1556.0,26.05957,42.415346,FO,F,6.0,100
3929,AES Maritsa Iztok 1,BG,fossil_oil,670.0,25.872803,42.317939,FO,F,6.0,100
3939,Varna,BG,fossil_brown_lignite,1260.0,27.718506,43.117024,LI,C,6.0,24
3958,Sestrimo,BG,hydro_ror,240.0,23.862305,42.472097,RR,H,3.0,10
3959,Belmeken,BG,hydro_pure_ps,375.0,23.807373,42.366662,PS,H,3.0,100
3961,Peshtera,BG,hydro_ror,134.0,24.147949,42.073762,RR,H,3.0,10
3962,Sofia,BG,fossil_coal_gas,75.0,23.236084,42.787339,CG,G,6.0,110
3970,Bobov dol,BG,fossil_brown_lignite,630.0,23.214111,42.382894,LI,C,6.0,24
4062,Ruieni,RO,hydro_ror,138.0,22.357178,45.336702,RR,H,3.0,10
4080,Porţile de Fier 1,RO,hydro_ror,1161.0,22.5,44.770137,RR,H,3.0,10
3981,Retezat,RO,hydro_ror,200.0,22.807617,45.521744,RR,H,3.0,10
3983,Mintia,RO,fossil_brown_lignite,963.0,22.818604,45.935871,LI,C,6.0,24
3985,Iernut,RO,fossil_coal_gas,677.0,24.224854,46.505954,CG,G,6.0,110
3986,Stejaru,RO,hydro_ror,191.0,26.202393,46.965259,RR,H,3.0,10
3987,Cernavoda,RO,nuclear,1410.0,28.201904,44.425934,NU,N,6.0,16
3973,Iaşi 1,RO,fossil_brown_lignite,93.0,27.355957,47.249407,LI,C,6.0,24
4072,Remeţi,RO,hydro_ror,86.0,22.851562,46.822617,RR,H,3.0,10
3992,Oradea,RO,fossil_brown_lignite,170.0,22.093506,46.972756,LI,C,6.0,24
4017,Buzau,RO,hydro_ror,75.0,26.5979,45.344424,RR,H,3.0,10
4035,Progresu,RO,fossil_coal_gas,133.0,26.279297,44.221584,CG,G,6.0,110
4013,Bistrita Ds.,RO,hydro_ror,200.0,26.499023,46.785016,RR,H,3.0,10
4030,Siret,RO,hydro_ror,191.0,27.301025,46.217852,RR,H,3.0,10
4030,Borzeşti,RO,fossil_oil,194.0,27.070312,46.286224,FO,F,6.0,100
4033,Brâila,RO,other_nl,408.0,27.861328,45.267155,OT,O,3.0,10
4015,Galaţi,RO,fossil_coal_gas,338.0,27.982178,45.521744,CG,G,6.0,110
4037,Bucureşti Vest,RO,fossil_coal_gas,288.0,25.960693,44.245199,CG,G,6.0,110
4035,Bucureşti Sud,RO,fossil_coal_gas,368.0,26.213379,44.386692,CG,G,6.0,110
4043,Clăbucet,RO,hydro_ror,50.0,25.081787,45.367584,RR,H,3.0,10
3999,Brazi,RO,fossil_coal_gas,265.0,25.861816,44.894796,CG,G,6.0,110
4061,Lotru,RO,hydro_ror,509.0,23.972168,45.537137,RR,H,3.0,10
4040,Vidraru,RO,hydro_ror,219.0,24.576416,45.498647,RR,H,3.0,10
4043,Arges Ds.,RO,hydro_ror,196.0,24.686279,45.290347,RR,H,3.0,10
4054,Olt M,RO,hydro_ror,465.0,24.32373,44.770137,RR,H,3.0,10
4049,Motru,RO,hydro_ror,50.0,23.15918,45.205263,RR,H,3.0,10
4049,Tismana,RO,hydro_ror,105.0,23.203125,45.143305,RR,H,3.0,10
4048,Govora,RO,fossil_brown_lignite,166.0,24.202881,45.174293,LI,C,6.0,24
4041,Rovinari,RO,fossil_brown_lignite,867.0,23.291016,44.972571,LI,C,6.0,24
4042,Turceni,RO,fossil_brown_lignite,1510.0,23.521729,44.731126,LI,C,6.0,24
4056,Olt I,RO,hydro_ror,333.0,24.499512,44.127028,RR,H,3.0,10
4057,Răul Mare DS.,RO,hydro_ror,160.0,23.082275,45.79817,RR,H,3.0,10
4063,Şugag,RO,hydro_ror,149.0,23.631592,45.821143,RR,H,3.0,10
4064,Gâlceag,RO,hydro_ror,149.0,23.774414,45.713851,RR,H,3.0,10
4079,Drobeta,RO,fossil_brown_lignite,220.0,22.785645,44.777936,LI,C,6.0,24
4081,Craiova Nord,RO,fossil_brown_lignite,246.0,23.983154,44.142798,LI,C,6.0,24
4066,Işalniţa,RO,fossil_brown_lignite,566.0,23.752441,44.370987,LI,C,6.0,24
4466,Golfech,FR,nuclear,2620.0,0.988770000000011,44.103365,NU,N,6.0,16
4072,Munteni,RO,hydro_ror,53.0,22.807617,46.920255,RR,H,3.0,10
4072,Mărişelu,RO,hydro_ror,216.0,23.181152,46.709736,RR,H,3.0,10
4060,Paroşeni,RO,fossil_brown_lignite,135.0,23.071289,45.413876,LI,C,6.0,24
4061,Brădişor,RO,hydro_ror,100.0,24.136963,45.467836,RR,H,3.0,10
4040,Olt S,RO,hydro_ror,104.0,24.818115,45.882361,RR,H,3.0,10
500,V. Dejes,AL,hydro_pure_storage,250.0,19.445801,42.032974,DA,H,4.0,80
4245,Koman,AL,hydro_pure_storage,600.0,19.89624,42.163403,DA,H,4.0,80
4159,Fierze,AL,hydro_pure_storage,500.0,20.269775,42.081917,DA,H,4.0,80
4284,Ferlach,AT,hydro_ror,75.0,14.359131,46.505954,RR,H,3.0,10
4284,Feistritz,AT,hydro_ror,88.0,14.194336,46.490829,RR,H,3.0,10
4311,Edling,AT,hydro_ror,87.0,14.512939,46.460566,RR,H,3.0,10
4322,Malta -Oberstufe,AT,hydro_pure_ps,120.0,13.40332,46.957761,PS,H,3.0,100
5845,Außerfragrant,AT,hydro_ror,96.0,12.908936,46.957761,RR,H,3.0,10
5845,Innerfragrant,AT,hydro_mixed,172.0,12.843018,47.032695,HY,H,3.0,60
4322,Malta -Hauptstufe,AT,hydro_pure_ps,730.0,13.546143,46.897739,PS,H,3.0,100
4311,Schwabeck,AT,hydro_ror,79.0,14.72168,46.596619,RR,H,3.0,10
4319,Braunau,AT,hydro_ror,102.0,12.908936,48.158757,RR,H,3.0,10
4319,Egglfing,DE,hydro_ror,80.699997,13.150635,48.363549,RR,H,3.0,10
4286,Aschach,AT,hydro_ror,324.0,13.94165,48.487486,RR,H,3.0,10
4286,Ottensheim,AT,hydro_ror,179.0,13.974609,48.334343,RR,H,3.0,10
4287,Abwinden-Asten,AT,hydro_ror,168.0,14.381104,48.268569,RR,H,3.0,10
4325,Voest Linz,AT,fossil_brown_lignite,413.0,14.249268,48.334343,LI,C,6.0,24
4287,Wallsee,AT,hydro_ror,210.0,14.589844,48.224673,RR,H,3.0,10
4288,Ybbs-P.,AT,hydro_ror,236.5,14.963379,48.224673,RR,H,3.0,10
4290,Melk,AT,hydro_ror,187.0,15.292969,48.268569,RR,H,3.0,10
4337,Altenwörth,AT,hydro_ror,328.0,15.556641,48.400032,RR,H,3.0,10
4289,Greifenstein,AT,hydro_ror,293.0,16.226807,48.334343,RR,H,3.0,10
4329,Freudenau,AT,hydro_ror,172.0,16.380615,48.210032,RR,H,3.0,10
4336,Dürnrohr,AT,fossil_brown_lignite,757.0,15.567627,48.290503,LI,C,6.0,24
4327,Donaustadt,AT,fossil_coal_gas,487.0,16.33667,48.275882,CG,G,6.0,110
4330,Simmering,AT,fossil_coal_gas,1281.0,16.237793,48.136767,CG,G,6.0,110
4324,Hieflau,AT,hydro_ror,63.299999,14.490967,47.576526,RR,H,3.0,10
4324,Großraming,AT,hydro_ror,72.300003,14.359131,47.850031,RR,H,3.0,10
4310,Rosegg,AT,hydro_ror,80.0,13.908691,46.656977,RR,H,3.0,10
4322,Reißeck,AT,hydro_ror,68.199997,13.436279,46.815099,RR,H,3.0,10
4313,Kaprun -Hauptstufe,AT,hydro_ror,240.0,12.634277,47.249407,RR,H,3.0,10
4315,Kaprun -Oberstufe,AT,hydro_pure_ps,112.800003,12.678223,47.174778,PS,H,3.0,100
4316,Amlach,AT,hydro_ror,60.0,12.524414,46.800059,RR,H,3.0,10
4308,Achensee,AT,hydro_ror,79.0,11.568604,47.480088,RR,H,3.0,10
4304,Gerlos,AT,hydro_ror,200.100006,11.854248,47.256864,RR,H,3.0,10
4306,Mayrhofen,AT,hydro_ror,345.0,11.623535,47.227029,RR,H,3.0,10
4296,Roßhag,AT,hydro_pure_ps,231.0,11.557617,47.032695,PS,H,3.0,100
4307,Häusling,AT,hydro_pure_ps,360.0,11.876221,47.077604,PS,H,3.0,100
4298,Kühtai,AT,hydro_pure_ps,289.0,11.052246,47.092566,PS,H,3.0,100
4299,Silz,AT,hydro_ror,500.0,11.008301,47.227029,RR,H,3.0,10
4301,Imst,AT,hydro_ror,89.0,10.601807,47.279229,RR,H,3.0,10
4297,Kaunertal,AT,hydro_ror,392.0,10.513916,47.047669,RR,H,3.0,10
4285,Vermunt,AT,hydro_pure_storage,156.0,9.96460000000001,46.935261,DA,H,4.0,80
4285,Rodund I + II,AT,hydro_mixed,493.0,9.898682,46.995241,HY,H,3.0,60
4291,Lünersee,AT,hydro_mixed,232.0,9.74487300000001,47.047669,HY,H,3.0,60
4294,Langenegg,AT,hydro_pure_storage,74.0,9.97558599999999,47.44295,DA,H,4.0,80
4323,Sölk,AT,hydro_ror,61.0,13.787842,47.361153,RR,H,3.0,10
4309,Oberaudorf,DE,hydro_ror,59.0,12.128906,47.643186,RR,H,3.0,10
4339,Timelkam,AT,fossil_coal_gas,589.0,13.634033,47.945786,CG,G,6.0,110
4333,Mellach,AT,fossil_brown_lignite,246.0,15.490723,46.987747,LI,C,6.0,24
5846,Riedersbach,AT,fossil_brown_lignite,223.0,13.139648,48.063397,LI,C,6.0,24
4315,Schwarzach,AT,hydro_ror,120.0,13.062744,47.398349,RR,H,3.0,10
4311,Koralpe,AT,hydro_pure_ps,50.0,14.831543,46.679594,PS,H,3.0,100
4353,Rodenhuize,BE,biomass,170.0,3.86718799999999,51.07592,BM,O,0.0,10
4351,Total,BE,fossil_coal_gas,261.0,4.559326,51.296276,CG,G,6.0,110
4358,Doel,BE,nuclear,2920.0,4.152832,51.296276,NU,N,6.0,16
4356,Drogenbos,BE,fossil_coal_gas,460.0,4.47143600000001,50.75731,CG,G,6.0,110
4347,Amercoeur,BE,fossil_coal_gas,420.0,4.372559,50.429518,CG,G,6.0,110
4366,Plate Taille,BE,hydro_mixed,144.0,4.559326,50.113533,HY,H,3.0,60
4377,Tihange,BE,nuclear,3024.0,4.998779,50.604159,NU,N,6.0,16
4373,Angleur,BE,fossil_coal_gas,110.0,5.53710900000001,50.694718,CG,G,6.0,110
4372,Coo,BE,hydro_pure_ps,1164.0,6.13037099999999,50.310392,PS,H,3.0,100
4386,Langerlo,BE,fossil_coal_hard,556.0,5.42724599999999,50.972265,HC,C,6.0,35
5977,Ringvaart,BE,fossil_coal_gas,357.0,3.64746099999999,50.951506,CG,G,6.0,110
5050,St-Ghislain,BE,fossil_coal_gas,460.0,3.96606399999999,50.373496,CG,G,6.0,110
4408,Kakanj,BA,fossil_brown_lignite,385.0,18.182373,44.127028,LI,C,6.0,24
4411,Ugljevik,BA,fossil_brown_lignite,235.0,18.841553,44.699898,LI,C,6.0,24
4394,Gacko,BA,fossil_brown_lignite,255.0,18.259277,43.076913,LI,C,6.0,24
4413,Visegrad,BA,hydro_ror,315.0,19.27002,43.707594,RR,H,3.0,10
4398,Capljina,BA,hydro_ror,440.0,18.017578,42.811522,RR,H,3.0,10
4402,Rama,BA,hydro_ror,160.0,17.655029,43.850374,RR,H,3.0,10
4397,Grabovica,BA,hydro_ror,114.0,17.644043,43.699651,RR,H,3.0,10
4436,Gojak,HR,hydro_ror,50.0,15.172119,45.267155,RR,H,3.0,10
4435,Plomin,HR,fossil_coal_hard,290.0,14.084473,45.081279,HC,C,6.0,35
4438,Rijeka,HR,other_nrenew,300.0,14.611816,45.213004,OT,O,3.0,10
4441,Senj,HR,hydro_pure_storage,215.0,14.919434,44.801327,DA,H,4.0,80
4430,Velebit,HR,hydro_mixed,275.0,15.567627,44.253069,HY,H,3.0,60
4443,Sisak,HR,fossil_coal_gas,395.0,16.45752,45.521744,CG,G,6.0,110
4444,Zagreb,HR,fossil_coal_gas,430.0,15.897217,45.867063,CG,G,6.0,110
2345,Dubrovnik,HR,hydro_ror,110.0,18.391113,42.463993,RR,H,3.0,10
4432,Zakučac,HR,hydro_pure_storage,485.0,16.75415,43.428988,DA,H,4.0,80
4429,Orlovac,HR,hydro_pure_storage,235.0,16.743164,43.667872,DA,H,4.0,80
4438,Vinodol,HR,hydro_pure_storage,84.0,14.765625,45.104546,DA,H,4.0,80
5039,Chinon,FR,nuclear,3620.0,0.406494000000004,47.338823,NU,N,6.0,16
5911,Martigues-Ponteau,FR,fossil_coal_gas,490.0,5.16357399999999,43.325178,CG,G,6.0,110
4467,Le Pouget,FR,hydro_ror,447.0,2.746582,44.0718,RR,H,3.0,10
4468,St. Laurent,FR,nuclear,1830.0,1.680908,47.576526,NU,N,6.0,16
4469,Braek,FR,fossil_coal_gas,818.0,2.471924,51.020666,CG,G,6.0,110
4936,Gravelines,FR,nuclear,5460.0,2.02148399999999,50.993014,NU,N,6.0,16
4954,Quartes,FR,fossil_coal_gas,405.0,4.031982,50.240179,CG,G,6.0,110
4560,Le Havre,FR,fossil_oil,1415.0,0.153808999999988,49.510944,FO,F,6.0,100
4918,Paluel,FR,nuclear,5320.0,0.681152000000009,49.830896,NU,N,6.0,16
4917,Penly Poste,FR,nuclear,2660.0,1.48315400000001,49.958288,NU,N,6.0,16
4847,Porcheville,FR,fossil_oil,2340.0,1.66992199999999,48.944151,FO,F,6.0,100
4896,Vaires,FR,other_nl,561.0,2.66967800000001,48.821333,OT,O,3.0,10
4958,Revin,FR,hydro_pure_ps,808.0,4.43847700000001,49.94415,PS,H,3.0,100
4367,Chooz B,FR,nuclear,3000.0,4.70214800000001,50.064192,NU,N,6.0,16
4987,Emile- Huchet,FR,fossil_coal_gas,1919.0,6.60278300000001,49.181703,CG,G,6.0,110
2641,Hütte,DE,fossil_brown_lignite,290.0,6.74560499999999,49.382373,LI,C,6.0,24
5015,Strasbourg,FR,hydro_ror,147.0,7.75634799999999,48.494768,RR,H,3.0,10
4996,Rhinau,FR,hydro_ror,167.0,7.58056600000001,48.20271,RR,H,3.0,10
5008,Vogelgrun,FR,hydro_ror,141.0,7.49267599999999,48.078079,RR,H,3.0,10
4784,Vouglans,FR,hydro_ror,285.0,5.72387699999999,46.445427,RR,H,3.0,10
5054,Belleville,FR,nuclear,2620.0,3.098145,47.606163,NU,N,6.0,16
4821,Dampierre,FR,nuclear,3560.0,2.59277299999999,47.717154,NU,N,6.0,16
4557,Civaux,FR,nuclear,2990.0,0.736083999999991,46.505954,NU,N,6.0,16
4498,Le Blayais,FR,nuclear,3640.0,-0.626221000000005,45.143305,NU,N,6.0,16
4583,Le Chastang,FR,hydro_ror,293.0,2.076416,45.1123,RR,H,3.0,10
4616,Bort,FR,hydro_ror,235.0,2.46093799999999,45.506347,RR,H,3.0,10
4602,Sarrans,FR,hydro_ror,183.0,2.702637,44.910359,RR,H,3.0,10
5065,Montezic poste et centrale,FR,hydro_pure_ps,910.0,2.922363,44.73893,PS,H,3.0,100
4605,Couesque,FR,hydro_ror,119.0,2.515869,44.653024,RR,H,3.0,10
4686,St. Alban,FR,nuclear,2670.0,4.603271,45.336702,NU,N,6.0,16
4667,Bourg-les-Valence,FR,hydro_ror,186.0,4.812012,44.941473,RR,H,3.0,10
4665,Beauchastel,FR,hydro_ror,222.0,4.83398400000001,44.754535,RR,H,3.0,10
5068,Logis- Neuf,FR,hydro_ror,210.0,4.987793,44.645208,RR,H,3.0,10
4660,Cruas,FR,nuclear,3660.0,4.87793000000001,44.535675,NU,N,6.0,16
4664,Chateauneuf-du-Rhone,FR,hydro_ror,285.0,4.88891599999999,44.45731,RR,H,3.0,10
4663,Bollene,FR,hydro_ror,345.0,4.93286099999999,44.323848,RR,H,3.0,10
4662,Tricastin,FR,nuclear,3660.0,4.647217,44.355278,NU,N,6.0,16
4753,Monteynard,FR,hydro_ror,366.0,5.50415000000001,44.957024,RR,H,3.0,10
4735,Serre-Poncon,FR,hydro_ror,370.0,6.328125,44.472991,RR,H,3.0,10
4760,Bugey,FR,nuclear,3580.0,5.405273,45.79817,NU,N,6.0,16
5024,Vallorcine,FR,hydro_ror,190.0,6.92138699999999,46.012224,RR,H,3.0,10
4780,Malgovert,FR,hydro_ror,298.0,6.91040000000001,45.629405,RR,H,3.0,10
4779,La Bathie,FR,hydro_ror,546.0,6.55883800000001,45.706179,RR,H,3.0,10
4774,La Coche,FR,hydro_ror,320.0,6.56982399999999,45.467836,RR,H,3.0,10
4771,La Saussaz II,FR,hydro_ror,145.0,6.37207,45.135555,RR,H,3.0,10
5113,S.Bissorte,FR,hydro_pure_ps,742.0,6.55883800000001,45.073521,PS,H,3.0,100
4773,Aussois,FR,hydro_ror,87.0,6.70165999999999,45.298075,RR,H,3.0,10
4727,St. Croix,FR,hydro_ror,132.0,6.20727500000001,43.699651,RR,H,3.0,10
4729,Oraison,FR,hydro_ror,187.0,6.07543900000001,43.92955,RR,H,3.0,10
4730,Sisteron,FR,hydro_ror,214.0,5.88867200000001,44.197959,RR,H,3.0,10
4651,Beaucaire,FR,hydro_ror,210.0,4.70214800000001,43.755225,RR,H,3.0,10
4472,Aramon,FR,fossil_oil,1370.0,4.812012,43.842451,FO,F,6.0,100
4481,Pragneres,FR,hydro_ror,189.0,0.010986000000005,42.75508,RR,H,3.0,10
5001,Kembs,FR,hydro_ror,151.0,7.44873000000001,47.598755,RR,H,3.0,10
5003,Ottmarsheim,FR,hydro_ror,156.0,7.514648,47.754098,RR,H,3.0,10
4839,Chapelle''d Arblay,FR,fossil_coal_gas,153.0,1.230469,49.403825,CG,G,6.0,110
4879,Nogent-sur-Seine,FR,nuclear,2620.0,3.65844699999999,48.429201,NU,N,6.0,16
4828,Arrighi,FR,fossil_oil,258.0,2.53784200000001,48.770672,FO,F,6.0,100
4579,Richier,FR,fossil_coal_gas,514.0,4.93286099999999,43.428988,CG,G,6.0,110
5114,Verbois,CH,hydro_ror,98.0,6.11938500000001,46.17983,RR,H,3.0,10
5118,Oroszlány,HU,fossil_brown_lignite,224.0,18.391113,47.480088,LI,C,6.0,24
5119,Dunamenti,HU,fossil_coal_gas,1470.0,18.874512,47.353711,CG,G,6.0,110
5120,Mátra,HU,fossil_oil,849.0,20.061035,47.908978,FO,F,6.0,100
5122,Tisza II,HU,fossil_coal_gas,864.0,21.324463,48.092757,CG,G,6.0,110
5142,Paks,HU,nuclear,1892.0,18.797607,46.55886,NU,N,6.0,16
5154,Gönyű,HU,fossil_coal_gas,425.0,18.116455,47.702368,CG,G,6.0,110
5193,Genova,IT,fossil_brown_lignite,336.0,8.87695299999999,44.43378,LI,C,6.0,24
5158,Montalto,IT,fossil_coal_gas,3996.0,11.480713,42.382894,CG,G,6.0,110
5242,Larderello,IT,other_nl,150.0,11.074219,43.213183,OT,O,3.0,10
5159,Lanzada,IT,hydro_mixed,210.0,9.470215,46.240652,HY,H,3.0,60
5160,Sondrio,IT,hydro_mixed,150.0,9.48120100000001,46.111326,HY,H,3.0,60
5285,Premadio,IT,hydro_mixed,240.0,10.349121,46.437857,HY,H,3.0,60
5288,Torbole,IT,hydro_mixed,130.0,10.744629,45.874712,HY,H,3.0,60
5300,Porto Corsini,IT,fossil_coal_gas,922.0,12.205811,44.535675,CG,G,6.0,110
5297,Lana,IT,hydro_mixed,120.0,10.92041,46.679594,HY,H,3.0,60
5176,Valpelline,IT,hydro_mixed,150.0,7.294922,45.805829,HY,H,3.0,60
5184,Chivasso,IT,fossil_coal_gas,1512.0,7.965088,45.274886,CG,G,6.0,110
5205,Piacenza,IT,fossil_oil,1337.0,9.52514600000001,45.081279,FO,F,6.0,100
5206,La Casella,IT,fossil_coal_gas,1125.0,9.44824199999999,45.205263,CG,G,6.0,110
5208,Tavazzano,IT,fossil_coal_gas,2003.0,9.25048800000001,45.390735,CG,G,6.0,110
5187,Turbigo,IT,fossil_oil,2008.0,8.25073199999999,45.598666,FO,F,6.0,100
5161,Roncovalgrande,IT,hydro_ror,1120.0,8.448486,46.111326,RR,H,3.0,10
5285,Grosio,IT,hydro_mixed,465.0,10.228271,46.392411,HY,H,3.0,60
5326,Porto Tolle,IT,fossil_oil,2910.0,12.392578,44.995883,FO,F,6.0,100
5254,Marghera,IT,fossil_oil,151.0,12.128906,45.274886,FO,F,6.0,100
5325,Fusina,IT,fossil_brown_lignite,1237.0,12.227783,45.421588,LI,C,6.0,24
5250,Sermide,IT,fossil_coal_gas,2362.0,11.228027,45.02695,CG,G,6.0,110
5238,Ostiglia,IT,fossil_coal_gas,2361.0,11.030273,45.065762,CG,G,6.0,110
5331,Fadalto,IT,hydro_ror,250.0,12.414551,46.073231,RR,H,3.0,10
5285,Edolo,IT,hydro_ror,1280.0,10.38208,46.369674,RR,H,3.0,10
5284,S. Fiorano,IT,hydro_ror,620.0,10.469971,46.141783,RR,H,3.0,10
5240,S.Barbara,IT,fossil_coal_gas,444.0,11.403809,43.620171,CG,G,6.0,110
5301,Villavalle,IT,hydro_mixed,464.0,12.667236,42.617791,HY,H,3.0,60
5312,S. Giacomo,IT,hydro_ror,565.0,13.491211,42.55308,RR,H,3.0,10
5162,Montorio,IT,hydro_mixed,138.0,13.699951,42.4802,HY,H,3.0,60
5166,Vado Ligure,IT,fossil_brown_lignite,1659.0,8.261719,44.292401,LI,C,6.0,24
5164,Entracque,IT,hydro_ror,1510.0,7.382812,44.166445,RR,H,3.0,10
5334,Somplago,IT,hydro_mixed,180.0,12.832031,46.384833,HY,H,3.0,60
5222,Bargi,IT,hydro_mixed,370.0,11.12915,44.276671,HY,H,3.0,60
5343,Trino,IT,fossil_coal_gas,815.0,8.19580100000001,45.213004,CG,G,6.0,110
5344,Rosen,IT,fossil_oil,488.0,10.447998,43.357138,FO,F,6.0,100
5345,Pietraffita,IT,fossil_oil,667.0,12.337646,42.932296,FO,F,6.0,100
5347,Ferrera Erbognone,IT,fossil_coal_gas,1271.0,8.712158,45.127805,CG,G,6.0,110
5348,Voghera,IT,fossil_oil,469.0,8.97583,45.05024,FO,F,6.0,100
5350,Mantova,IT,fossil_oil,985.0,10.997314,45.251688,FO,F,6.0,100
5282,Mincio,IT,fossil_oil,646.0,10.634766,45.390735,FO,F,6.0,100
5356,Gissi,IT,fossil_oil,970.0,14.512939,42.212245,FO,F,6.0,100
5353,Ferrara,IT,fossil_oil,912.0,11.293945,44.809122,FO,F,6.0,100
5174,Leyni,IT,fossil_oil,446.0,7.75634799999999,45.390735,FO,F,6.0,100
5224,Livorno,IT,fossil_oil,404.0,10.327148,43.683764,FO,F,6.0,100
5202,La Spezia,IT,fossil_brown_lignite,1615.0,9.7229,44.087585,LI,C,6.0,24
5213,Piombino,IT,fossil_oil,1436.0,10.689697,42.932296,FO,F,6.0,100
5219,Torvaldaliga Nord,IT,fossil_brown_lignite,2910.0,11.722412,42.163403,LI,C,6.0,24
5216,Torvaldaliga Sud,IT,fossil_coal_gas,2002.0,11.810303,42.041134,CG,G,6.0,110
5358,Ravenna,IT,fossil_coal_gas,1184.0,12.249756,44.402392,CG,G,6.0,110
5337,Monfalcone,IT,fossil_brown_lignite,1072.0,13.458252,45.744527,LI,C,6.0,24
5385,Bergum10/20,NL,fossil_coal_gas,664.0,6.17431599999999,53.19287,CG,G,6.0,110
5373,Velsen24/25,NL,fossil_coal_gas,830.0,4.603271,52.476089,CG,G,6.0,110
5375,Hemweg7,NL,fossil_coal_gas,590.0,4.943848,52.167194,CG,G,6.0,110
5375,Hemweg8,NL,fossil_brown_lignite,630.0,4.998779,52.187405,LI,C,6.0,24
6082,Amer,NL,fossil_brown_lignite,1240.0,5.05371100000001,51.556582,LI,C,6.0,24
5362,Sloe10/20,NL,fossil_coal_gas,850.0,3.625488,51.467697,CG,G,6.0,110
3027,Swentibold,NL,fossil_coal_gas,242.0,5.84472700000001,50.923813,CG,G,6.0,110
5365,ClausA,NL,fossil_coal_gas,610.0,5.94360399999999,51.248163,CG,G,6.0,110
5375,Merwerdekanaal11/12,NL,fossil_coal_gas,323.0,5.130615,52.113252,CG,G,6.0,110
5375,Lage Weide6,NL,fossil_coal_gas,247.0,5.218506,52.187405,CG,G,6.0,110
5372,Gelderland13,NL,fossil_brown_lignite,593.0,5.82275399999999,51.795027,LI,C,6.0,24
6081,Moerdijk,NL,fossil_coal_gas,769.0,4.58129899999999,51.508742,CG,G,6.0,110
5365,Buggenum,NL,fossil_brown_lignite,240.0,6.020508,51.2,LI,C,6.0,24
5388,Flevo32/4/5,NL,fossil_coal_gas,1000.0,5.47119099999999,52.542955,CG,G,6.0,110
5376,Almere1/2,NL,fossil_coal_gas,112.0,5.251465,52.435921,CG,G,6.0,110
5362,ELSTA,NL,fossil_coal_gas,460.0,3.94409200000001,51.385495,CG,G,6.0,110
5435,Kostolac A,RS,fossil_brown_lignite,281.0,21.027832,44.793531,LI,C,6.0,24
5424,TENT B,RS,fossil_brown_lignite,1184.0,19.709473,44.699898,LI,C,6.0,24
5419,TENT A,RS,fossil_brown_lignite,1502.0,20.247803,44.574817,LI,C,6.0,24
5399,Perucica,ME,hydro_ror,307.0,18.885498,42.423457,RR,H,3.0,10
5396,Bistrica,RS,hydro_pure_storage,102.0,19.786377,43.596306,DA,H,4.0,80
5418,Kolubara,RS,fossil_brown_lignite,216.0,20.181885,44.425934,LI,C,6.0,24
5436,Kostolac B,RS,fossil_brown_lignite,640.0,21.137695,44.863656,LI,C,6.0,24
5397,Morava,RS,fossil_brown_lignite,108.0,20.698242,44.315988,LI,C,6.0,24
5396,Potpec,RS,hydro_ror,51.0,19.654541,43.548548,RR,H,3.0,10
5336,Solkan,SI,hydro_ror,31.5,13.612061,45.989329,RR,H,3.0,10
4284,Moste,SI,hydro_ror,21.0,14.040527,46.407564,RR,H,3.0,10
5319,Plave,SI,hydro_ror,34.0,13.568115,46.065608,RR,H,3.0,10
5319,Doblar,SI,hydro_ror,70.0,13.666992,46.202646,RR,H,3.0,10
5466,Medvode,SI,hydro_ror,45.0,14.381104,46.164614,RR,H,3.0,10
5472,Zlatoličje,SI,hydro_ror,135.0,15.820312,46.369674,RR,H,3.0,10
5472,Ožbalt,SI,hydro_ror,73.199997,15.358887,46.589069,RR,H,3.0,10
5470,Trbovlje,SI,fossil_brown_lignite,168.0,14.908447,46.080852,LI,C,6.0,24
5468,Vuhred,SI,hydro_ror,72.300003,15.194092,46.604167,RR,H,3.0,10
5470,Vrhovo,SI,hydro_ror,34.0,15.161133,46.057985,RR,H,3.0,10
5467,Brestanica,SI,fossil_mixed,312.0,15.457764,46.019853,FM,F,6.0,100
5472,M.Otok,SI,hydro_ror,60.0,15.600586,46.634351,RR,H,3.0,10
5467,Krško,SI,nuclear,696.0,15.391846,45.867063,NU,N,6.0,16
5466,Ljubljana,SI,fossil_brown_lignite,113.0,14.39209,46.004593,LI,C,6.0,24
5468,Dravograd,SI,hydro_ror,26.200001,14.908447,46.573967,RR,H,3.0,10
5468,Vuzenica,SI,hydro_ror,55.599998,15.05127,46.604167,RR,H,3.0,10
5472,Fala,SI,hydro_ror,58.0,15.512695,46.566414,RR,H,3.0,10
5465,Mavčiče,SI,hydro_ror,38.0,14.227295,46.17983,RR,H,3.0,10
5467,Boštanj,SI,hydro_ror,34.0,15.281982,46.050361,RR,H,3.0,10
5319,Avče,SI,hydro_pure_ps,180.0,13.677979,46.126556,PS,H,3.0,100
5467,Blanca,SI,hydro_ror,42.5,15.336914,45.996962,RR,H,3.0,10
5612,Pradella,CH,hydro_pure_storage,288.0,10.283203,46.845164,DA,H,4.0,80
5586,Bärenburg,CH,hydro_pure_storage,220.0,9.26147499999999,46.551305,DA,H,4.0,80
5589,Sils,CH,hydro_pure_storage,247.0,9.25048800000001,46.664517,DA,H,4.0,80
5574,Olivone,CH,hydro_pure_storage,96.0,8.986816,46.551305,DA,H,4.0,80
5573,Sedrun,CH,hydro_pure_storage,147.0,8.67919900000001,46.566414,DA,H,4.0,80
5506,Grimsel,CH,hydro_mixed,311.0,8.20678699999999,46.54375,HY,H,3.0,60
5540,Innertkirchen,CH,hydro_pure_storage,240.0,8.02001999999999,46.664517,DA,H,4.0,80
5582,Tavanasa,CH,hydro_pure_storage,176.0,8.800049,46.762443,DA,H,4.0,80
5580,Tierfehd,CH,hydro_mixed,295.0,8.843994,47.002734,HY,H,3.0,60
5749,Mapragg,CH,hydro_mixed,274.0,9.18456999999999,46.920255,HY,H,3.0,60
5525,Mühleberg,CH,nuclear,373.0,7.32788099999999,46.980252,NU,N,6.0,16
5512,Veytaux,CH,hydro_pure_ps,240.0,6.855469,46.468133,PS,H,3.0,100
5509,Bâtiaz,CH,hydro_mixed,170.0,6.888428,46.149394,HY,H,3.0,60
5507,Fionnay FMM,CH,hydro_pure_storage,138.0,7.30590800000001,46.012224,DA,H,4.0,80
5508,Fionnay GD,CH,hydro_pure_storage,300.0,7.481689,46.035109,DA,H,4.0,80
2339,Riddes,CH,hydro_pure_storage,225.0,7.08618200000001,46.172223,DA,H,4.0,80
5514,Chamoson,CH,hydro_pure_storage,1644.0,7.45971699999999,46.233053,DA,H,4.0,80
5518,Stalden,CH,hydro_pure_storage,180.0,7.745361,46.225453,DA,H,4.0,80
5521,Bitsch,CH,hydro_pure_storage,331.0,7.94311499999999,46.407564,DA,H,4.0,80
5561,Verbano,CH,hydro_pure_storage,146.0,8.580322,46.195042,DA,H,4.0,80
5621,Robiei,CH,hydro_pure_ps,168.0,8.45947300000001,46.369674,PS,H,3.0,100
5620,Bavona,CH,hydro_pure_storage,124.0,8.481445,46.308996,DA,H,4.0,80
5627,Biasca,CH,hydro_pure_storage,324.0,9.14062499999999,46.354511,DA,H,4.0,80
5594,Löbbia,CH,hydro_pure_storage,95.0,9.63501,46.437857,DA,H,4.0,80
5584,Castasegna,CH,hydro_pure_storage,100.0,9.558105,46.316584,DA,H,4.0,80
5501,Leibstadt,CH,nuclear,1220.0,8.085938,47.546872,NU,N,6.0,16
5548,Gösgen,CH,nuclear,1010.0,7.88818400000001,47.323931,NU,N,6.0,16
4992,Cattenom,FR,nuclear,5200.0,6.38305700000001,49.410973,NU,N,6.0,16
3082,Esch,LU,fossil_coal_gas,385.0,6.15234400000001,49.510944,CG,G,6.0,110
4353,Knippegroen,BE,fossil_mixed,305.0,3.713379,51.234407,FM,F,6.0,100
5591,Rothenbrunnen,CH,hydro_pure_storage,127.0,9.26147499999999,46.747389,DA,H,4.0,80
5569,Cavergno,CH,hydro_pure_storage,104.0,8.73413099999999,46.293816,DA,H,4.0,80
2906,Hohenwarte II,DE,hydro_pure_ps,318.0,11.612549,50.701677,PS,H,3.0,100
4391,Trebinje,BA,hydro_ror,171.0,18.48999,42.730874,RR,H,3.0,10
4715,Provence,FR,fossil_brown_lignite,810.0,5.64697299999999,43.500752,LI,C,6.0,24
4748,Le Cheylas,FR,hydro_pure_ps,485.0,5.877686,45.39845,PS,H,3.0,100
2977,Charlottenburg,DE,fossil_coal_gas,211.0,13.150635,52.435921,CG,G,6.0,110
2970,Lichterfelde,DE,fossil_coal_gas,432.0,13.238525,52.187405,CG,G,6.0,110
2620,Wilhelmshaven,DE,fossil_brown_lignite,2147.0,8.129883,53.455349,LI,C,6.0,24
5831,Kiel,DE,fossil_brown_lignite,323.0,10.327148,54.380557,LI,C,6.0,24
2632,Mehrum,DE,fossil_brown_lignite,654.0,10.129395,52.180669,LI,C,6.0,24
5624,Handeck,CH,hydro_mixed,113.0,8.31665,46.649436,HY,H,3.0,60
5585,Ferrera,CH,hydro_mixed,180.0,9.31640599999999,46.490829,HY,H,3.0,60
5541,Göschenen,CH,hydro_pure_storage,160.0,8.47045899999999,46.626806,DA,H,4.0,80
3973,Iaşi 2,RO,fossil_coal_gas,117.0,27.421875,47.189712,CG,G,6.0,110
5899,H.C.Ørsted-værket,DK,fossil_coal_gas,138.0,13.238525,55.128649,CG,G,6.0,110
5899,Amager-værket,DK,fossil_mixed,333.0,13.238525,55.059495,FM,F,6.0,100
5899,Avedøre-værket,DK,fossil_mixed,803.0,13.227539,54.983918,FM,F,6.0,100
4343,Schwechat,AT,fossil_oil,120.0,16.54541,48.210032,FO,F,6.0,100
4286,Linz Mitte,AT,fossil_coal_gas,217.0,14.238281,48.458352,CG,G,6.0,110
4342,Linz Süd,AT,fossil_coal_gas,171.5,14.095459,48.283193,CG,G,6.0,110
4289,Korneuburg,AT,fossil_coal_gas,130.0,16.314697,48.458352,CG,G,6.0,110
4345,GDK I Mellach,AT,fossil_coal_gas,832.0,15.875244,46.920255,CG,G,6.0,110
4339,Lenzing,AT,biomass,100.0,13.469238,47.967859,BM,O,0.0,10
5845,Limberg II,AT,hydro_pure_ps,480.0,12.821045,47.107523,PS,H,3.0,100
4322,Hintermuhr,AT,hydro_pure_ps,104.0,13.798828,47.129951,PS,H,3.0,100
4285,Kops I + II,AT,hydro_mixed,772.0,10.140381,46.965259,HY,H,3.0,60
4404,Bocac,BA,hydro_ror,110.0,17.303467,44.402392,RR,H,3.0,10
4404,Jajce I,BA,hydro_ror,60.0,17.545166,44.221584,RR,H,3.0,10
4407,Jablanica,BA,hydro_ror,180.0,18.1604,43.651975,RR,H,3.0,10
4395,Mostar,BA,hydro_ror,72.0,18.083496,43.452919,RR,H,3.0,10
3689,Bratislava,SK,fossil_coal_gas,218.0,17.215576,48.180739,CG,G,6.0,110
3708,Košice,SK,fossil_coal_hard,121.0,21.192627,48.647428,HC,C,6.0,35
2380,Opatovice,CZ,fossil_brown_lignite,166.0,15.754395,50.148746,LI,C,6.0,24
2349,Kamýk,CZ,hydro_ror,40.0,14.249268,49.674738,RR,H,3.0,10
2377,Slapy,CZ,hydro_ror,132.0,14.39209,49.77417,RR,H,3.0,10
2215,Kladno,CZ,fossil_mixed,370.0,14.106445,50.099441,FM,F,6.0,100
2961,Dresden Nossener Brücke,DE,fossil_coal_gas,270.0,13.710938,50.993014,CG,G,6.0,110
2984,PCK Schwedt,DE,fossil_oil,300.0,14.161377,53.159947,FO,F,6.0,100
5363,Inesco,BE,fossil_coal_gas,133.0,4.40551799999999,51.289406,CG,G,6.0,110
4351,Exxon,BE,fossil_coal_gas,140.0,4.54834,51.358062,CG,G,6.0,110
5363,Zandvliet,BE,fossil_coal_gas,395.0,4.39453100000001,51.351201,CG,G,6.0,110
5123,Ajka,HU,fossil_brown_lignite,88.0,17.479248,47.047669,LI,C,6.0,24
5152,Borsod,HU,fossil_brown_lignite,116.0,20.797119,48.400032,LI,C,6.0,24
5119,Csepel,HU,fossil_coal_gas,403.0,19.017334,47.309034,CG,G,6.0,110
5141,Debrecen,HU,fossil_coal_gas,93.0,21.730957,47.576526,CG,G,6.0,110
5133,Dunaújváros,HU,fossil_coal_gas,66.0,18.874512,46.972756,CG,G,6.0,110
5119,Kelenföld,HU,fossil_coal_gas,190.0,18.786621,47.428087,CG,G,6.0,110
5130,Kispest,HU,fossil_coal_gas,106.0,18.995361,47.41322,CG,G,6.0,110
5130,Újpest,HU,fossil_coal_gas,106.0,19.072266,47.472663,CG,G,6.0,110
5129,Litér,HU,fossil_oil,119.0,18.006592,47.040182,FO,F,6.0,100
5120,Lőrinci,HU,fossil_oil,169.0,19.753418,47.798397,FO,F,6.0,100
5145,Pécs,HU,fossil_coal_gas,110.0,18.347168,46.126556,CG,G,6.0,110
5150,Sajószöged,HU,fossil_oil,119.0,21.192627,47.953145,FO,F,6.0,100
5121,Tiszapalkonya,HU,fossil_brown_lignite,177.0,21.357422,48.011975,LI,C,6.0,24
4951,Bouchain,FR,fossil_coal_gas_cons,563.0,3.28491200000001,50.268277,CG,G,6.0,110
5042,Amfard,FR,fossil_coal_gas,250.0,0.483397999999997,49.4467,CG,G,6.0,110
4875,Montereau,FR,fossil_oil,374.0,2.834473,48.385442,FO,F,6.0,100
5007,Marckolsheim,FR,hydro_ror,155.0,7.56958000000001,48.129434,RR,H,3.0,10
5013,Gertsheim,FR,hydro_ror,141.0,7.734375,48.356249,RR,H,3.0,10
5064,Brommat,FR,hydro_ror,406.0,2.790527,44.684277,RR,H,3.0,10
4595,St-Etienne-Cantales,FR,hydro_ror,107.0,2.30712900000001,44.933696,RR,H,3.0,10
4616,St-Pierre-Mareges,FR,hydro_ror,120.0,2.48291,45.39845,RR,H,3.0,10
4616,Mareges,FR,hydro_ror,146.0,2.48291,45.336702,RR,H,3.0,10
4596,Montahut,FR,hydro_ror,95.0,2.85644499999999,43.53262,RR,H,3.0,10
4473,Aston,FR,hydro_ror,104.0,1.505127,42.771211,RR,H,3.0,10
4569,Orlu,FR,hydro_ror,89.0,1.988525,42.803462,RR,H,3.0,10
4567,L'' Hospitalet,FR,hydro_ror,93.0,1.86767600000001,42.609706,RR,H,3.0,10
4580,La Gracieuse,FR,fossil_coal_gas,490.0,4.80102499999999,43.381098,CG,G,6.0,110
4657,St. Chamas,FR,hydro_ror,159.0,5.130615,43.484812,RR,H,3.0,10
4565,Salon,FR,hydro_ror,96.0,5.16357399999999,43.596306,RR,H,3.0,10
4656,Mallemort,FR,hydro_ror,93.0,5.262451,43.802819,RR,H,3.0,10
4649,Caderousse,FR,hydro_ror,156.0,4.910889,44.0718,RR,H,3.0,10
4649,Avignon,FR,hydro_ror,162.0,4.80102499999999,43.992815,RR,H,3.0,10
4731,Curban,FR,hydro_ror,139.0,5.91064499999999,44.425934,RR,H,3.0,10
4645,Pied-de-Borne,FR,hydro_ror,109.0,3.977051,44.441624,RR,H,3.0,10
4647,Montpezat,FR,hydro_ror,132.0,4.108887,44.613934,RR,H,3.0,10
4638,Gervans,FR,hydro_ror,116.0,4.79003900000001,45.02695,RR,H,3.0,10
4684,Sablons,FR,hydro_ror,161.0,4.80102499999999,45.243953,RR,H,3.0,10
4751,Pont de Claix,FR,fossil_oil,173.0,5.54809599999999,45.058001,FO,F,6.0,100
4756,St-Pierre-Cognet,FR,hydro_ror,101.0,5.81176799999999,44.754535,RR,H,3.0,10
4755,St. Guillerme,FR,hydro_ror,116.0,5.88867200000001,44.964798,RR,H,3.0,10
4692,Pierre Benite,FR,hydro_ror,81.0,4.70214800000001,45.652448,RR,H,3.0,10
4772,Villarodin,FR,hydro_ror,480.0,6.82251000000001,45.18978,RR,H,3.0,10
4781,Les Brevieres,FR,hydro_ror,96.0,6.97631799999999,45.552525,RR,H,3.0,10
4768,Hermillon,FR,hydro_ror,116.0,6.43798799999999,45.298075,RR,H,3.0,10
4775,Randens,FR,hydro_ror,124.0,6.229248,45.514046,RR,H,3.0,10
4763,Brens,FR,hydro_ror,91.0,5.789795,45.637087,RR,H,3.0,10
4782,Passy,FR,hydro_ror,104.0,6.624756,45.9053,RR,H,3.0,10
4767,Chautagne,FR,hydro_ror,92.0,5.80078100000001,45.9053,RR,H,3.0,10
5069,Genissiat,FR,hydro_ror,405.0,5.89965800000001,46.050361,RR,H,3.0,10
5017,Gambsheim,FR,hydro_ror,98.0,7.910156,48.734455,RR,H,3.0,10
4718,St. Esteve,FR,hydro_ror,141.0,5.50415000000001,43.659924,RR,H,3.0,10
4436,Lešċe,HR,hydro_ror,42.0,15.238037,45.328979,RR,H,3.0,10
3346,Pątnów II,PL,fossil_brown_lignite,430.0,18.116455,52.402419,LI,C,6.0,24
3304,Płock CHP,PL,fossil_oil,332.0,19.577637,52.656394,FO,F,6.0,100
4000,Petrom Brazi CHP,RO,fossil_coal_gas,868.0,26.246338,44.871443,CG,G,6.0,110
5376,ECW,NL,fossil_coal_gas_cons,247.0,4.998779,52.516221,CG,G,6.0,110
5365,ClausC,NL,fossil_coal_gas,1309.0,6.08642599999999,51.25504,CG,G,6.0,110
5375,Diemen33,NL,fossil_coal_gas,243.0,5.19653299999999,52.254709,CG,G,6.0,110
5375,Diemen34,NL,fossil_coal_gas,430.0,5.251465,52.295042,CG,G,6.0,110
5375,Hemweg9,NL,fossil_coal_gas,430.0,4.96582000000001,52.133488,CG,G,6.0,110
5373,Ijmond,NL,fossil_coal_gas,144.0,4.63622999999999,52.409121,CG,G,6.0,110
5362,Borssele30,NL,nuclear,484.0,3.85620100000001,51.508742,NU,N,6.0,16
5362,Borssele12,NL,fossil_brown_lignite,404.0,3.77929700000001,51.495065,LI,C,6.0,24
3309,Żerań CHP,PL,fossil_coal_hard,336.0,21.126709,52.207607,HC,C,6.0,35
5977,Ham,BE,fossil_coal_gas,357.0,3.625488,50.889174,CG,G,6.0,110
3307,Siekierki CHP,PL,fossil_coal_hard,539.0,21.148682,52.086257,HC,C,6.0,35
3297,Włocławek,PL,hydro_ror,156.0,19.160156,52.722986,RR,H,3.0,10
2989,Dychów,PL,hydro_mixed,90.0,14.886475,51.944265,HY,H,3.0,60
3279,Kraków Łęg CHP,PL,biomass,109.0,20.039062,50.007739,BM,O,0.0,10
3687,Niedzica,PL,hydro_mixed,92.0,20.093994,49.468124,HY,H,3.0,60
3282,Rożnów,PL,hydro_pure_storage,56.0,20.786133,49.653405,DA,H,4.0,80
3313,Solina,PL,hydro_mixed,198.0,22.5,49.217597,HY,H,3.0,60
2841,GKM,DE,fossil_coal_hard,870.0,8.448486,49.37522,HC,C,6.0,35
2803,Heilbronn 7,DE,fossil_coal_hard,721.0,9.42627000000001,49.21042,HC,C,6.0,35
2674,Karlsruhe RDK 7,DE,fossil_coal_hard,501.0,8.17382799999999,49.023461,HC,C,6.0,35
2673,Karlsruhe RDK 4,DE,fossil_coal_gas,365.0,8.11889599999999,49.037868,CG,G,6.0,110
2795,Marbach DT 3,DE,fossil_oil,251.0,9.107666,48.908059,FO,F,6.0,100
2652,Säckingen,DE,hydro_pure_ps,360.0,7.98706099999999,47.650588,PS,H,3.0,100
2656,Waldshut,DE,hydro_mixed,90.0,8.28369100000001,47.694974,HY,H,3.0,60
5936,NAM Schoonebeek,NL,fossil_coal_gas,130.0,6.932373,52.736292,CG,G,6.0,110
3228,Adamów,PL,fossil_brown_lignite,552.0,18.358154,52.025459,LI,C,6.0,24
5861,Ensdorf,DE,fossil_brown_lignite,408.0,6.811523,49.28214,LI,C,6.0,24
3008,Goldenberg,DE,fossil_brown_lignite,171.0,6.624756,50.826758,LI,C,6.0,24
2802,Heilbronn,DE,fossil_coal_hard,1441.0,9.39331099999999,49.174522,HC,C,6.0,35
4720,St. Tulle,FR,hydro_ror,88.0,5.72387699999999,43.850374,RR,H,3.0,10
3340,Wrocław CHP,PL,fossil_coal_hard,238.0,17.061768,51.020666,HC,C,6.0,35
3266,Gdańsk 2 CHP,PL,fossil_coal_hard,206.0,18.599854,54.367759,HC,C,6.0,35
3252,Poznań-Karolin CHP,PL,fossil_coal_hard,246.0,16.864014,52.368892,HC,C,6.0,35
3336,Chorzów 2 CHP,PL,fossil_coal_hard,208.0,18.907471,50.366489,HC,C,6.0,35
3319,Lublin-Wrotków CHP,PL,fossil_coal_gas,226.0,22.675781,51.234407,CG,G,6.0,110
2884,Brunsbüttel,DE,fossil_oil,256.0,9.14062499999999,53.93022,FO,F,6.0,100
5892,GKN 2,DE,nuclear,1310.0,9.327393,49.102645,NU,N,6.0,16
5437,Zrenjanin,RS,fossil_coal_gas,100.0,20.544434,45.421588,CG,G,6.0,110
5428,Novi Sad,RS,fossil_coal_gas,208.0,19.80835,45.313529,CG,G,6.0,110
5403,Bajina Basta,RS,hydro_pure_ps,978.0,19.80835,44.0718,PS,H,3.0,100
5439,Djerdap 1,RS,hydro_ror,1080.0,22.37915,44.676466,RR,H,3.0,10
5414,Kosovo B,RS,fossil_brown_lignite,618.0,21.247559,42.561173,LI,C,6.0,24
5410,Kosovo A,RS,fossil_brown_lignite,617.0,21.09375,42.374778,LI,C,6.0,24
2807,Gundremmingen C,DE,nuclear,1288.0,10.360107,48.516604,NU,N,6.0,16
2833,Isar II,DE,nuclear,1410.0,12.282715,48.719961,NU,N,6.0,16
2670,Philippsburg II,DE,nuclear,1402.0,8.360596,49.246293,NU,N,6.0,16
2628,Grohnde,DE,nuclear,1360.0,9.31640599999999,51.937492,NU,N,6.0,16
4382,Marcinelle,BE,fossil_coal_gas,420.0,4.504395,50.324423,CG,G,6.0,110
6059,Gabčíkovo,SK,hydro_ror,747.0,17.797852,47.798397,RR,H,3.0,10
4039,Kozloduy,BG,nuclear,2000.0,23.642578,43.786958,NU,N,6.0,16
6655,Schärding,AT,hydro_ror,96.0,13.381348,48.297812,RR,H,3.0,10
6682,Piva,ME,hydro_pure_ps,342.0,18.874512,43.189158,PS,H,3.0,100
6656,Pljevlja 2,ME,other_nl,220.0,19.313965,43.309191,OT,O,3.0,10
5946,Limmern,CH,hydro_pure_ps,1000.0,8.887939,46.822617,PS,H,3.0,100
3348,Konin,PL,biomass,50.0,18.204346,52.173932,BM,O,0.0,10
6001,Szczecin CHP,PL,biomass,63.0,14.622803,53.370221,BM,O,0.0,10
4327,Leopoldau,AT,fossil_coal_gas,130.0,16.600342,48.319734,CG,G,6.0,110
6020,Gerlos II,AT,hydro_ror,200.100006,11.964111,47.294134,RR,H,3.0,10
4345,GDK II Mellach,AT,fossil_coal_gas,832.0,15.710449,46.897739,CG,G,6.0,110
5997,Walheim,DE,fossil_coal_hard,1441.0,9.107666,49.016257,HC,C,6.0,35
6037,Stanari,BA,fossil_brown_lignite,630.0,17.940674,44.676466,LI,C,6.0,24
3297,Włocławek CHP,PL,fossil_coal_gas,476.0,19.050293,52.61639,CG,G,6.0,110
6628,Maritsa Iztok 3,BG,fossil_oil,908.0,26.345215,42.261049,FO,F,6.0,100
5545,Laufenburg,CH,hydro_ror,106.0,8.05297900000001,47.457809,RR,H,3.0,10
6130,Flamanville,FR,nuclear,2660.0,-1.724854,49.518076,NU,N,6.0,16
6145,Cordemais Poste,FR,fossil_oil,2530.0,-1.84570299999999,47.212106,FO,F,6.0,100
6141,Brennilis,FR,fossil_oil,304.0,-3.702393,48.356249,FO,F,6.0,100
6158,Rance,FR,hydro_ror,240.0,-2.17529300000001,48.618385,RR,H,3.0,10
6338,Sanzo,ES,hydro_ror,50.0,-7.163086,43.213183,RR,H,3.0,10
6232,S.Agustin,ES,hydro_ror,63.0,-7.13012700000001,42.155259,RR,H,3.0,10
6231,Prada,ES,hydro_ror,72.0,-6.943359,42.228517,RR,H,3.0,10
6224,P.Bibey,ES,hydro_ror,325.0,-7.19604499999999,42.220382,RR,H,3.0,10
6231,Santiago,ES,hydro_ror,55.0,-7.10815399999999,42.309815,RR,H,3.0,10
6250,La Barca,ES,hydro_ror,595.0,-6.635742,43.133061,RR,H,3.0,10
6318,Salas,ES,hydro_ror,255.0,-6.35009799999999,43.301196,RR,H,3.0,10
6327,Soto de Ribera,ES,other_nl,604.0,-5.67993199999999,43.245203,OT,O,3.0,10
6136,Dirinon,FR,fossil_oil,170.0,-4.39453100000001,48.378145,FO,F,6.0,100
6148,Grandes-Rivières,FR,fossil_coal_gas,446.0,-2.120361,47.294134,CG,G,6.0,110
6256,Lada,ES,other_nl,513.0,-5.18554700000001,43.181147,OT,O,3.0,10
87,Bistrica 1,AL,Hydro,27.0,20.1047,39.9116,HY,H,3.0,60
4331,Dionysen,AT,Hydro,16.0,15.2833,47.4167,HY,H,3.0,60
4331,Leoben,AT,Hydro,10.0,15.1,47.3833,HY,H,3.0,60
4331,St. Martin,AT,Hydro,10.0,15.2849,47.4467,HY,H,3.0,60
4363,La Vierre,BE,Hydro,1.9,5.377,49.733,HY,H,3.0,60
81,IVAILOVGRAD,BG,Hydro,114.0,26.1075,41.5839,HY,H,3.0,60
116,KARDZHALI,BG,Hydro,110.0,25.3381,41.6334,HY,H,3.0,60
3997,Vidin Works power station,BG,Coal,120.0,22.8509,43.9484,HC,H,6.0,35
4448,Cakovec Hydroelectric Power Plant Croatia Croatia,HR,Hydro,76.0,16.4945,46.3113,HY,H,3.0,60
4448,Dubrava Hydroelectric Power Plant Croatia Croatia,HR,Hydro,76.0,16.7489,46.3205,HY,H,3.0,60
4431,Golubic Hydroelectric Power Plant Croatia Croatia,HR,Hydro,7.5,16.2204,44.09,HY,H,3.0,60
4431,Jaruga Hydroelectric Power Plant Croatia Croatia,HR,Hydro,7.2,15.9626,43.805,HY,H,3.0,60
4447,Osijek TE-TO CHP Power Plant Croatia,HR,Gas,89.0,18.7449,45.542,CG,G,6.0,110
7818,Hodonin power station,CZ,Coal,105.0,17.1197,48.8474,HC,H,6.0,35
2362,Plzenska Tepalrenska,CZ,Coal,137.0,13.3988,49.7542,HC,H,6.0,35
2362,Plzenska energetika ELU III,CZ,Coal,65.0,13.3455,49.7395,HC,H,6.0,35
2389,Zlin power station,CZ,Coal,64.0,17.654,49.2257,HC,H,6.0,35
2455,Herning CHP,DK,Biomass,88.0,9.0068,56.1214,BM,O,0.0,10
4509,Aiguillon,FR,Hydro,1.177,0.3577,44.3009,HY,H,3.0,60
5051,Allemant,FR,Biomass,1.26,3.4535,49.4624,BM,O,0.0,10
5951,Ambrières-les-Vallées,FR,Hydro,1.4,-0.6245,48.4228,HY,H,3.0,60
4922,Amiens,FR,Biomass,2.83,2.2907,49.9003,BM,O,0.0,10
4678,Anost,FR,Hydro,1.9,4.0922,47.0767,HY,H,3.0,60
4739,Antibes,FR,Biomass,11.44,7.1054,43.5876,BM,O,0.0,10
4593,Arcambal,FR,Hydro,2.4,1.5482,44.4548,HY,H,3.0,60
4477,Arette,FR,Hydro,1.228,-0.7361,43.0403,HY,H,3.0,60
5486,Arlos,FR,Hydro,5.3,0.6955,42.8744,HY,H,3.0,60
4477,Arudy,FR,Hydro,1.148,-0.4746,43.1005,HY,H,3.0,60
4592,Aubas,FR,Hydro,1.126,1.1985,45.0792,HY,H,3.0,60
4476,Auch,FR,Biomass,1.067,0.5751,43.6533,BM,O,0.0,10
4737,Auribeau-sur-Siagne,FR,Hydro,2.4,6.9118,43.6121,HY,H,3.0,60
6936,Auterive,FR,Hydro,2.273,1.4775,43.3594,HY,H,3.0,60
4974,BLENOD 5,FR,Gas,427.0,6.0849,48.8681,CG,G,6.0,110
4618,Badecon-le-Pin,FR,Hydro,8.0,1.6014,46.5326,HY,H,3.0,60
7645,Baigts-de-Béarn,FR,Hydro,7.905,-0.8463,43.5244,HY,H,3.0,60
4857,Bailleul-sur-Thérain,FR,Biomass,2.478,2.231,49.3852,BM,O,0.0,10
6167,Banca,FR,Hydro,3.78,-1.3716,43.1001,HY,H,3.0,60
5117,Bar-sur-Aube,FR,Biomass,1.5,4.7152,48.234,BM,O,0.0,10
7344,Bayonne,FR,Biomass,3.567,-1.4662,43.4923,BM,O,0.0,10
7567,Benet,FR,Biomass,2.126,-0.6137,46.3692,BM,O,0.0,10
4517,Bergerac,FR,Hydro,1.4,0.4864,44.8542,HY,H,3.0,60
7016,Bessières,FR,Hydro,4.6,1.5859,43.797,HY,H,3.0,60
4920,Bimont,FR,Biomass,1.0,1.9089,50.5409,BM,O,0.0,10
1134,Bouillante,FR,Geothermal,4.5,-61.769,16.1272,GT,O,6.0,0.0
7350,Bourg-et-Comin,FR,Hydro,2.52,3.6594,49.4027,HY,H,3.0,60
4922,Boves,FR,Biomass,1.903,2.3826,49.8414,BM,O,0.0,10
4516,Bruniquel,FR,Hydro,1.061,1.66,44.0521,HY,H,3.0,60
5025,Bujaleuf,FR,Hydro,12.8,1.6312,45.7924,HY,H,3.0,60
4477,Buzy,FR,Hydro,9.8,-0.4466,43.1411,HY,H,3.0,60
4593,Cajarc,FR,Hydro,8.5,1.8384,44.4939,HY,H,3.0,60
4571,Calce,FR,Biomass,22.485,2.7564,42.748,BM,O,0.0,10
5215,Cargiaca,FR,Hydro,3.49,9.0412,41.7322,HY,H,3.0,60
4485,Castillon-de-Saint-Martory,FR,Hydro,1.9,0.851,43.1371,HY,H,3.0,60
5215,Castirla,FR,Hydro,54.5,9.134,42.38,HY,H,3.0,60
4590,Castres,FR,Hydro,1.315,2.2382,43.6156,HY,H,3.0,60
4599,Causse-de-la-Selle,FR,Hydro,3.0,3.6295,43.7932,HY,H,3.0,60
7336,Chagny,FR,Biomass,1.165,4.7747,46.8989,BM,O,0.0,10
4618,Champsanglard,FR,Hydro,6.3,1.8891,46.2801,HY,H,3.0,60
4535,Champteussé-sur-Baconne,FR,Biomass,1.902,-0.6537,47.67,BM,O,0.0,10
4536,Changé,FR,Biomass,9.0,-0.7997,48.1077,BM,O,0.0,10
4968,Charmes,FR,Hydro,1.5009,6.3186,48.3849,HY,H,3.0,60
4478,Charritte-de-Bas,FR,Hydro,9.4,-0.897,43.2951,HY,H,3.0,60
5110,Chaumont,FR,Biomass,4.2,5.1399,48.0976,BM,O,0.0,10
4678,Château-Chinon (Campagne),FR,Hydro,6.26,3.9403,47.0563,HY,H,3.0,60
6932,Château-Guibert,FR,Hydro,1.6,-1.2548,46.5743,HY,H,3.0,60
4622,Châtel-Montagne,FR,Hydro,8.8,3.7168,46.1002,HY,H,3.0,60
7015,Châtelus-le-Marcheix,FR,Hydro,10.236,1.6256,46.0068,HY,H,3.0,60
4632,Chézy,FR,Biomass,1.2,3.459,46.6124,BM,O,0.0,10
4487,Cierp-Gaud,FR,Hydro,11.0,0.6341,42.9129,HY,H,3.0,60
4509,Clairac,FR,Hydro,1.5,0.3866,44.3711,HY,H,3.0,60
4624,Clermont-Ferrand,FR,Biomass,18.62,3.1156,45.7859,BM,O,0.0,10
5960,Combrée,FR,Biomass,1.063,-1.02,47.7068,BM,O,0.0,10
6139,Concarneau,FR,Biomass,2.895,-3.9075,47.8962,BM,O,0.0,10
4792,Crissey,FR,Hydro,1.3,5.479,47.0516,HY,H,3.0,60
5032,Croix-de-Metz,FR,Gas,413.0,5.8917,48.675,CG,G,6.0,110
4582,Cubelles,FR,Hydro,1.72,3.564,44.9969,HY,H,3.0,60
4622,Cusset,FR,Biomass,1.065,3.4831,46.1372,BM,O,0.0,10
4927,Dannes,FR,Biomass,1.56,1.6061,50.5928,BM,O,0.0,10
4790,Dijon,FR,Biomass,9.02,5.0374,47.3231,BM,O,0.0,10
4789,Drambon,FR,Biomass,1.415,5.3791,47.3344,BM,O,0.0,10
4528,Ducey,FR,Hydro,1.6,-1.2793,48.6126,HY,H,3.0,60
4487,Eget,FR,Hydro,37.3,0.565,42.955,HY,H,3.0,60
4618,Eguzon,FR,Hydro,72.0,1.613,46.455,HY,H,3.0,60
5040,Esquay-sur-Seulles,FR,Biomass,1.432,-0.6229,49.2717,BM,O,0.0,10
5025,Eymoutiers,FR,Hydro,4.28,1.7405,45.7111,HY,H,3.0,60
5041,Fel,FR,Biomass,1.095,0.1124,48.7931,BM,O,0.0,10
1134,Fort-de-France,FR,Biomass,6.6,-61.0692,14.6409,BM,O,0.0,10
5486,Fos,FR,Hydro,10.6,0.7473,42.8607,HY,H,3.0,60
4635,Fourchambault,FR,Biomass,3.26,3.0902,47.0169,BM,O,0.0,10
5950,Gaillac,FR,Hydro,6.2,1.8862,43.9165,HY,H,3.0,60
4618,Gargilesse-Dampierre,FR,Hydro,9.0,1.6202,46.5061,HY,H,3.0,60
4598,Gignac,FR,Hydro,3.2,3.5736,43.6395,HY,H,3.0,60
5215,Giuncaggio,FR,Hydro,2.1,9.3824,42.1921,HY,H,3.0,60
5080,Grandrif,FR,Hydro,2.72,3.8348,45.5205,HY,H,3.0,60
7337,Granges,FR,Biomass,1.897,4.7519,46.737,BM,O,0.0,10
6150,Gueltas,FR,Biomass,1.065,-2.811,48.0915,BM,O,0.0,10
4528,Isigny-le-Buat,FR,Biomass,1.215,-1.1828,48.6213,BM,O,0.0,10
6159,Issé,FR,Biomass,2.134,-1.456,47.6173,BM,O,0.0,10
4478,Jurançon,FR,Hydro,1.129,-0.4069,43.2701,HY,H,3.0,60
4681,LUCY 3,FR,Coal,245.0,4.351,46.667,HC,H,6.0,35
7013,La Bastide-du-Salat,FR,Hydro,1.24,0.9998,43.0609,HY,H,3.0,60
5949,La Prétière,FR,Hydro,1.65,6.6096,47.4459,HY,H,3.0,60
6968,La Veuve,FR,Biomass,9.1,4.3337,49.0371,BM,O,0.0,10
7021,La Vraie-Croix,FR,Biomass,1.115,-2.5187,47.6899,BM,O,0.0,10
5950,Labessière-Candeil,FR,Biomass,3.675,2.0196,43.8005,BM,O,0.0,10
7634,Larrau,FR,Hydro,10.673,-0.973,43.01,HY,H,3.0,60
4642,Lattes,FR,Biomass,1.954,3.9025,43.5635,BM,O,0.0,10
4586,Lavaur,FR,Biomass,1.021,1.7946,43.6896,BM,O,0.0,10
4618,Le Bourg-d'Hem,FR,Hydro,13.7,1.8404,46.3006,HY,H,3.0,60
4548,Le Mans,FR,Biomass,14.375,0.2,47.9889,BM,O,0.0,10
4519,Le Palais-sur-Vienne,FR,Hydro,2.2,1.3248,45.8737,HY,H,3.0,60
6068,Le Tech,FR,Hydro,8.7,2.513,42.4418,HY,H,3.0,60
4478,Lescar,FR,Biomass,5.85,-0.4283,43.3404,BM,O,0.0,10
4585,Lescure-Jaoul,FR,Hydro,1.2,2.1472,44.2255,HY,H,3.0,60
4477,Licq-Atherey,FR,Hydro,27.4,-0.886,43.048,HY,H,3.0,60
4478,Licq-Athérey,FR,Hydro,15.909,-0.8787,43.0554,HY,H,3.0,60
4519,Limoges,FR,Biomass,1.5,1.249,45.8544,BM,O,0.0,10
4477,Lourdios-Ichère,FR,Hydro,1.105,-0.6556,43.0418,HY,H,3.0,60
4530,Louzy,FR,Biomass,2.126,-0.1809,47.0175,BM,O,0.0,10
5215,Lugo Di Nazza,FR,Hydro,39.0,9.316,42.091,HY,H,3.0,60
4813,Mainvilliers,FR,Biomass,8.7,1.4458,48.4623,BM,O,0.0,10
7491,Mana,FR,Hydro,4.48,-53.6455,4.9917,HY,H,3.0,60
4485,Mancioux,FR,Hydro,1.8,0.9413,43.167,HY,H,3.0,60
5949,Mathay,FR,Hydro,1.7,6.7707,47.4421,HY,H,3.0,60
5025,Mazet,FR,Hydro,56.0,1.803,45.801,HY,H,3.0,60
1379,Mda Mill,FR,Biomass,11.2,55.47,-21.32,BM,O,0.0,10
4513,Mercuès,FR,Hydro,1.96,1.3894,44.4975,HY,H,3.0,60
5092,Mervent,FR,Hydro,1.472,-0.7483,46.5324,HY,H,3.0,60
4485,Miramont-de-Comminges,FR,Hydro,4.7,0.7558,43.0912,HY,H,3.0,60
4482,Mirepeix,FR,Hydro,1.4,-0.251,43.1932,HY,H,3.0,60
4593,Montbrun,FR,Hydro,2.25,1.9032,44.5114,HY,H,3.0,60
5086,Montpellier,FR,Biomass,3.666,3.8694,43.6132,BM,O,0.0,10
7340,Montreuil-sur-Barse,FR,Biomass,2.11,4.2856,48.2167,BM,O,0.0,10
4494,Morcenx,FR,Biomass,12.0,-0.8884,44.0411,BM,O,0.0,10
4798,Mouthier-Haute-Pierre,FR,Hydro,1.1,6.2758,47.0345,HY,H,3.0,60
4970,Méréville,FR,Hydro,3.196,6.1369,48.5912,HY,H,3.0,60
5032,Nancy,FR,Hydro,1.5,6.176,48.6901,HY,H,3.0,60
4740,Nice,FR,Biomass,12.992,7.2375,43.7123,BM,O,0.0,10
4972,Noidans-le-Ferroux,FR,Biomass,2.75,5.9482,47.5675,BM,O,0.0,10
4800,Noirefontaine,FR,Hydro,4.9,6.7644,47.3471,HY,H,3.0,60
5215,Ocana,FR,Hydro,42.5,8.935,41.946,HY,H,3.0,60
5215,Olivese,FR,Hydro,1.4,9.069,41.8407,HY,H,3.0,60
4478,Oloron-Sainte-Marie,FR,Hydro,5.7,-0.5869,43.156,HY,H,3.0,60
4478,Orthez,FR,Hydro,1.6,-0.7801,43.494,HY,H,3.0,60
4478,Pardies,FR,Hydro,2.4,-0.5868,43.3667,HY,H,3.0,60
5025,Peyrissac,FR,Hydro,1.2,1.6949,45.506,HY,H,3.0,60
4478,Poey-d'Oloron,FR,Hydro,1.236,-0.6633,43.2471,HY,H,3.0,60
4485,Pointis-Inard,FR,Hydro,4.55,0.7971,43.0837,HY,H,3.0,60
4485,Pointis-de-Rivière,FR,Hydro,7.015,0.6255,43.0911,HY,H,3.0,60
5949,Pont-de-Roide,FR,Hydro,2.0,6.7628,47.3853,HY,H,3.0,60
4494,Pontenx-les-Forges,FR,Biomass,2.5,-1.0878,44.255,BM,O,0.0,10
6068,Prats-de-Mollo-la-Preste,FR,Hydro,1.16,2.4409,42.4199,HY,H,3.0,60
6552,Quistinic,FR,Hydro,1.15,-3.1271,47.9093,HY,H,3.0,60
5950,Rabastens,FR,Hydro,1.325,1.7151,43.8484,HY,H,3.0,60
4521,Rabodanges,FR,Hydro,6.6,-0.2895,48.8003,HY,H,3.0,60
7449,Rambervillers,FR,Biomass,6.176,6.6317,48.3462,BM,O,0.0,10
4671,Roanne,FR,Hydro,2.4,4.0801,46.0451,HY,H,3.0,60
4671,Sail-sous-Couzan,FR,Hydro,5.4,3.9618,45.7367,HY,H,3.0,60
4738,Saint Cassien,FR,Hydro,21.7,6.841,43.602,HY,H,3.0,60
4539,Saint-Barthélemy-d'Anjou,FR,Biomass,2.97,-0.4858,47.4739,BM,O,0.0,10
5025,Saint-Denis-des-Murs,FR,Hydro,3.33,1.5295,45.7797,HY,H,3.0,60
4627,Saint-Flour,FR,Hydro,3.6,3.5096,45.7102,HY,H,3.0,60
5951,Saint-Fraimbault-de-Prières,FR,Biomass,1.415,-0.5744,48.3492,BM,O,0.0,10
4485,Saint-Gaudens,FR,Biomass,1.74,0.7268,43.1196,BM,O,0.0,10
5093,Saint-Gervais-d'Auvergne,FR,Hydro,8.8,2.8311,46.0192,HY,H,3.0,60
4627,Saint-Gervais-sous-Meymo,FR,Hydro,1.09,3.6136,45.6707,HY,H,3.0,60
6150,Saint-Gilles-du-Mené,FR,Biomass,1.6,-2.5508,48.2434,BM,O,0.0,10
5025,Saint-Julien-le-Petit,FR,Hydro,10.8,1.7051,45.8223,HY,H,3.0,60
4508,Saint-Laurent-de-Cognac,FR,Biomass,1.0,-0.3948,45.6956,BM,O,0.0,10
4740,Saint-Laurent-du-Var,FR,Hydro,2.8,7.1823,43.6865,HY,H,3.0,60
5025,Saint-Léonard-de-Noblat,FR,Hydro,3.17,1.4954,45.841,HY,H,3.0,60
4598,Saint-Maurice-Navacelles,FR,Hydro,4.6,3.5064,43.8448,HY,H,3.0,60
4496,Saint-Maurice-sur-Adour,FR,Hydro,1.49,-0.4666,43.7915,HY,H,3.0,60
1379,Saint-Pierre,FR,Biomass,2.13,55.4909,-21.325,BM,O,0.0,10
7015,Saint-Pierre-Chérignat,FR,Hydro,6.4,1.6139,45.9602,HY,H,3.0,60
4633,Saint-Pourçain-sur-Sioule,FR,Hydro,1.825,3.306,46.3045,HY,H,3.0,60
4519,Saint-Priest-Taurion,FR,Hydro,2.13,1.3959,45.8977,HY,H,3.0,60
6167,Saint-Pée-sur-Nivelle,FR,Biomass,1.119,-1.5553,43.3561,BM,O,0.0,10
6064,Saint-Sulpice,FR,Hydro,1.586,1.6866,43.7594,HY,H,3.0,60
1379,Sainte-Suzanne,FR,Biomass,1.898,55.5908,-20.9511,BM,O,0.0,10
4568,Saverdun,FR,Hydro,1.05,1.5735,43.2269,HY,H,3.0,60
4590,Saïx,FR,Hydro,1.042,2.1714,43.5842,HY,H,3.0,60
5949,Soulce-Cernay,FR,Hydro,1.1,6.8684,47.328,HY,H,3.0,60
5215,Tallone,FR,Biomass,1.688,9.4658,42.1844,BM,O,0.0,10
4631,Teillet-Argenty,FR,Hydro,5.5,2.517,46.2627,HY,H,3.0,60
4586,Teyssode,FR,Hydro,1.55,1.9251,43.6459,HY,H,3.0,60
4485,Touille,FR,Hydro,1.925,0.9816,43.0833,HY,H,3.0,60
4589,Toulouse,FR,Hydro,9.01,1.4323,43.596,HY,H,3.0,60
4517,Tuilieres,FR,Hydro,32.0,0.633,44.845,HY,H,3.0,60
4626,Usson,FR,Hydro,9.3,3.3419,45.5271,HY,H,3.0,60
4613,Uzerche,FR,Hydro,2.8,1.5653,45.4242,HY,H,3.0,60
4485,Valentine,FR,Hydro,8.2,0.7013,43.0886,HY,H,3.0,60
4594,Villefranche-de-Rouergue,FR,Hydro,1.134,2.0311,44.3499,HY,H,3.0,60
4671,Villerest,FR,Hydro,58.0,4.0494,45.9869,HY,H,3.0,60
4671,Villerest,FR,Hydro,58.0,4.048,45.987,HY,H,3.0,60
4866,Villers-Saint-Paul,FR,Biomass,14.3,2.493,49.2885,BM,O,0.0,10
4613,Voutezac,FR,Hydro,2.82,1.4406,45.2928,HY,H,3.0,60
5215,Zicavo,FR,Hydro,3.4,9.167,41.8845,HY,H,3.0,60
4981,Éloyes,FR,Hydro,1.005,6.62,48.093,HY,H,3.0,60
6946,Épinal,FR,Hydro,1.15,6.4795,48.163,HY,H,3.0,60
2908,Biomass Generator #16,DE,Biomass,10.2,11.8018,51.9201,BM,O,0.0,10
7828,Biomass Generator #21,DE,Biomass,18.3,14.2584,52.1827,BM,O,0.0,10
7836,Biomass Generator #3,DE,Biomass,19.7,12.3771,53.1511,BM,O,0.0,10
7725,Biomass Generator #8,DE,Biomass,14.0,8.0732,50.7021,BM,O,0.0,10
7557,Biomasse-Heizkraftwerk Malchin,DE,Biomass,9.8,12.783,53.7419,BM,O,0.0,10
6026,Biomasseheizkraftwerk Piesteritz,DE,Biomass,18.1,12.6185,51.8712,BM,O,0.0,10
2809,Braunau-Simbach,DE,Hydro,50.0,10.1284,48.0638,HY,H,3.0,60
7660,DKW Leinau,DE,Oil,11.4,10.6117,47.9125,FO,F,6.0,100
7660,DKW Nord,DE,Oil,11.4,10.4866,48.0627,FO,F,6.0,100
2963,Dessau power station,DE,Coal,49.0,12.23,51.8269,HC,H,6.0,35
7836,Energieanlage 3,DE,Biomass,18.6,12.3797,53.149,BM,O,0.0,10
2665,Enkirch,DE,Hydro,18.4,7.1278,49.9767,HY,H,3.0,60
2665,Fankel,DE,Hydro,16.4,7.2259,50.1239,HY,H,3.0,60
6021,GuD-HKW Neubrandenburg,DE,Gas,75.0,13.2951,53.5745,CG,G,6.0,110
2908,GuD-Ikw Staßfurt,DE,Gas,132.0,11.5738,51.8655,CG,G,6.0,110
2999,"HKW ""Helmshäger Berg""",DE,Gas,14.7,13.385,54.0973,CG,G,6.0,110
2900,HKW Bad Salzungen,DE,Gas,9.7,10.2206,50.8003,CG,G,6.0,110
2952,HKW Erfurt-Ost,DE,Gas,109.1,11.0299,50.9848,CG,G,6.0,110
2936,HKW Schwerin Lankow,DE,Gas,23.0,11.373,53.6539,CG,G,6.0,110
2936,HKW Schwerin Süd,DE,Gas,44.9,11.3965,53.5779,CG,G,6.0,110
7466,HKW Wiesengrund,DE,Gas,22.1,10.2906,50.9816,CG,G,6.0,110
2862,Hattorf,DE,Gas,52.3,9.978,50.8126,CG,G,6.0,110
2886,Heizkraftwerk Bomlitz,DE,Gas,22.1,9.65,52.9,CG,G,6.0,110
6024,Heizkraftwerk FFO,DE,Coal,45.0,14.546,52.346,HC,H,6.0,35
3040,Heizkraftwerk Stendal,DE,Gas,22.0,11.8325,52.6087,CG,G,6.0,110
2666,IHKW Andernach,DE,Waste,12.5,7.4321,50.4349,WA,O,3.0,10
2999,Industriekraftwerk Greifswald,DE,Gas,37.7,13.6671,54.1379,CG,G,6.0,110
7252,KWK-Anlage Barby,DE,Gas,18.0,11.8766,51.9832,CG,G,6.0,110
7660,Kaufering,DE,Hydro,16.7,10.8649,48.084,HY,H,3.0,60
5906,Kesselhaus Zuckerfabrik,DE,Gas,15.1,13.7101,53.8563,CG,G,6.0,110
2668,Koblenz,DE,Hydro,16.0,7.5817,50.3659,HY,H,3.0,60
2837,Kraftwerk 2,DE,Gas,34.2,9.6813,50.5691,CG,G,6.0,110
2837,Kraftwerk Fulda,DE,Oil,24.8,9.6861,50.5664,FO,F,6.0,100
7539,Lehmen,DE,Hydro,20.0,7.459,50.2747,HY,H,3.0,60
2864,Müllheizkraftwerk Kassel,DE,Waste,14.7,9.5241,51.2976,WA,O,3.0,10
2665,Neef,DE,Hydro,16.4,7.1358,50.0874,HY,H,3.0,60
2908,REMONDIS Thermische Abfallverwertung GmbH,DE,Waste,24.0,11.5763,51.8661,WA,O,3.0,10
2814,Scheuring,DE,Hydro,12.2,10.8833,48.1802,HY,H,3.0,60
7660,Schwabstadl,DE,Hydro,12.0,10.867,48.1484,HY,H,3.0,60
3040,Steinitz,DE,Gas,11.4,11.1033,52.83,CG,G,6.0,110
2809,Tannheim,DE,Hydro,12.3,10.1185,48.008,HY,H,3.0,60
2862,Unterbreizbach,DE,Gas,33.6,9.9775,50.8132,CG,G,6.0,110
2809,Unteropfingen,DE,Hydro,14.2,10.1284,48.0613,HY,H,3.0,60
2789,Werkskraftwerk Sappi Ehingen,DE,Biomass,21.2,9.7262,48.267,BM,O,0.0,10
2862,Wintershall,DE,Gas,109.5,9.9972,50.894,CG,G,6.0,110
3040,Zellstoff Stendal GmbH,DE,Biomass,138.9,12.0112,52.7271,BM,O,0.0,10
2665,Zeltingen,DE,Hydro,13.6,7.0232,49.9511,HY,H,3.0,60
2931,Zielitz,DE,Gas,52.0,11.6796,52.2985,CG,G,6.0,110
101,Pigae Aoos,GR,Hydro,210.0,20.8421,39.6871,HY,H,3.0,60
1379,South Rhodes Power Plant,GR,Oil,206.0,28.0186,36.3789,FO,F,6.0,100
152,API ENERGIA IGCC,IT,Gas,280.0,13.521,37.2814,CG,G,6.0,110
147,ASSEMINI,IT,Oil,177.0,8.9972,39.2269,FO,F,6.0,100
7650,BAGNORE 3,IT,Geothermal,19.0,11.5588,42.8416,GT,O,6.0,0.0
7650,BAGNORE 4,IT,Geothermal,39.0,11.5588,42.8416,GT,O,6.0,0.0
6928,CASTROCUCCO,IT,Hydro,83.0,15.8085,39.9888,HY,H,3.0,60
159,CCGT APRILIA,IT,Gas,787.0,12.6337,41.5616,CG,G,6.0,110
5215,Fiume Santo power station,IT,Coal,640.0,8.3068,40.8461,HC,H,6.0,35
5313,JESI,IT,Gas,140.0,13.285,43.5537,CG,G,6.0,110
5158,NUOVA GABBRO,IT,Geothermal,19.0,10.8853,42.2612,GT,O,6.0,0.0
7650,PIANCASTAGNAIO 3,IT,Geothermal,20.0,11.7004,42.8333,GT,O,6.0,0.0
7650,PIANCASTAGNAIO 4,IT,Geothermal,20.0,11.705,42.8578,GT,O,6.0,0.0
7650,PIANCASTAGNAIO 5,IT,Geothermal,20.0,11.7028,42.8568,GT,O,6.0,0.0
152,PORTO EMPEDOCLE C.LE,IT,Oil,140.0,13.5071,37.3123,FO,F,6.0,100
147,Portoscuso,IT,Oil,320.0,8.3789,39.2047,FO,F,6.0,100
5231,SAN QUIRICO,IT,Gas,137.0,10.25,44.9167,CG,G,6.0,110
147,SARLUX,IT,Gas,630.0,9.0063,39.1037,CG,G,6.0,110
147,Sulcis power station,IT,Coal,350.0,8.4002,39.1961,HC,H,6.0,35
5216,TALORO1,IT,Hydro,240.0,9.1402,40.1272,HY,H,3.0,60
212,TOR DI VALLE,IT,Gas,223.0,12.4228,41.8117,CG,G,6.0,110
147,TRAPANI C.LE,IT,Gas,213.4,12.5108,38.0158,CG,G,6.0,110
5158,VALLE SECOLO,IT,Geothermal,114.0,10.8674,42.2362,GT,O,6.0,0.0
6637,Maasvlakte (MV1 and MV2),NL,Coal,1040.0,4.0217,51.9626,HC,H,6.0,35
6637,Maasvlakte 3,NL,Coal,1100.0,4.0272,51.9587,HC,H,6.0,35
3328,Brąswałd,PL,Hydro,2.0,20.4041,53.84,HY,H,3.0,60
3330,EC Białystok,PL,Coal,198.0,23.1689,53.1486,HC,H,6.0,35
3259,EC Bydgoszcz I,PL,Coal,14.0,17.9836,53.1355,HC,H,6.0,35
3259,EC Bydgoszcz II,PL,Coal,227.0,18.0879,53.0995,HC,H,6.0,35
3267,EC Elbląg,PL,Coal,42.0,19.3855,54.1805,HC,H,6.0,35
3287,EC Fortum,PL,Coal,68.0,19.1247,50.8273,HC,H,6.0,35
3245,EC Gorzów,PL,Gas,243.0,15.2712,52.7504,CG,G,6.0,110
3326,EC Grudziądz,PL,Coal,18.0,18.7719,53.4792,HC,H,6.0,35
3326,EC International Paper Kwidzyn,PL,Coal,112.0,18.921,53.7002,HC,H,6.0,35
3298,EC Kielce,PL,Biomass,10.0,20.6118,50.8959,BM,O,0.0,10
3326,EC Mondi Świecie,PL,Coal,123.0,18.3751,53.3938,HC,H,6.0,35
3311,EC Rzeszów,PL,Gas,129.0,22.0294,50.0646,CG,G,6.0,110
5877,EC Siedlce,PL,Gas,51.0,22.3061,52.1572,CG,G,6.0,110
3317,EC Starachowice,PL,Coal,36.0,21.0799,51.0299,HC,H,6.0,35
3314,EC WSK Rzeszów,PL,Coal,12.0,21.9813,50.0146,HC,H,6.0,35
3294,EC Zgierz,PL,Coal,39.0,19.3939,51.8413,HC,H,6.0,35
3294,EC Łódź-3,PL,Coal,205.0,19.4216,51.7985,HC,H,6.0,35
3296,EC Łódź-4,PL,Coal,198.0,19.5403,51.7462,HC,H,6.0,35
3341,Gałążnia Mała,PL,Hydro,4.0,17.3132,54.285,HY,H,3.0,60
3328,Pierzchły,PL,Hydro,3.0,19.849,54.3007,HY,H,3.0,60
3285,Smardzewice,PL,Hydro,4.0,20.0061,51.4739,HY,H,3.0,60
3341,Strzegomino,PL,Hydro,3.0,17.2311,54.3202,HY,H,3.0,60
3343,Żydowo,PL,Hydro,157.0,16.7069,54.0251,HY,H,3.0,60
1550,Além-Fazenda,PT,Hydro,1.5,-31.1415,39.4699,HY,H,3.0,60
1558,Barlavento (Aterro Sanitário),PT,Waste,1.7,-8.5278,37.2122,WA,O,3.0,10
1546,Barroca,PT,Hydro,2.0,-7.7297,40.1115,HY,H,3.0,60
1494,Caldeirão,PT,Hydro,40.0,-7.3296,40.5317,HY,H,3.0,60
1558,Calheta,PT,Hydro,4.7,-17.1751,32.7289,HY,H,3.0,60
1558,Fajã da Nogueira,PT,Hydro,2.4,-16.9069,32.7432,HY,H,3.0,60
1558,Fajã dos Padres,PT,Hydro,1.7,-17.0218,32.6547,HY,H,3.0,60
1769,Gameiro,PT,Hydro,1.4,-8.1102,38.955,HY,H,3.0,60
7007,Idanha-a-Nova,PT,Hydro,2.5,-7.2011,39.9447,HY,H,3.0,60
1134,Incineradora da Terceira,PT,Waste,2.8,-27.1806,38.6818,WA,O,3.0,10
1558,Inverno da Calheta,PT,Hydro,7.3,-17.1789,32.7215,HY,H,3.0,60
6810,Manteigas,PT,Hydro,6.5,-7.5445,40.3885,HY,H,3.0,60
1558,Meia Serra (Estação de Tratamento de Resíduos),PT,Waste,8.0,-16.9046,32.6507,WA,O,3.0,10
1497,Meimoa,PT,Hydro,5.7,-7.1389,40.2597,HY,H,3.0,60
1134,Pico Vermelho,PT,Geothermal,13.0,-25.4904,37.7789,GT,O,6.0,0.0
1134,Ribeira Grande,PT,Geothermal,15.8,-25.5053,37.8011,GT,O,6.0,0.0
7491,Ribeira da Janela,PT,Hydro,3.2,-17.1546,32.8555,HY,H,3.0,60
1504,Roxo,PT,Hydro,1.7,-8.0812,37.9303,HY,H,3.0,60
1558,Santa Quitéria,PT,Hydro,1.7,-16.9503,32.6616,HY,H,3.0,60
1558,Serra de Água,PT,Hydro,4.9,-17.019,32.7435,HY,H,3.0,60
6810,Sistema Alforfa,PT,Hydro,7.2,-7.6118,40.2758,HY,H,3.0,60
1558,Socorridos,PT,Hydro,24.0,-16.9601,32.6632,HY,H,3.0,60
1730,Sotavento (Aterro Sanitário),PT,Waste,1.2,-7.5836,37.1605,WA,O,3.0,10
1494,Termoeléctrica de Belmonte,PT,Biomass,2.0,-7.3541,40.3659,BM,O,0.0,10
1134,Túneis,PT,Hydro,1.7,-25.3072,37.7465,HY,H,3.0,60
3703,Hricov Hydroelectric Power Plant Slovakia,SK,Hydro,31.5,18.6815,49.2594,HY,H,3.0,60
7872,Kreplany Hydroelectric Power Plant Slovakia,SK,Hydro,24.75,19.0941,49.1281,HY,H,3.0,60
7596,Lipovec Hydroelectric Power Plant Slovakia,SK,Hydro,38.4,18.9114,49.132,HY,H,3.0,60
3703,Miskova Hydroelectric Power Plant Slovakia,SK,Hydro,93.6,18.5083,49.1928,HY,H,3.0,60
3703,Nosice Hydroelectric Power Plant Slovakia,SK,Hydro,67.5,18.3642,49.1275,HY,H,3.0,60
3703,Povazska Bystrica Hydroelectric Power Plant Slovakia,SK,Hydro,55.2,18.4538,49.1331,HY,H,3.0,60
7872,Sucany Hydroelectric Power Plant Slovakia,SK,Hydro,38.4,18.9916,49.1072,HY,H,3.0,60
7414,ACECA  GRUPO 4,ES,Gas,758.74,-3.8548,39.9427,CG,G,6.0,110
7099,ADS JUNEDA 2,ES,Waste,15.0,0.8245,41.5485,WA,O,3.0,10
7832,AGREDA,ES,Waste,16.334,-1.9224,41.8559,WA,O,3.0,10
1684,AGROENERGETICA DE BAENA,ES,Biomass,20.0,-4.3225,37.6167,BM,O,0.0,10
6276,AGUAYO 3,ES,Hydro,360.59999999999997,-4.0004,43.0952,HY,H,3.0,60
7395,ALBARELLOS GRUPO 1,ES,Hydro,67.6,-8.1443,42.4333,HY,H,3.0,60
533,ALCUDIA 1  GRUPO N 1,ES,Coal,533.8,3.0913,39.8106,HC,H,6.0,35
7662,AMOREBIETA,ES,Gas,786.42,-2.7497,43.2347,CG,G,6.0,110
7787,ARCOS DE LA FRONTERA GRUPO 1,ES,Gas,1585.3899999999999,-5.8164,36.6721,CG,G,6.0,110
1558,ARONA 1  GAS 1,ES,Oil,43.2,-16.681,28.0996,FO,F,6.0,100
6331,ARRUBAL GRUPO 1,ES,Gas,784.7,-2.2511,42.4194,CG,G,6.0,110
280,ARTIES 1,ES,Hydro,67.52,1.9543,41.798,HY,H,3.0,60
260,ASCO GR,ES,Nuclear,1990.5,0.5679,41.2008,NU,N,6.0,16
1738,BAHIA DE ALGECIRAS I,ES,Gas,731.0,-5.3905,36.1829,CG,G,6.0,110
6569,BARAZAR 1,ES,Hydro,82.7,-2.75,43.1,HY,H,3.0,60
6998,BARCENA GR 1,ES,Hydro,61.15,-4.0566,43.1258,HY,H,3.0,60
5486,BARRADOS,ES,Hydro,15.88,0.7167,42.7333,HY,H,3.0,60
1558,BARRANCO DE TIRAJANA 7  VAPOR 3 (CC1),ES,Oil,646.26,-15.4387,27.8045,FO,F,6.0,100
6225,BELESAR GRUPO 2,ES,Hydro,331.01,-7.7135,42.6263,HY,H,3.0,60
7152,BEMBEZAR,ES,Hydro,14.86,-5.2333,37.8333,HY,H,3.0,60
7096,BENAGEBER 2,ES,Hydro,14.91,-1.1,39.7167,HY,H,3.0,60
539,BESOS  GRUPO 5,ES,Gas,1670.81,2.2294,41.4196,CG,G,6.0,110
6206,BOINERSA,ES,Oil,24.6,-8.9,42.65,FO,F,6.0,100
7195,BOLARQUE I GRUPO 1,ES,Hydro,27.939999999999998,-2.9226,40.419,HY,H,3.0,60
7195,BOLARQUE II GRUPO 1,ES,Hydro,215.0,-2.8289,40.364,HY,H,3.0,60
7196,BUENDIA GRUPO 1,ES,Hydro,54.449999999999996,-2.7565,40.3664,HY,H,3.0,60
1705,BURGUILLO GRUPO 1,ES,Hydro,61.949999999999996,-4.5016,40.4153,HY,H,3.0,60
6307,C.H. ARNOYA,ES,Hydro,10.0,-8.9567,42.8878,HY,H,3.0,60
1659,C.H. EN ALARCON,ES,Hydro,15.89,-2.0833,39.55,HY,H,3.0,60
244,C.H. MILLARES II GRUPO 1,ES,Hydro,70.17,-0.7667,39.25,HY,H,3.0,60
6707,C.H. RIALB 2.,ES,Hydro,24.774,1.2561,41.9753,HY,H,3.0,60
6246,C.H. SAHECHORES,ES,Hydro,20.216,-5.1753,42.6563,HY,H,3.0,60
5489,CALDES 2,ES,Hydro,32.48,0.8006,42.5046,HY,H,3.0,60
6709,CAMARASA II 1,ES,Hydro,58.650000000000006,0.8781,41.8749,HY,H,3.0,60
1738,CAMPO DE GIBRALTAR GRUPO 20,ES,Gas,780.6600000000001,-5.3933,36.1834,CG,G,6.0,110
1558,CANDELARIA 9  VAPOR 5,ES,Oil,153.94,-16.3727,28.3548,FO,F,6.0,100
5925,CANELLES 1,ES,Hydro,107.39999999999999,0.6116,41.9763,HY,H,3.0,60
293,CARTAGENA GRUPO 1,ES,Gas,1248.82,-0.9392,37.5732,CG,G,6.0,110
533,CAS TRESORER TG3  CC2,ES,Gas,429.0,2.6895,39.5672,CG,G,6.0,110
6301,CASTEJON  GRUPO 2,ES,Gas,797.41,-1.6773,42.1718,CG,G,6.0,110
7043,CASTREJON GRUPO 1,ES,Hydro,80.73,-4.4539,39.888,HY,H,3.0,60
1738,CCC BAHIA DE ALGECIRAS,ES,Gas,820.536,-5.3905,36.1829,CG,G,6.0,110
7634,CENTRAL HIDRAULICA DOMENO,ES,Hydro,20.4,-1.2395,42.6758,HY,H,3.0,60
1991,CEUTA  GRUPO 13,ES,Oil,48.7,-5.35,35.89,FO,F,6.0,100
1991,CEUTA 9  G-9,ES,Oil,11.5,-5.35,35.89,FO,F,6.0,100
7099,CG NUFRI-1,ES,Oil,13.56,0.9,41.6333,FO,F,6.0,100
1610,CIJARA M. DCHA. 1,ES,Hydro,50.4,-5.0166,39.3711,HY,H,3.0,60
1610,CIJARA M. IZDA. 3,ES,Hydro,51.7,-5.0166,39.3711,HY,H,3.0,60
242,CN COFRENTES,ES,Nuclear,1063.94,-1.0509,39.2134,NU,N,6.0,16
242,COFRENTES 1,ES,Hydro,120.53999999999999,-1.05,39.2167,HY,H,3.0,60
1609,COGENERACION MOTRIL,ES,Gas,48.8,-3.5413,36.7334,CG,G,6.0,110
232,COLORTEX,ES,Gas,12.68,-0.6167,38.8167,CG,G,6.0,110
6239,COMPOSTILLA II GR 5,ES,Coal,1005.1399999999999,-6.5647,42.6125,HC,H,6.0,35
7213,CONTRERAS II 1,ES,Hydro,13.99,-1.6,39.5333,HY,H,3.0,60
293,CT ESCOMBRERAS 5,ES,Oil,537.28,-0.9513,37.5645,FO,F,6.0,100
6563,CT SANTURCE 2,ES,Oil,897.02,-3.0539,43.34,FO,F,6.0,100
6226,CTCC AS PONTES  GRUPO 5,ES,Gas,855.67,-7.8621,43.4451,CG,G,6.0,110
6301,CTCC CASTEJON  GRUPO 1,ES,Gas,424.91,-1.6773,42.1718,CG,G,6.0,110
293,CTCC ESCOMBRERAS,ES,Gas,815.64,-0.9392,37.5732,CG,G,6.0,110
537,CTCC PLANA DEL VENT 2,ES,Gas,819.03,0.8692,40.9596,CG,G,6.0,110
6216,CTCC SABON  GRUPO 3,ES,Gas,391.31,-8.503,43.329,CG,G,6.0,110
1658,Central de San Pedro II Grupo 1,ES,Hydro,23.11,-2.005,38.7288,HY,H,3.0,60
1989,DUQUE,ES,Hydro,12.56,-3.361,36.9402,HY,H,3.0,60
292,ECOCARBURANTES,ES,Gas,21.666,-0.9862,37.6051,CG,G,6.0,110
7018,ENCE - PONTEVEDRA $$,ES,Gas,26.62,-8.6667,42.4167,CG,G,6.0,110
1806,ENEMANSA,ES,Oil,16.0,-3.4233,39.2379,FO,F,6.0,100
6294,ENERGYWORKS CARBALLO  S.L.,ES,Oil,13.18,-8.691,43.213,FO,F,6.0,100
7196,ENTREPENAS GRUPO 1,ES,Hydro,40.8,-2.7925,40.5175,HY,H,3.0,60
5489,ESCALES 1,ES,Hydro,35.85,0.7463,42.3161,HY,H,3.0,60
1859,ESCOMBRERAS GRUPO 1,ES,Gas,1199.25,-0.9392,7.5732,CG,G,6.0,110
6226,EUME GR 1,ES,Hydro,54.4,-8.0671,43.427,HY,H,3.0,60
1765,FERTIMOLINA,ES,Gas,10.0,-1.8876,40.8436,CG,G,6.0,110
6212,FINSA-SANTIAGO,ES,Gas,23.96,-8.5457,42.8805,CG,G,6.0,110
259,FLIX 1,ES,Hydro,52.52,0.5472,41.2331,HY,H,3.0,60
6341,FORESTAL DEL ATLANTICO,ES,Oil,24.8,-8.2551,43.4604,FO,F,6.0,100
231,FUENTE ALAMO III,ES,Waste,75.0,-1.1,37.7,WA,O,3.0,10
1631,GABRIEL Y GALAN,ES,Hydro,110.4,-6.133,40.2211,HY,H,3.0,60
1379,GARONA VERDA,ES,Gas,14.95,42.8025,0.7046,CG,G,6.0,110
6216,GENSABON,ES,Gas,12.0,-8.5075,43.3048,CG,G,6.0,110
1558,GRANADILLA 1  GAS 1,ES,Oil,693.34,-16.4939,28.0863,FO,F,6.0,100
533,GRUPO TURBO-GENERADOR 2 TIRME-SON REUS,ES,Waste,74.80000000000001,2.6502,39.5694,WA,O,3.0,10
1736,GUADALMENA,ES,Hydro,15.2,-3.0422,38.3119,HY,H,3.0,60
6262,GUASCOR,ES,Gas,13.5,-1.7463,42.2793,CG,G,6.0,110
1558,GUIA DE ISORA GAS 1,ES,Oil,43.1,-16.7795,28.2115,FO,F,6.0,100
1631,GUIJO DE GRANADILLA 2,ES,Hydro,52.209999999999994,-6.1634,40.1935,HY,H,3.0,60
1587,GUILLENA 1,ES,Hydro,207.99,-6.0724,37.641,HY,H,3.0,60
1766,IZNAJAR 1,ES,Hydro,76.71000000000001,-4.4143,37.2667,HY,H,3.0,60
1558,JINAMAR 10  GAS 2,ES,Oil,234.46000000000004,-15.4114,28.0424,FO,F,6.0,100
244,JOSE M ORIOL  GRUPO 4,ES,Hydro,953.3199999999999,-0.9317,39.2438,HY,H,3.0,60
1748,LA ALJORRA-CARTAGENA,ES,Waste,27.17,-1.4802,37.4955,WA,O,3.0,10
1558,LA BARCA 1,ES,Hydro,52.09,-14.1076,28.3504,HY,H,3.0,60
244,LA MUELA CORTES 1,ES,Hydro,634.0,-0.9192,39.2628,HY,H,3.0,60
6242,LA ROBLA GRUPO 2,ES,Coal,619.06,-5.634,42.7924,HC,H,6.0,35
1610,LA SERENA,ES,Hydro,22.0,-5.5439,38.732,HY,H,3.0,60
1711,LAS PICADAS GRUPO 1,ES,Hydro,24.32,-4.2032,40.3236,HY,H,3.0,60
1558,LAS SALINAS 12  DIESEL 9,ES,Oil,72.11,-13.8627,28.5004,FO,F,6.0,100
1558,LAS SALINAS 8  GAS 2,ES,Oil,51.25,-13.8627,28.5004,FO,F,6.0,100
1558,LAS SALINAS 9 (GAS MOVIL 1),ES,Oil,11.74,-13.8627,28.5004,FO,F,6.0,100
272,LERIDA,ES,Hydro,11.93,0.6167,41.6167,HY,H,3.0,60
1738,LOS BARRIOS,ES,Coal,570.05,-5.42,36.1828,HC,H,6.0,35
1558,LOS GUINCHOS 15   GAS MOVIL 2,ES,Oil,67.3,-17.7867,28.6538,FO,F,6.0,100
6218,LOS PEARES GRUPO 2,ES,Hydro,181.02,-7.7237,42.4637,HY,H,3.0,60
244,La Muela II Grupo 4,ES,Hydro,877.95,-0.9317,39.2438,HY,H,3.0,60
307,MAHON 10  BURMEISTER N 2,ES,Oil,195.19999999999996,4.2597,39.8964,FO,F,6.0,100
307,MAHON TG4,ES,Gas,50.0,4.2597,39.8964,CG,G,6.0,110
7202,MALA1 (CTCC MALAGA),ES,Gas,415.509,-4.5631,36.7495,CG,G,6.0,110
7842,MANDEO-ZARZO,ES,Hydro,25.6,-8.0171,43.2347,HY,H,3.0,60
5481,MEDIANO 1,ES,Hydro,66.97,0.2438,42.3227,HY,H,3.0,60
6215,MEIRAMA GRUPO 1,ES,Coal,557.2,-8.4111,43.1685,HC,H,6.0,35
1649,MELILLA 13,ES,Oil,46.900000000000006,-2.94,35.29,FO,F,6.0,100
264,MEQUINENZA 1,ES,Hydro,322.36,0.2765,41.3687,HY,H,3.0,60
1691,MICHELIN ARANDA,ES,Gas,31.866,-3.6892,41.6704,CG,G,6.0,110
1647,MICHELIN VALLADOLID $$,ES,Gas,46.0,-4.7237,41.6552,CG,G,6.0,110
5487,MORALETS 1,ES,Hydro,219.14000000000001,0.7587,42.5787,HY,H,3.0,60
6261,NEUMATICOS MICHELIN-VITORIA,ES,Gas,47.0,-2.6667,42.85,CG,G,6.0,110
7099,NUFRI,ES,Gas,10.0,0.9,41.6333,CG,G,6.0,110
7386,OLEXTRA,ES,Waste,16.647,1.3135,42.069,WA,O,3.0,10
6707,OLIANA 3,ES,Hydro,37.62,1.1954,41.9397,HY,H,3.0,60
1989,PAMPANEIRA,ES,Hydro,12.8,-3.361,36.9402,HY,H,3.0,60
6289,PAPELERA GUIPUZCOANA,ES,Gas,79.918,-1.9688,43.2596,CG,G,6.0,110
6278,PENA DE BEJO,ES,Hydro,20.8,-4.3817,43.1504,HY,H,3.0,60
1727,PLANTA COGENERACION BECOSA -FUENTE PIEDRA,ES,Waste,16.434,-4.73,37.1353,WA,O,3.0,10
7152,PLANTA SECADO TERMICO DE LODOS E.R.A.R. DE BUTARQUE,ES,Gas,18.0,-5.1254,37.5624,CG,G,6.0,110
5486,PONT DE REI 1,ES,Hydro,46.14,0.739,42.8384,HY,H,3.0,60
7166,PROCESOS ECOLOGICOS CARMONA 1,ES,Waste,45.0,-5.6461,37.4712,WA,O,3.0,10
1594,PROCESOS ECOLOGICOS VILCHES,ES,Waste,15.0,-3.5102,38.207,WA,O,3.0,10
7536,PUENTE NUEVO GR 3,ES,Coal,299.76,-4.9354,38.1108,HC,H,6.0,35
539,PUERTO DE BARCELONA  GRUPO 2,ES,Gas,866.3,2.1594,41.3366,CG,G,6.0,110
1610,PUERTO PENA 1,ES,Hydro,55.199999999999996,-5.2342,39.037,HY,H,3.0,60
1558,PUNTA GRANDE 19 DIESEL 11,ES,Oil,184.94999999999996,-13.5477,28.963,FO,F,6.0,100
263,RIBA ROJA 1,ES,Hydro,261.28,0.4309,41.2422,HY,H,3.0,60
6796,RIBADELAGO GR 3,ES,Hydro,34.56,-6.1404,41.9781,HY,H,3.0,60
6219,SAN PEDRO 2,ES,Hydro,34.36,-7.7498,42.4171,HY,H,3.0,60
1738,SAN ROQUE GRUPO 2,ES,Gas,791.6800000000001,-5.4131,36.1955,CG,G,6.0,110
6243,SANTA MARINA GR 3,ES,Hydro,34.68,-5.873,42.5103,HY,H,3.0,60
6563,SANTURCE  GRUPO 4,ES,Gas,396.4,-3.0539,43.34,CG,G,6.0,110
7097,SAU 2,ES,Hydro,55.56,2.3844,41.947,HY,H,3.0,60
272,SEIRA II 3,ES,Hydro,19.25,0.4667,41.4833,HY,H,3.0,60
272,SEROS II 1,ES,Hydro,44.24,0.4534,41.4744,HY,H,3.0,60
1789,SILVON 2,ES,Hydro,81.53999999999999,-4.0053,40.7149,HY,H,3.0,60
7004,SNIACE,ES,Gas,93.0,-8.0086,42.5273,CG,G,6.0,110
6579,SOBRON 1,ES,Hydro,27.78,-3.0458,42.7778,HY,H,3.0,60
533,SON REUS 3  TURBINA DE GAS N 3,ES,Oil,563.75,2.6807,39.65,FO,F,6.0,100
7097,SUSQUEDA 3,ES,Hydro,88.55000000000001,2.5274,41.9791,HY,H,3.0,60
1597,TAJO DE LA ENCANTADA 1,ES,Hydro,376.88,-4.7631,36.9083,HY,H,3.0,60
6360,TAMBRE II GRUPO 1,ES,Hydro,73.04,-8.8498,42.8368,HY,H,3.0,60
308,TARRAGONA,ES,Gas,802.84,1.1912,41.1081,CG,G,6.0,110
272,TERMENS,ES,Hydro,11.92,0.7667,41.7167,HY,H,3.0,60
6981,TERRADETS 1,ES,Hydro,32.32,0.9162,42.0748,HY,H,3.0,60
6741,TORRASPAPEL-MONTANANESA,ES,Gas,22.0,-0.8773,41.6561,CG,G,6.0,110
261,TORTOSA ENERGIA,ES,Gas,39.58,0.5216,40.8125,CG,G,6.0,110
272,TRATAMIENTO DE PURINES,ES,Waste,15.0,0.5167,41.5667,WA,O,3.0,10
1653,TRATAMIENTO DE PURINES OSA DE LA VEGA,ES,Waste,14.6,-2.76,39.6598,WA,O,3.0,10
1702,TRILLO,ES,Nuclear,1003.41,-2.6227,40.7016,NU,N,6.0,16
4533,TRUCHAS DEL CINCA,ES,Gas,23.92,0.2225,42.1519,CG,G,6.0,110
6234,VALPARAISO 2,ES,Hydro,65.1,-6.2738,41.9974,HY,H,3.0,60
537,VANDELLOS GR 2,ES,Nuclear,1045.31,0.8662,40.9511,NU,N,6.0,16
6219,VELLE GRUPO 2,ES,Hydro,86.48,-7.851,42.3589,HY,H,3.0,60
539,VERTEDERO DEL GARRAF,ES,Waste,12.444,2.159,41.3888,WA,O,3.0,10
5486,VETEJAR,ES,Oil,12.9,0.7956,42.702,FO,F,6.0,100
5486,VIELHA 1,ES,Hydro,21.86,0.7956,42.702,HY,H,3.0,60
243,VILLALCAMPO II,ES,Hydro,215.81,-1.2401,39.2077,HY,H,3.0,60
