bus_id,name,country,long_type,capacity,longitude,latitude,type,category
119,WF-5,GR,wind,90.0,22.038574,38.470794,WD,R
147,Trapani-Salemi,IT,wind,-1.0,12.524414,37.814124,WD,R
149,Partinico,IT,wind,48.0,13.19458,38.022131,WD,R
202,Capo Rizzuto,IT,wind,136.0,17.050781,38.942321,WD,R
295,Wind farms,ES,wind,-1.0,-0.571288999999998,40.555548,WD,R
99,WF-8,GR,wind,170.0,22.280273,37.675125,WD,R
120,WF-7,GR,wind,130.0,22.884521,37.68382,WD,R
1375,WF-3,GR,wind,105.0,24.32373,38.169114,WD,R
118,WF-4,GR,wind,205.0,23.444824,38.307181,WD,R
116,WF-1,GR,wind,195.0,25.817871,41.26955,WD,R
1379,WF-10,GR,wind,170.0,24.927979,35.191767,WD,R
103,WF-6,GR,wind,80.0,20.621338,38.212288,WD,R
103,WF-2,GR,wind,90.0,21.30249,38.882481,WD,R
119,WF-9,GR,wind,170.0,22.214355,38.022131,WD,R
1499,Douro Sul,PT,wind,149.0,-7.646484,40.888601,WD,R
1556,Malhanito,PT,wind,57.0,-7.866211,37.300275,WD,R
1546,Pampilhosa,PT,wind,97.0,-7.97607400000001,40.019201,WD,R
1497,Penamacor,PT,wind,124.0,-7.05322299999999,40.128491,WD,R
1659,Olmedilla,ES,wind,-1.0,-1.97753899999999,39.478606,WD,R
1538,Candeeiros,PT,wind,103.0,-8.83300799999999,39.419221,WD,R
1507,Chão Falcão,PT,wind,78.0,-8.81103500000001,39.554883,WD,R
1546,P. Interior,PT,wind,130.0,-7.866211,39.867588,WD,R
1495,Gardunha,PT,wind,114.0,-7.62451200000001,39.97712,WD,R
1546,Toutiço,PT,wind,102.0,-7.81127899999999,40.145289,WD,R
1553,Lousã II,PT,wind,50.0,-8.21777299999999,40.103286,WD,R
1497,Raia,PT,wind,110.0,-7.03125,40.229218,WD,R
1517,Montemuro,PT,wind,112.0,-8.261719,40.855371,WD,R
1529,Caramulo,PT,wind,90.0,-8.129883,40.680638,WD,R
6315,Alto Minho,PT,wind,240.0,-8.64624000000001,41.943149,WD,R
1548,Alto Coutada,PT,wind,142.0,-7.84423800000001,41.442726,WD,R
1505,T.A. Fafe,PT,wind,101.0,-8.261719,41.43449,WD,R
1503,Terra Fria,PT,wind,87.0,-7.71240200000001,41.812267,WD,R
1553,Beiras,PT,wind,85.0,-7.83325200000001,40.212441,WD,R
1549,Bornes,PT,wind,60.0,-7.075195,41.483891,WD,R
1499,Pisco,PT,wind,50.0,-7.745361,40.797177,WD,R
2367,Měděnec,CZ,wind,42.0,13.150635,50.415519,WD,R
2540,Horns Rev 1,DK,wind,160.0,7.80029300000001,55.497527,WD,R
2541,Horns Rev 2,DK,wind,210.0,7.75634799999999,55.683779,WD,R
2545,Anholt,DK,wind,400.0,11.162109,56.656226,WD,R
5906,Windpark Iven,DE,wind,-1.0,13.304443,53.839564,WD,R
3020,Windpark Putlitz,DE,wind,229.0,12.293701,53.383328,WD,R
3019,Windpark Bertikow,DE,wind,279.0,13.656006,53.219191,WD,R
3026,Windpark Schönewalde,DE,wind,182.0,13.161621,51.68618,WD,R
3044,Baltic 1,DE,wind,-1.0,12.546387,54.57843,WD,R
3256,Margonin,PL,wind,120.0,17.017822,53.047818,WD,R
5916,Tariverde,RO,wind,295.0,28.586426,44.746733,WD,R
5102,Salles Curan,FR,wind,87.0,2.66967800000001,44.205835,WD,R
5373,Amaliapark,NL,wind,120.0,4.372559,52.502848,WD,R
5392,OWEZ,NL,wind,108.0,4.35058600000001,52.342052,WD,R
5821,Baltic 2,DE,wind,288.0,12.875977,54.718275,WD,R
5825,Rødsand 1 (Nysted),DK,wind,165.0,11.656494,54.54658,WD,R
5826,Rødsand 2,DK,wind,215.0,11.502686,54.565693,WD,R
4019,Medigidia Sud,RO,wind,223.0,28.45459,44.363133,WD,R
2395,Kuřivody,CZ,solar_pv,56.0,14.776611,50.394512,PV,R
2395,Spomyšl,CZ,solar_pv,30.0,14.425049,50.34546,PV,R
2968,Windpark Wustermark,DE,wind,145.0,12.480469,52.556316,WD,R
5865,Epizon,FR,wind,78.0,5.31738300000001,48.312428,WD,R
4441,Vrataruša,HR,wind,42.0,14.864502,44.988113,WD,R
4022,Tulcea Vest,RO,wind,33.0,29.11377,45.127805,WD,R
3261,Karścino Pobłocie,PL,wind,90.0,15.864258,54.09806,WD,R
3261,Tymień,PL,wind,50.0,15.974121,54.23313,WD,R
3265,Karcino,PL,wind,51.0,15.336914,54.104502,WD,R
3341,Tychowo (1),PL,wind,50.0,16.688232,54.348553,WD,R
5897,Horns Rev 3,DK,wind_cons,400.0,7.58056600000001,55.801281,WD,R
5899,Kriegers Flak,DK,wind_cons,600.0,13.007812,54.990222,WD,R
3022,Windpark Wessin,DE,wind,-1.0,11.898193,53.540307,WD,R
5353,Canaro,IT,solar_thermal,2362.0,11.568604,44.949249,SO,R
3261,Bardy-Dygowo,PL,wind,50.0,15.732422,54.156001,WD,R
5916,Rahman,RO,wind,50.0,28.300781,44.918139,WD,R
3250,Pągów,PL,wind,51.0,17.424316,51.206883,WD,R
3256,Chwiram,PL,wind,79.5,17.160645,53.061025,WD,R
4019,Stupina,RO,wind,50.0,28.619385,44.59829,WD,R
5970,Windpark Altentreptow/Nord,DE,wind,-1.0,13.381348,53.67068,WD,R
4431,Velika Glava,HR,wind,275.0,16.149902,43.612217,WD,R
3261,Kukinia,PL,wind,54.0,15.831299,54.20101,WD,R
3268,Iłża II,PL,wind,54.0,21.258545,51.117317,WD,R
4020,Gura lalomitei,RO,wind,50.0,27.993164,44.715514,WD,R
6046,Wikinger,DE,wind_cons,288.0,14.018555,54.642055,WD,R
6047,Arkona-Becken Südost,DE,wind_cons,288.0,14.161377,54.572062,WD,R
4433,Ogorje,HR,wind,275.0,16.358643,43.651975,WD,R
3229,Banie,PL,wind,50.0,14.842529,53.061025,WD,R
5947,Korytnica,PL,wind,82.5,21.610107,52.321911,WD,R
3246,Krobia,PL,wind,63.0,16.831055,51.740636,WD,R
3342,Osieki,PL,wind,90.0,17.918701,54.737308,WD,R
6063,Constantin,FR,solar_pv,230.0,-0.659179999999999,44.621754,PV,R
6068,Pezilla-la-Rivière,FR,wind_cons,88.0,2.66967800000001,42.544987,WD,R
6360,Wind Farms,ES,wind,-1.0,-9.03076200000001,42.811522,WD,R
6334,Arrúbal,ES,wind,799.0,-1.96655299999999,42.334184,WD,R
6349,Uninsa,ES,wind,-1.0,-5.60302699999999,43.397065,WD,R
4986,Wind FR 1,FR,wind,17.5,6.679688,49.131408,WD,R
5058,Wind FR 2,FR,wind,19.8,4.76806599999999,49.724479,WD,R
4576,Wind FR 3,FR,wind,171.50500000000002,2.98828099999999,43.22119,WD,R
6977,Wind FR 4,FR,wind,11.5,-1.40625023936826,48.0633965200832,WD,R
4522,Wind FR 5,FR,wind,82.95,-0.483397999999997,46.17983,WD,R
4818,Wind FR 6,FR,wind,59.63,2.49389600000001,48.070738,WD,R
6160,Wind FR 7,FR,wind,0.8,-1.53808599999999,48.092757,WD,R
4804,Wind FR 8,FR,wind,61.9,4.49340799999999,49.802541,WD,R
4802,Wind FR 9,FR,wind,27.65,4.954834,48.799627,WD,R
4988,Wind FR 10,FR,wind,63.06,5.18554700000001,49.510944,WD,R
4814,Wind FR 11,FR,wind,210.4,1.625977,48.188063,WD,R
7538,Wind FR 12,FR,wind,17.700000000000003,1.75781199999999,48.239309,WD,R
4624,Wind FR 13,FR,wind,28.8,2.98828099999999,45.759859,WD,R
4364,Wind FR 14,FR,wind,45.0,5.67993199999999,49.460984,WD,R
4541,Wind FR 15,FR,wind,16.5,0.417480000000009,49.646291,WD,R
4673,Wind FR 16,FR,wind,26.5,4.18579099999999,45.197522,WD,R
7553,Wind FR 17,FR,wind,51.3,2.823486,44.134913,WD,R
6137,Wind FR 18,FR,wind,2.9,-4.27368199999999,48.392738,WD,R
4666,Wind FR 19,FR,wind,16.0,4.87793000000001,44.653024,WD,R
4921,Wind FR 20,FR,wind,508.5000000000001,1.856689,49.781264,WD,R
4883,Wind FR 21,FR,wind,55.155,3.99902300000001,47.864774,WD,R
4880,Wind FR 22,FR,wind,120.05000000000001,3.65844699999999,48.589326,WD,R
4618,Wind FR 23,FR,wind,37.0,1.73584000000001,46.437857,WD,R
4888,Wind FR 24,FR,wind,796.2300000000001,3.86718799999999,48.502048,WD,R
4660,Wind FR 25,FR,wind,6.0,4.79003900000001,44.582643,WD,R
7015,Wind FR 26,FR,wind,29.6,1.40867363234957,46.2085970959993,WD,R
4623,Wind FR 27,FR,wind,1.2,3.02124000000001,45.912944,WD,R
4604,Wind FR 28,FR,wind,21.0,2.614746,44.41024,WD,R
7347,Wind FR 29,FR,wind,32.766000000000005,-1.4048246060893,46.8314748756361,WD,R
4668,Wind FR 30,FR,wind,17.6,4.943848,44.972571,WD,R
4965,Wind FR 31,FR,wind,0.75,3.16406199999999,50.715591,WD,R
4467,Wind FR 32,FR,wind,25.61,2.746582,44.0718,WD,R
4582,Wind FR 33,FR,wind,18.0,3.669434,45.02695,WD,R
4873,Wind FR 34,FR,wind,56.0,3.65844699999999,47.857403,WD,R
4542,Wind FR 35,FR,wind,8.0,0.329590000000012,47.908978,WD,R
4911,Wind FR 36,FR,wind,45.599999999999994,4.22973599999999,49.224773,WD,R
4536,Wind FR 37,FR,wind,11.4,-0.76904300000001,48.070738,WD,R
6586,Wind FR 38,FR,wind,64.69999999999999,-1.74682600000001,47.144897,WD,R
4839,Wind FR 39,FR,wind,10.0,1.230469,49.403825,WD,R
5111,Wind FR 40,FR,wind,185.54999999999998,2.46093799999999,50.176898,WD,R
5950,Wind FR 41,FR,wind,12.0,1.92260700000001,43.882057,WD,R
4570,Wind FR 42,FR,wind,57.370000000000005,2.39502000000001,43.253205,WD,R
5082,Wind FR 43,FR,wind,10.25,1.417236,49.28214,WD,R
4789,Wind FR 44,FR,wind,120.0,5.06469699999999,47.390912,WD,R
4678,Wind FR 45,FR,wind,12.3,3.65844699999999,47.301585,WD,R
6060,Wind FR 46,FR,wind,143.328,0.0439449999999986,45.73686,WD,R
4972,Wind FR 47,FR,wind,22.0,6.17431599999999,47.672786,WD,R
4527,Wind FR 48,FR,wind,26.8,-0.933838000000004,47.279229,WD,R
4667,Wind FR 49,FR,wind,11.5,4.87793000000001,44.887012,WD,R
5100,Wind FR 50,FR,wind,30.1,3.76831100000001,50.148746,WD,R
4579,Wind FR 51,FR,wind,7.2,4.96582000000001,43.500752,WD,R
6162,Wind FR 52,FR,wind,3.3,-1.494141,49.582226,WD,R
4870,Wind FR 53,FR,wind,26.0,3.405762,48.129434,WD,R
5910,Wind FR 54,FR,wind,341.15,5.42724599999999,48.414619,WD,R
7824,Wind FR 55,FR,wind,162.44999999999996,-2.93335000000001,48.465637,WD,R
4935,Wind FR 56,FR,wind,12.0,2.15331999999999,50.993014,WD,R
5110,Wind FR 57,FR,wind,43.2,5.06469699999999,48.253941,WD,R
5858,Wind FR 58,FR,wind,194.599,2.823486,43.723475,WD,R
4966,Wind FR 59,FR,wind,8.0,6.84448199999999,49.131408,WD,R
5092,Wind FR 60,FR,wind,113.91999999999999,-0.582275000000003,46.641894,WD,R
5059,Wind FR 61,FR,wind,8.0,4.504395,49.866317,WD,R
4832,Wind FR 62,FR,wind,13.8,1.625977,49.001844,WD,R
4910,Wind FR 63,FR,wind,429.271,4.416504,48.806863,WD,R
4524,Wind FR 64,FR,wind,7.2,-1.230469,47.062638,WD,R
6973,Wind FR 65,FR,wind,20.0,7.30590800000001,48.268569,WD,R
4903,Wind FR 66,FR,wind,12.0,3.35082999999999,49.346599,WD,R
6142,Wind FR 67,FR,wind,36.9,-3.82324200000001,48.56025,WD,R
5959,Wind FR 68,FR,wind,32.616,-1.230469,49.15297,WD,R
3087,Wind FR 69,FR,wind,2.3,5.89965800000001,49.560852,WD,R
4526,Wind FR 70,FR,wind,77.7,-0.878905999999996,47.062638,WD,R
7790,Wind FR 71,FR,wind,20.43,4.691162,48.705463,WD,R
5949,Wind FR 72,FR,wind,10.0,6.679688,47.457809,WD,R
4916,Wind FR 73,FR,wind,231.197,1.593018,50.04303,WD,R
4677,Wind FR 74,FR,wind,12.0,4.13085900000001,46.573967,WD,R
4639,Wind FR 75,FR,wind,11.5,4.36157199999999,44.535675,WD,R
4944,Wind FR 76,FR,wind,335.73999999999995,3.39477499999999,50.071244,WD,R
4783,Wind FR 77,FR,wind,18.0,5.95458999999999,46.777493,WD,R
4596,Wind FR 78,FR,wind,103.30999999999999,2.94433599999999,43.588349,WD,R
7709,Wind FR 79,FR,wind,70.0,1.80175799999999,48.261256,WD,R
4585,Wind FR 80,FR,wind,20.8,2.14233400000001,43.98491,WD,R
4580,Wind FR 81,FR,wind,31.25,4.822998,43.436966,WD,R
5096,Wind FR 82,FR,wind,18.0,1.79077100000001,47.279229,WD,R
4980,Wind FR 83,FR,wind,19.8,6.38305700000001,48.180739,WD,R
5103,Wind FR 84,FR,wind,186.33399999999997,1.93359399999999,48.246626,WD,R
6077,Wind FR 85,FR,wind,6.0,-0.78002899999999,47.435519,WD,R
4902,Wind FR 86,FR,wind,227.1,2.823486,49.696062,WD,R
4808,Wind FR 87,FR,wind,10.0,1.74682600000001,47.680183,WD,R
4626,Wind FR 88,FR,wind,20.799999999999997,3.19702100000001,45.514046,WD,R
5031,Wind FR 89,FR,wind,413.875,4.416504,49.482401,WD,R
7014,Wind FR 90,FR,wind,46.8,1.40625,46.437857,WD,R
4961,Wind FR 91,FR,wind,21.2,2.54882799999999,50.611132,WD,R
4661,Wind FR 92,FR,wind,3.0,4.735107,44.370987,WD,R
5962,Wind FR 93,FR,wind,346.74999999999994,2.120361,50.492463,WD,R
4918,Wind FR 94,FR,wind,101.0,0.802002000000004,49.837982,WD,R
5018,Wind FR 95,FR,wind,32.0,7.03125,49.05947,WD,R
4917,Wind FR 96,FR,wind,120.0,1.373291,49.979488,WD,R
7375,Wind FR 97,FR,wind,36.16,-1.40279958946155,49.3123868702144,WD,R
6154,Wind FR 98,FR,wind,37.2,-1.417236,46.596619,WD,R
3078,Wind FR 99,FR,wind,16.05,5.976562,49.482401,WD,R
4885,Wind FR 100,FR,wind,211.64999999999998,4.119873,48.363549,WD,R
6164,Wind FR 101,FR,wind,223.9,-2.30712900000001,47.916342,WD,R
7017,Wind FR 102,FR,wind,36.75,1.40749511146604,49.6195421718321,WD,R
6146,Wind FR 103,FR,wind,31.54,-2.63671899999999,47.643186,WD,R
5101,Wind FR 104,FR,wind,48.4,5.77880899999999,43.508721,WD,R
7379,Wind FR 105,FR,wind,139.175,1.7127828297346,48.3115796965564,WD,R
4882,Wind FR 106,FR,wind,117.65999999999998,3.91113299999999,47.480088,WD,R
6950,Wind FR 107,FR,wind,31.9,-0.010986000000005,48.618385,WD,R
4647,Wind FR 108,FR,wind,29.1,4.20776400000001,44.676466,WD,R
6066,Wind FR 109,FR,wind,72.3,2.88940400000001,42.690511,WD,R
6987,Wind FR 110,FR,wind,32.3,-1.40644699726759,48.1588212452246,WD,R
4968,Wind FR 111,FR,wind,19.799999999999997,6.273193,48.319734,WD,R
4599,Wind FR 112,FR,wind,36.0,3.72436500000001,43.659924,WD,R
6079,Wind FR 113,FR,wind,214.191,0.274658000000005,46.362093,WD,R
5861,Wind FR 114,FR,wind,19.0,6.70165999999999,49.296472,WD,R
4571,Wind FR 115,FR,wind,163.70000000000002,2.75756800000001,42.698586,WD,R
4756,Wind FR 116,FR,wind,2.7,5.88867200000001,44.801327,WD,R
7343,Wind FR 117,FR,wind,16.25,3.48266599999999,49.28214,WD,R
4909,Wind FR 118,FR,wind,127.52,4.251709,48.987427,WD,R
4923,Wind FR 119,FR,wind,180.75,2.28515599999999,49.965356,WD,R
7403,Wind FR 120,FR,wind,29.099999999999998,1.40522192445109,50.0012999491174,WD,R
6159,Wind FR 121,FR,wind,164.15,-1.417236,47.687579,WD,R
4549,Wind FR 122,FR,wind,64.0,-0.164794999999993,49.081062,WD,R
4950,Wind FR 123,FR,wind,59.400000000000006,3.35082999999999,50.317408,WD,R
5951,Wind FR 124,FR,wind,105.432,-0.64819299999999,48.334343,WD,R
6149,Wind FR 125,FR,wind,39.839999999999996,-2.076416,47.435519,WD,R
4562,Wind FR 126,FR,wind,20.0,0.307616999999998,49.231947,WD,R
4823,Wind FR 127,FR,wind,15.0,2.39502000000001,48.487486,WD,R
7510,Wind FR 128,FR,wind,12.15,-1.52709999999999,47.107523,WD,R
4800,Wind FR 129,FR,wind,142.9,6.591797,47.383474,WD,R
6147,Wind FR 130,FR,wind,10.0,-2.28515599999999,47.309034,WD,R
5026,Wind FR 131,FR,wind,131.70000000000002,0.823974999999992,46.362093,WD,R
5045,Wind FR 132,FR,wind,46.42,1.274414,50.000678,WD,R
7399,Wind FR 133,FR,wind,41.550000000000004,-3.77929700000001,47.916342,WD,R
4933,Wind FR 134,FR,wind,78.1,2.219238,50.687758,WD,R
4868,Wind FR 135,FR,wind,12.0,3.72436500000001,47.879513,WD,R
6150,Wind FR 136,FR,wind,147.6,-2.80151400000001,48.429201,WD,R
4519,Wind FR 137,FR,wind,42.0,0.988770000000011,45.912944,WD,R
4831,Wind FR 138,FR,wind,31.1,0.681152000000009,48.734455,WD,R
4520,Wind FR 139,FR,wind,11.75,-1.29638700000001,46.777493,WD,R
4889,Wind FR 140,FR,wind,15.0,4.93286099999999,48.661943,WD,R
6152,Wind FR 141,FR,wind,73.6,-2.351074,48.531157,WD,R
7449,Wind FR 142,FR,wind,6.8,6.448975,48.268569,WD,R
4663,Wind FR 143,FR,wind,6.9,4.822998,44.315988,WD,R
4857,Wind FR 144,FR,wind,77.634,2.14233400000001,49.382373,WD,R
7350,Wind FR 145,FR,wind,12.0,3.625488,49.360912,WD,R
4595,Wind FR 146,FR,wind,14.0,2.208252,44.964798,WD,R
4787,Wind FR 147,FR,wind,18.0,5.54809599999999,46.118942,WD,R
5095,Wind FR 148,FR,wind,54.2,6.48193399999999,48.806863,WD,R
4525,Wind FR 149,FR,wind,50.52,-1.065674,46.149394,WD,R
4566,Wind FR 150,FR,wind,30.97,1.955566,43.34915,WD,R
5107,Wind FR 151,FR,wind,176.378,1.96655299999999,50.310392,WD,R
4872,Wind FR 152,FR,wind,61.75,3.52661099999999,47.783635,WD,R
4633,Wind FR 153,FR,wind,1.2,3.28491200000001,46.24825,WD,R
4799,Wind FR 154,FR,wind,38.92,6.04247999999999,47.279229,WD,R
5865,Wind FR 155,FR,wind,89.95,5.31738300000001,48.312428,WD,R
4922,Wind FR 156,FR,wind,12.8,2.37304699999999,49.873398,WD,R
4949,Wind FR 157,FR,wind,25.8,3.14209,50.380502,WD,R
6165,Wind FR 158,FR,wind,6.0,-1.73584000000001,48.034019,WD,R
4813,Wind FR 159,FR,wind,24.48,1.58203099999999,48.385442,WD,R
4474,Wind FR 160,FR,wind,17.0,-0.812988000000009,45.943511,WD,R
6007,Wind FR 161,FR,wind,124.61999999999999,1.77978500000001,48.334343,WD,R
6157,Wind FR 162,FR,wind,10.280299999999999,-1.768799,48.114767,WD,R
5066,Wind FR 163,FR,wind,12.0,3.92211899999999,45.104546,WD,R
4684,Wind FR 164,FR,wind,60.0,4.866943,45.298075,WD,R
4645,Wind FR 165,FR,wind,138.0,4.020996,44.504341,WD,R
4898,Wind FR 166,FR,wind,115.96000000000001,3.449707,49.016257,WD,R
5025,Wind FR 167,FR,wind,9.0,1.94458,45.752193,WD,R
4607,Wind FR 168,FR,wind,32.37,3.29589800000001,44.824708,WD,R
4385,Wind FR 169,FR,wind,26.759999999999998,5.614014,49.560852,WD,R
7336,Wind FR 170,FR,wind,54.105000000000004,4.5883531458663,46.8746250482989,WD,R
6153,Wind FR 171,FR,wind,0.1182,-1.636963,47.271775,WD,R
5068,Wind FR 172,FR,wind,16.2,4.96582000000001,44.699898,WD,R
6932,Wind FR 173,FR,wind,23.85,-1.40715709378505,46.5986966080777,WD,R
4879,Wind FR 174,FR,wind,41.3,3.55957000000001,48.502048,WD,R
7484,Wind FR 175,FR,wind,9.9,4.36157199999999,49.001844,WD,R
4971,Wind FR 176,FR,wind,149.0,5.36132800000001,47.938427,WD,R
6936,Wind FR 177,FR,wind,14.35,1.58203099999999,43.413029,WD,R
4551,Wind FR 178,FR,wind,40.456,-0.285644999999988,49.109838,WD,R
7459,Wind FR 179,FR,wind,91.1,6.547852,49.102645,WD,R
5085,Wind FR 180,FR,wind,27.6,4.47143600000001,49.138597,WD,R
4552,Wind FR 181,FR,wind,55.0,0.164794999999993,48.334343,WD,R
7713,Wind FR 182,FR,wind,132.05,-0.296630999999993,46.339343,WD,R
7741,Wind FR 183,FR,wind,162.4,-0.626221000000005,45.95115,WD,R
5086,Wind FR 184,FR,wind,21.6,3.92211899999999,43.644026,WD,R
4890,Wind FR 185,FR,wind,301.4299999999999,3.405762,49.674738,WD,R
4913,Wind FR 186,FR,wind,107.51,3.94409200000001,49.353756,WD,R
4941,Wind FR 187,FR,wind,255.89299999999997,2.68066399999999,50.162824,WD,R
7332,Wind FR 188,FR,wind,13.2,6.41440348793292,48.7476341571702,WD,R
6136,Wind FR 189,FR,wind,62.15,-4.44946299999999,48.443778,WD,R
4671,Wind FR 190,FR,wind,30.266,3.98803700000001,46.004593,WD,R
4648,Wind FR 191,FR,wind,2.7,4.79003900000001,44.182204,WD,R
7340,Wind FR 192,FR,wind,41.2,4.064941,48.195387,WD,R
7567,Wind FR 193,FR,wind,64.5,-0.538330000000004,46.255847,WD,R
4556,Wind FR 194,FR,wind,72.9,0.703124999999998,46.830134,WD,R
6144,Wind FR 195,FR,wind,6.0,-1.84570299999999,47.301585,WD,R
4557,Wind FR 196,FR,wind,20.0,0.747069999999996,46.445427,WD,R
4989,Wind FR 197,FR,wind,10.0,5.789795,49.28214,WD,R
7876,Wind FR 198,FR,wind,14.0,-0.911864999999989,47.390912,WD,R
6938,Wind FR 199,FR,wind,106.38700000000001,-1.4063738043641,47.4365741379546,WD,R
4608,Wind FR 200,FR,wind,134.5,3.03222699999999,45.151053,WD,R
6169,Wind FR 201,FR,wind,59.8,-2.02148399999999,46.845164,WD,R
7574,Wind FR 202,FR,wind,64.3,1.856689,48.231991,WD,R
4867,Wind FR 203,FR,wind,265.1,4.515381,48.705463,WD,R
6130,Wind FR 204,FR,wind,7.5,-1.724854,49.518076,WD,R
5029,Wind FR 205,FR,wind,22.0,5.921631,48.173412,WD,R
4575,Wind FR 206,FR,wind,26.0,3.69140600000001,43.460894,WD,R
7357,Wind FR 207,FR,wind,24.35,-1.40218305725865,46.929084559811,WD,R
4590,Wind FR 208,FR,wind,200.29000000000002,2.31811500000001,43.524655,WD,R
4665,Wind FR 209,FR,wind,4.6,4.84497099999999,44.809122,WD,R
4955,Wind FR 210,FR,wind,141.79999999999998,4.020996,49.958288,WD,R
4943,Wind FR 211,FR,wind,415.6680000000001,3.39477499999999,49.880478,WD,R
4815,Wind FR 212,FR,wind,20.0,1.47216800000001,48.647428,WD,R
4530,Wind FR 213,FR,wind,128.0,-0.109863000000011,46.845164,WD,R
6939,Wind FR 214,FR,wind,15.4,4.32038022475984,47.8287695378832,WD,R
4827,Wind FR 215,FR,wind,0.132,2.526855,48.545705,WD,R
5030,Wind FR 216,FR,wind,185.45000000000002,2.76855499999999,49.767074,WD,R
6578,Wind FR 217,FR,wind,35.6,-1.71386699999999,47.916342,WD,R
4942,Wind FR 218,FR,wind,259.03999999999996,2.823486,49.809632,WD,R
4706,Wind FR 219,FR,wind,130.79999999999998,4.66918899999999,47.323931,WD,R
4610,Wind FR 220,FR,wind,106.0,2.44995100000001,47.040182,WD,R
5960,Wind FR 221,FR,wind,30.15,-0.977783000000002,47.967859,WD,R
7793,Wind FR 222,FR,wind,27.0,6.83349599999999,48.951366,WD,R
4830,Wind FR 223,FR,wind,32.58,0.911864999999989,49.009051,WD,R
4621,Wind FR 224,FR,wind,383.4000000000001,1.73584000000001,47.129951,WD,R
6163,Wind FR 225,FR,wind,10.0,-1.47216800000001,49.460984,WD,R
4881,Wind FR 226,FR,wind,14.0,3.85620100000001,47.938427,WD,R
6141,Wind FR 227,FR,wind,32.15,-3.82324200000001,48.370848,WD,R
5104,Wind FR 228,FR,wind,19.0,3.74633799999999,50.268277,WD,R
4959,Wind FR 229,FR,wind,2.8,3.537598,50.387508,WD,R
4664,Wind FR 230,FR,wind,38.195,4.79003900000001,44.472991,WD,R
7477,Wind FR 231,FR,wind,73.2,-0.90087900000001,47.15984,WD,R
4900,Wind FR 232,FR,wind,109.94999999999999,2.72460899999999,49.37522,WD,R
7021,Wind FR 233,FR,wind,100.793,-2.53893224256282,47.7078723647013,WD,R
4537,Wind FR 234,FR,wind,8.0,-0.109863000000011,47.212106,WD,R
4904,Wind FR 235,FR,wind,101.6,2.966309,49.674738,WD,R
4884,Wind FR 236,FR,wind,20.0,4.57031200000001,47.864774,WD,R
4946,Wind FR 237,FR,wind,8.0,2.823486,50.324423,WD,R
4573,Wind FR 238,FR,wind,61.400000000000006,2.658691,43.277205,WD,R
6158,Wind FR 239,FR,wind,12.0,-2.05444300000001,48.596592,WD,R
6132,Wind FR 240,FR,wind,18.9,-3.35082999999999,48.734455,WD,R
4833,Wind FR 241,FR,wind,18.8,1.098633,48.994636,WD,R
4927,Wind FR 242,FR,wind,3.0,1.70288099999999,50.715591,WD,R
7549,Wind FR 243,FR,wind,42.0,6.96533199999999,48.756189,WD,R
4816,Wind FR 244,FR,wind,41.875,2.01049800000001,48.056054,WD,R
4597,Wind FR 245,FR,wind,29.700000000000003,2.834473,44.024422,WD,R
4521,Wind FR 246,FR,wind,32.58,-0.472411999999992,48.719961,WD,R
4534,Wind FR 247,FR,wind,14.75,-0.0549320000000076,46.747389,WD,R
4919,Wind FR 248,FR,wind,45.3,1.109619,49.710273,WD,R
5117,Wind FR 249,FR,wind,20.0,4.88891599999999,48.092757,WD,R
4540,Wind FR 250,FR,wind,67.19999999999999,-1.021729,49.131408,WD,R
6135,Wind FR 251,FR,wind,78.3,-4.020996,48.019324,WD,R
5061,Wind FR 252,FR,wind,114.0,2.60376,50.331436,WD,R
4631,Wind FR 253,FR,wind,45.6,2.614746,46.324172,WD,R
7482,Wind FR 254,FR,wind,8.0,-0.395507999999999,46.240652,WD,R
4518,Wind FR 255,FR,wind,16.304,0.186768000000007,45.644768,WD,R
6148,Wind FR 256,FR,wind,16.6,-2.19726599999999,47.338823,WD,R
4674,Wind FR 257,FR,wind,12.0,4.17480499999999,46.004593,WD,R
6948,Wind FR 258,FR,wind,31.2,2.73559585738224,44.4573099491017,WD,R
6552,Wind FR 259,FR,wind,29.2,-3.273926,47.931066,WD,R
5053,Wind FR 260,FR,wind,10.0,3.72436500000001,48.085419,WD,R
5038,Wind FR 261,FR,wind,6.6,0.252685999999995,47.338823,WD,R
5102,Wind FR 262,FR,wind,99.0,2.746582,44.142798,WD,R
2642,Wind FR 263,FR,wind,20.0,6.624756,49.432413,WD,R
5046,Wind FR 264,FR,wind,423.35900000000004,2.40600600000001,49.703168,WD,R
7356,Wind FR 265,FR,wind,11.5,4.559326,43.826601,WD,R
5040,Wind FR 266,FR,wind,9.287999999999998,-0.318604000000007,49.167339,WD,R
5913,Wind FR 267,FR,wind,16.6,-0.219727000000001,47.872144,WD,R
4887,Wind FR 268,FR,wind,20.0,3.91113299999999,48.283193,WD,R
4929,Wind FR 269,FR,wind,13.9,1.83471699999999,50.903033,WD,R
4990,Wind FR 270,FR,wind,18.0,5.84472700000001,49.37522,WD,R
7348,Wind FR 271,FR,wind,36.6,5.1859255724842,48.3627715612059,WD,R
5083,Wind FR 272,FR,wind,183.8,5.174561,48.980217,WD,R
7744,Wind FR 273,FR,wind,28.0,6.71264599999999,49.05227,WD,R
4598,Wind FR 274,FR,wind,124.99000000000001,3.449707,43.651975,WD,R
5105,Wind FR 275,FR,wind,12.0,5.394287,43.34915,WD,R
7364,Wind FR 276,FR,wind,111.6,5.05371100000001,48.334343,WD,R
7402,Wind FR 277,FR,wind,27.2,1.40443795264613,49.5439525858626,WD,R
5041,Wind FR 278,FR,wind,10.25,0.0329589999999936,48.777913,WD,R
4809,Wind FR 279,FR,wind,34.5,1.40625,47.650588,WD,R
5054,Wind FR 280,FR,wind,17.5,3.19702100000001,47.554287,WD,R
7656,Wind FR 281,FR,wind,183.70499999999998,2.88940400000001,49.75288,WD,R
5023,Wind FR 282,FR,wind,36.599999999999994,2.966309,47.517201,WD,R
5047,Wind FR 283,FR,wind,358.79999999999995,3.07617199999999,50.240179,WD,R
4920,Wind FR 284,FR,wind,79.69999999999999,1.75781199999999,50.485474,WD,R
6954,Wind FR 285,FR,wind,46.0,3.59252900000001,48.538432,WD,R
5037,Wind FR 286,FR,wind,9.2,-1.35131799999999,47.249407,WD,R
4986,Solar FR 1,FR,solar,15.114925000000001,6.679688,49.131408,PV,R
7329,Solar FR 2,FR,solar,49.93098000000001,1.03271500000001,43.436966,PV,R
4901,Solar FR 3,FR,solar,0.569092,2.68066399999999,49.296472,PV,R
4576,Solar FR 4,FR,solar,81.87719000000004,2.98828099999999,43.22119,PV,R
6073,Solar FR 5,FR,solar,12.95414,5.58105500000001,43.22119,PV,R
4522,Solar FR 6,FR,solar,3.77462,-0.483397999999997,46.17983,PV,R
4838,Solar FR 7,FR,solar,1.67371,0.944824000000009,49.546598,PV,R
5099,Solar FR 8,FR,solar,0.41944000000000004,3.537598,49.310799,PV,R
4988,Solar FR 9,FR,solar,138.66043,5.18554700000001,49.510944,PV,R
7538,Solar FR 10,FR,solar,1.917,1.75781199999999,48.239309,PV,R
5112,Solar FR 11,FR,solar,29.255790000000008,5.09765600000001,43.858297,PV,R
4978,Solar FR 12,FR,solar,4.44192,6.240234,48.640169,PV,R
4653,Solar FR 13,FR,solar,54.627039999999994,4.65820300000001,44.024422,PV,R
5075,Solar FR 14,FR,solar,11.859729999999999,6.70165999999999,43.444943,PV,R
7400,Solar FR 15,FR,solar,2.23044,-1.68824744398423,47.1845095024956,PV,R
4888,Solar FR 16,FR,solar,6.24235,3.86718799999999,48.502048,PV,R
7344,Solar FR 17,FR,solar,8.57021,-1.40587197999334,43.4368401904838,PV,R
4623,Solar FR 18,FR,solar,9.436410000000006,3.02124000000001,45.912944,PV,R
7347,Solar FR 19,FR,solar,28.582519999999985,-1.4048246060893,46.8314748756361,PV,R
5062,Solar FR 20,FR,solar,1.12003,2.735596,50.527397,PV,R
4584,Solar FR 21,FR,solar,11.663239999999998,2.208252,45.127805,PV,R
4582,Solar FR 22,FR,solar,43.779150000000016,3.669434,45.02695,PV,R
4628,Solar FR 23,FR,solar,19.964520000000004,3.26293899999999,45.79817,PV,R
4687,Solar FR 24,FR,solar,2.1883299999999997,4.71313499999999,45.467836,PV,R
6586,Solar FR 25,FR,solar,22.2348,-1.74682600000001,47.144897,PV,R
4962,Solar FR 26,FR,solar,1.8567099999999999,2.90039099999999,50.63901,PV,R
4748,Solar FR 27,FR,solar,1.560935,5.95458999999999,45.383019,PV,R
4475,Solar FR 28,FR,solar,44.761670000000024,-1.34033200000001,43.540585,PV,R
4738,Solar FR 29,FR,solar,3.6469899999999997,6.855469,43.580391,PV,R
4570,Solar FR 30,FR,solar,77.14008000000001,2.39502000000001,43.253205,PV,R
5108,Solar FR 31,FR,solar,12.335320000000001,-0.681152000000009,43.842451,PV,R
4535,Solar FR 32,FR,solar,26.047809999999995,-0.593262000000012,47.480088,PV,R
4972,Solar FR 33,FR,solar,15.117588999999999,6.17431599999999,47.672786,PV,R
4527,Solar FR 34,FR,solar,11.99115,-0.933838000000004,47.279229,PV,R
4720,Solar FR 35,FR,solar,32.62589,5.76782200000001,43.802819,PV,R
4487,Solar FR 36,FR,solar,3.9448599999999994,0.472411999999992,43.036776,PV,R
4855,Solar FR 37,FR,solar,3.691400000000001,2.49389600000001,48.893615,PV,R
5001,Solar FR 38,FR,solar,2.0697,7.41577099999999,47.643186,PV,R
5110,Solar FR 39,FR,solar,1.1427000000000003,5.06469699999999,48.253941,PV,R
5858,Solar FR 40,FR,solar,14.064639999999995,2.823486,43.723475,PV,R
4811,Solar FR 41,FR,solar,0.3224,1.856689,47.657988,PV,R
5092,Solar FR 42,FR,solar,68.25427700000007,-0.582275000000003,46.641894,PV,R
4563,Solar FR 43,FR,solar,0.64995,0.329590000000012,49.567978,PV,R
5035,Solar FR 44,FR,solar,7.369689999999999,4.603271,43.850374,PV,R
5492,Solar FR 45,FR,solar,0.8845,1.87866200000001,42.147114,PV,R
4548,Solar FR 46,FR,solar,28.910599999999974,0.164794999999993,47.938427,PV,R
4910,Solar FR 47,FR,solar,17.873240000000003,4.416504,48.806863,PV,R
6943,Solar FR 48,FR,solar,5.42393,4.5540337822753,46.5424263531589,PV,R
7586,Solar FR 49,FR,solar,0.39988,6.16333000000001,44.339565,PV,R
4852,Solar FR 50,FR,solar,7.47635,2.296143,48.777913,PV,R
4577,Solar FR 51,FR,solar,105.23472,3.20800799999999,43.389082,PV,R
6941,Solar FR 52,FR,solar,3.5556200000000002,-1.40756295604686,47.1798237787675,PV,R
4713,Solar FR 53,FR,solar,19.626020000000004,5.41625999999999,43.2932,PV,R
4764,Solar FR 54,FR,solar,4.593779999999999,6.04247999999999,45.460131,PV,R
5959,Solar FR 55,FR,solar,13.678579999999998,-1.230469,49.15297,PV,R
6142,Solar FR 56,FR,solar,8.577429999999994,-3.82324200000001,48.56025,PV,R
7790,Solar FR 57,FR,solar,0.8976999999999999,4.691162,48.705463,PV,R
5949,Solar FR 58,FR,solar,1.8461400000000001,6.679688,47.457809,PV,R
4944,Solar FR 59,FR,solar,30.983819999999994,3.39477499999999,50.071244,PV,R
4783,Solar FR 60,FR,solar,2.6815800000000003,5.95458999999999,46.777493,PV,R
4588,Solar FR 61,FR,solar,8.38261,1.53808599999999,43.524655,PV,R
4672,Solar FR 62,FR,solar,3.9380200000000007,4.295654,45.375302,PV,R
5103,Solar FR 63,FR,solar,4.859032999999999,1.93359399999999,48.246626,PV,R
4644,Solar FR 64,FR,solar,89.84096999999991,4.152832,44.127028,PV,R
4961,Solar FR 65,FR,solar,4.502640000000001,2.54882799999999,50.611132,PV,R
4746,Solar FR 66,FR,solar,6.624410999999999,6.108398,46.065608,PV,R
5486,Solar FR 67,FR,solar,0.172,0.76904300000001,42.730874,PV,R
5962,Solar FR 68,FR,solar,11.53414,2.120361,50.492463,PV,R
4918,Solar FR 69,FR,solar,6.21378,0.802002000000004,49.837982,PV,R
6004,Solar FR 70,FR,solar,7.7490000000000006,2.834473,48.814099,PV,R
4892,Solar FR 71,FR,solar,5.68232,2.922363,48.835797,PV,R
5101,Solar FR 72,FR,solar,80.33081000000007,5.77880899999999,43.508721,PV,R
7013,Solar FR 73,FR,solar,18.793169999999996,1.40624997204211,43.1651229946337,PV,R
5529,Solar FR 74,FR,solar,0.41297999999999996,7.075195,46.987747,PV,R
7379,Solar FR 75,FR,solar,1.54805,1.7127828297346,48.3115796965564,PV,R
4776,Solar FR 76,FR,solar,0.21938000000000002,6.48193399999999,45.47554,PV,R
6950,Solar FR 77,FR,solar,15.399429999999999,-0.010986000000005,48.618385,PV,R
4984,Solar FR 78,FR,solar,0.6870700000000001,6.25122100000001,49.181703,PV,R
5955,Solar FR 79,FR,solar,1.75069,6.86645500000001,43.436966,PV,R
6064,Solar FR 80,FR,solar,7.805870000000002,1.549072,43.588349,PV,R
5163,Solar FR 81,FR,solar,0.0973,7.31689499999999,44.840291,PV,R
5048,Solar FR 82,FR,solar,2.40352,2.54882799999999,48.922499,PV,R
4756,Solar FR 83,FR,solar,2.3583100000000004,5.88867200000001,44.801327,PV,R
4952,Solar FR 84,FR,solar,2.26424,3.087158,50.50644,PV,R
4652,Solar FR 85,FR,solar,43.18099000000002,4.89990199999999,43.874138,PV,R
7343,Solar FR 86,FR,solar,1.69544,3.48266599999999,49.28214,PV,R
5081,Solar FR 87,FR,solar,2.42574,-0.527343999999999,44.785734,PV,R
4796,Solar FR 88,FR,solar,2.2462,6.547852,46.096091,PV,R
4498,Solar FR 89,FR,solar,6.97124,-0.615233999999996,45.205263,PV,R
4923,Solar FR 90,FR,solar,8.93476,2.28515599999999,49.965356,PV,R
4578,Solar FR 91,FR,solar,8.29235,5.05371100000001,43.389082,PV,R
4562,Solar FR 92,FR,solar,7.95394,0.307616999999998,49.231947,PV,R
7253,Solar FR 93,FR,solar,2.128453,7.61311390381664,47.6262097148403,PV,R
4643,Solar FR 94,FR,solar,44.82122000000002,4.119873,43.715535,PV,R
4945,Solar FR 95,FR,solar,2.1584400000000006,2.878418,50.464498,PV,R
4649,Solar FR 96,FR,solar,45.75643000000003,4.88891599999999,44.000718,PV,R
4682,Solar FR 97,FR,solar,11.878310000000004,4.43847700000001,46.739861,PV,R
4868,Solar FR 98,FR,solar,0.1277,3.72436500000001,47.879513,PV,R
4731,Solar FR 99,FR,solar,72.69470000000004,6.009521,44.43378,PV,R
4889,Solar FR 100,FR,solar,4.70604,4.93286099999999,48.661943,PV,R
5094,Solar FR 101,FR,solar,2.2515699999999996,6.13037099999999,45.782848,PV,R
6152,Solar FR 102,FR,solar,5.10286,-2.351074,48.531157,PV,R
4663,Solar FR 103,FR,solar,31.19348000000001,4.822998,44.315988,PV,R
7350,Solar FR 104,FR,solar,0.35125999999999996,3.625488,49.360912,PV,R
4703,Solar FR 105,FR,solar,16.593490000000013,4.998779,46.739861,PV,R
5095,Solar FR 106,FR,solar,3.4898200000000004,6.48193399999999,48.806863,PV,R
4757,Solar FR 107,FR,solar,3.997310000000001,5.89965800000001,45.251688,PV,R
7324,Solar FR 108,FR,solar,2.5015200000000006,7.4049768924999,47.6422163336185,PV,R
4589,Solar FR 109,FR,solar,33.762020000000014,1.45019499999999,43.612217,PV,R
7323,Solar FR 110,FR,solar,0.9783199999999999,2.82206056619344,50.5104810479537,PV,R
4906,Solar FR 111,FR,solar,19.224809999999998,4.07592800000001,49.303636,PV,R
5051,Solar FR 112,FR,solar,0.59203,3.46069300000001,49.396675,PV,R
4799,Solar FR 113,FR,solar,17.392480000000003,6.04247999999999,47.279229,PV,R
5080,Solar FR 114,FR,solar,40.01056000000001,4.284668,45.452424,PV,R
7593,Solar FR 115,FR,solar,1.5409100000000002,-1.20849600000001,47.129951,PV,R
4658,Solar FR 116,FR,solar,10.23503,5.06469699999999,43.937462,PV,R
7750,Solar FR 117,FR,solar,6.83884,6.15234400000001,44.174325,PV,R
6165,Solar FR 118,FR,solar,15.942379999999998,-1.73584000000001,48.034019,PV,R
4531,Solar FR 119,FR,solar,10.426139999999995,-0.38452099999999,46.316584,PV,R
4898,Solar FR 120,FR,solar,4.169720000000001,3.449707,49.016257,PV,R
5025,Solar FR 121,FR,solar,30.456129999999963,1.94458,45.752193,PV,R
7336,Solar FR 122,FR,solar,15.401810000000006,4.5883531458663,46.8746250482989,PV,R
6153,Solar FR 123,FR,solar,16.621199999999995,-1.636963,47.271775,PV,R
5068,Solar FR 124,FR,solar,34.126035,4.96582000000001,44.699898,PV,R
4925,Solar FR 125,FR,solar,1.0258099999999999,1.88964799999999,50.909961,PV,R
6138,Solar FR 126,FR,solar,9.07432,-4.240723,48.516604,PV,R
4877,Solar FR 127,FR,solar,0.7493199999999999,2.75756800000001,48.283193,PV,R
5086,Solar FR 128,FR,solar,39.897148999999985,3.92211899999999,43.644026,PV,R
4890,Solar FR 129,FR,solar,68.11659,3.405762,49.674738,PV,R
4698,Solar FR 130,FR,solar,25.427040000000012,4.910889,45.683158,PV,R
4648,Solar FR 131,FR,solar,50.928350000000016,4.79003900000001,44.182204,PV,R
7401,Solar FR 132,FR,solar,0.1132,1.40139359579063,49.2936215616816,PV,R
5007,Solar FR 133,FR,solar,4.111618,7.514648,48.144098,PV,R
4557,Solar FR 134,FR,solar,28.193430000000006,0.747069999999996,46.445427,PV,R
7333,Solar FR 135,FR,solar,10.2559,4.84015907072566,45.9985219029527,PV,R
4989,Solar FR 136,FR,solar,12.14129,5.789795,49.28214,PV,R
5071,Solar FR 137,FR,solar,1.2315099999999999,5.89965800000001,46.316584,PV,R
7319,Solar FR 138,FR,solar,2.2313300000000003,5.5582575588507,43.3555965355791,PV,R
7876,Solar FR 139,FR,solar,24.07012,-0.911864999999989,47.390912,PV,R
5056,Solar FR 140,FR,solar,3.8629760000000006,7.45971699999999,48.900838,PV,R
6068,Solar FR 141,FR,solar,24.024610000000006,2.68066399999999,42.617791,PV,R
6940,Solar FR 142,FR,solar,2.11322,-0.252345379204605,45.0575101526995,PV,R
4606,Solar FR 143,FR,solar,31.714959999999998,2.614746,44.715514,PV,R
6169,Solar FR 144,FR,solar,34.70219000000003,-2.02148399999999,46.845164,PV,R
5911,Solar FR 145,FR,solar,19.395569999999996,5.15258799999999,43.373112,PV,R
5808,Solar FR 146,FR,solar,1.0144,6.240234,46.369674,PV,R
5029,Solar FR 147,FR,solar,8.352029999999997,5.921631,48.173412,PV,R
5093,Solar FR 148,FR,solar,22.457149999999952,2.71362300000001,45.966425,PV,R
4528,Solar FR 149,FR,solar,31.50164999999998,-1.19751,48.538432,PV,R
4878,Solar FR 150,FR,solar,2.3442800000000004,2.75756800000001,48.516604,PV,R
5078,Solar FR 151,FR,solar,8.239760000000004,7.39379900000001,47.894248,PV,R
4665,Solar FR 152,FR,solar,46.18064999999998,4.84497099999999,44.809122,PV,R
4558,Solar FR 153,FR,solar,21.15583999999999,0.845947000000002,47.368594,PV,R
4617,Solar FR 154,FR,solar,10.79111,2.351074,45.429299,PV,R
4955,Solar FR 155,FR,solar,2.833590000000001,4.020996,49.958288,PV,R
7736,Solar FR 156,FR,solar,1.6534849999999999,1.57104499999999,48.828566,PV,R
4610,Solar FR 157,FR,solar,90.32726999999987,2.44995100000001,47.040182,PV,R
4840,Solar FR 158,FR,solar,2.50683,1.065674,49.382373,PV,R
6141,Solar FR 159,FR,solar,5.401309999999999,-3.82324200000001,48.370848,PV,R
4959,Solar FR 160,FR,solar,3.75546,3.537598,50.387508,PV,R
4858,Solar FR 161,FR,solar,4.66219,2.120361,49.023461,PV,R
7712,Solar FR 162,FR,solar,2.70072,2.779541,48.20271,PV,R
4537,Solar FR 163,FR,solar,26.69369499999998,-0.109863000000011,47.212106,PV,R
4466,Solar FR 164,FR,solar,18.593500000000002,0.988770000000011,44.103365,PV,R
5072,Solar FR 165,FR,solar,10.134942,5.76782200000001,45.166547,PV,R
4710,Solar FR 166,FR,solar,12.20772,5.383301,43.405047,PV,R
4786,Solar FR 167,FR,solar,14.441970000000001,5.24047899999999,46.233053,PV,R
4927,Solar FR 168,FR,solar,2.4051700000000005,1.70288099999999,50.715591,PV,R
4597,Solar FR 169,FR,solar,14.152830000000005,2.834473,44.024422,PV,R
4842,Solar FR 170,FR,solar,1.21604,1.142578,49.432413,PV,R
4534,Solar FR 171,FR,solar,27.493765999999997,-0.0549320000000076,46.747389,PV,R
4828,Solar FR 172,FR,solar,4.799540000000001,2.50488299999999,48.727209,PV,R
7645,Solar FR 173,FR,solar,62.778450000000014,-0.747069999999996,43.731414,PV,R
5117,Solar FR 174,FR,solar,7.608560000000001,4.88891599999999,48.092757,PV,R
6933,Solar FR 175,FR,solar,2.693262,2.84545858419659,49.3394409225916,PV,R
5952,Solar FR 176,FR,solar,13.755489999999996,6.13037099999999,43.084937,PV,R
7482,Solar FR 177,FR,solar,4.683033,-0.395507999999999,46.240652,PV,R
4513,Solar FR 178,FR,solar,38.98637999999999,0.911864999999989,44.504341,PV,R
5502,Solar FR 179,FR,solar,0.98626,6.33911100000001,46.581518,PV,R
4998,Solar FR 180,FR,solar,13.359239999999998,7.18505899999999,47.761484,PV,R
6003,Solar FR 181,FR,solar,0.9550349999999999,6.15234400000001,45.444717,PV,R
4712,Solar FR 182,FR,solar,10.500609999999998,5.482178,43.253205,PV,R
5038,Solar FR 183,FR,solar,17.642780000000002,0.252685999999995,47.338823,PV,R
5046,Solar FR 184,FR,solar,1.604991,2.40600600000001,49.703168,PV,R
6063,Solar FR 185,FR,solar,274.45991999999984,-0.725098000000012,44.660839,PV,R
2641,Solar FR 186,FR,solar,1.7651999999999999,6.679688,49.353756,PV,R
3037,Solar FR 187,FR,solar,1.17722,7.52563500000001,47.842658,PV,R
4990,Solar FR 188,FR,solar,0.6974400000000001,5.84472700000001,49.37522,PV,R
4473,Solar FR 189,FR,solar,4.19521,1.60400400000001,42.787339,PV,R
5091,Solar FR 190,FR,solar,6.494209999999999,7.19604499999999,47.591346,PV,R
6005,Solar FR 191,FR,solar,7.320359999999999,4.71313499999999,45.713851,PV,R
4862,Solar FR 192,FR,solar,1.05193,2.48291,49.030665,PV,R
4958,Solar FR 193,FR,solar,0.23726,4.57031200000001,49.930008,PV,R
6131,Solar FR 194,FR,solar,22.273050000000012,-1.461182,43.596306,PV,R
5105,Solar FR 195,FR,solar,11.439889999999998,5.394287,43.34915,PV,R
6557,Solar FR 196,FR,solar,1.06546,-1.48315400000001,47.212106,PV,R
6947,Solar FR 197,FR,solar,0.14,2.08749204511221,50.8191922179806,PV,R
7656,Solar FR 198,FR,solar,0.58589,2.88940400000001,49.75288,PV,R
5008,Solar FR 199,FR,solar,10.568464000000006,7.470703,48.041365,PV,R
4758,Solar FR 200,FR,solar,6.02998,5.60302699999999,45.5756,PV,R
4545,Solar FR 201,FR,solar,14.528420000000002,0.241699000000011,47.279229,PV,R
4747,Solar FR 202,FR,solar,0.075708,6.07543900000001,45.143305,PV,R
4689,Solar FR 203,FR,solar,15.471679999999996,4.66918899999999,45.79817,PV,R
5037,Solar FR 204,FR,solar,10.351900000000002,-1.35131799999999,47.249407,PV,R
4630,Solar FR 205,FR,solar,33.50618999999995,2.85644499999999,46.316584,PV,R
4605,Solar FR 206,FR,solar,9.7169,2.570801,44.574817,PV,R
4737,Solar FR 207,FR,solar,8.540140000000001,6.943359,43.651975,PV,R
4499,Solar FR 208,FR,solar,140.48963999999998,-0.582275000000003,44.855869,PV,R
4977,Solar FR 209,FR,solar,3.69705,5.965576,48.91528,PV,R
6977,Solar FR 210,FR,solar,7.095719999999998,-1.40625023936826,48.0633965200832,PV,R
4636,Solar FR 211,FR,solar,49.049519999999994,3.39477499999999,46.942762,PV,R
7788,Solar FR 212,FR,solar,0.41400000000000003,6.097412,44.276671,PV,R
5052,Solar FR 213,FR,solar,9.032269999999997,2.384033,48.57479,PV,R
4818,Solar FR 214,FR,solar,12.716475999999997,2.49389600000001,48.070738,PV,R
6160,Solar FR 215,FR,solar,3.0808900000000006,-1.53808599999999,48.092757,PV,R
4804,Solar FR 216,FR,solar,1.2428499999999998,4.49340799999999,49.802541,PV,R
4364,Solar FR 217,FR,solar,1.18332,5.67993199999999,49.460984,PV,R
4541,Solar FR 218,FR,solar,1.62188,0.417480000000009,49.646291,PV,R
7553,Solar FR 219,FR,solar,21.191540000000003,2.823486,44.134913,PV,R
4883,Solar FR 220,FR,solar,18.10127,3.99902300000001,47.864774,PV,R
4880,Solar FR 221,FR,solar,41.778679999999994,3.65844699999999,48.589326,PV,R
4478,Solar FR 222,FR,solar,137.21970499999995,-0.571288999999998,43.34116,PV,R
4743,Solar FR 223,FR,solar,0.89709,7.020264,43.731414,PV,R
4618,Solar FR 224,FR,solar,36.48657999999998,1.73584000000001,46.437857,PV,R
4819,Solar FR 225,FR,solar,54.449,2.71362300000001,47.709762,PV,R
4476,Solar FR 226,FR,solar,105.28223000000021,0.670166000000004,43.540585,PV,R
4668,Solar FR 227,FR,solar,60.25297999999997,4.943848,44.972571,PV,R
4965,Solar FR 228,FR,solar,3.842210000000001,3.16406199999999,50.715591,PV,R
5090,Solar FR 229,FR,solar,0.6811499999999999,6.04247999999999,49.023461,PV,R
4812,Solar FR 230,FR,solar,34.684159999999984,0.791015999999999,47.960502,PV,R
4839,Solar FR 231,FR,solar,0.29939,1.230469,49.403825,PV,R
5950,Solar FR 232,FR,solar,65.676242,1.92260700000001,43.882057,PV,R
7619,Solar FR 233,FR,solar,0.38532,0.944824000000009,49.346599,PV,R
4848,Solar FR 234,FR,solar,2.05777,2.10937499999999,48.929718,PV,R
4699,Solar FR 235,FR,solar,7.0049399999999995,5.00976600000001,45.828799,PV,R
4594,Solar FR 236,FR,solar,41.48855000000006,2.24121099999999,44.559163,PV,R
5082,Solar FR 237,FR,solar,13.06248,1.417236,49.28214,PV,R
6952,Solar FR 238,FR,solar,26.381775000000005,3.51621322510327,43.4348777861471,PV,R
4983,Solar FR 239,FR,solar,3.2497499999999997,6.756592,47.635784,PV,R
4870,Solar FR 240,FR,solar,2.07724,3.405762,48.129434,PV,R
4954,Solar FR 241,FR,solar,13.879529999999999,3.91113299999999,50.212064,PV,R
6942,Solar FR 242,FR,solar,13.90237,5.00938710063492,44.024297129204,PV,R
4768,Solar FR 243,FR,solar,2.6852799999999997,6.35009799999999,45.274886,PV,R
4583,Solar FR 244,FR,solar,33.058670000000006,2.01049800000001,45.166547,PV,R
5912,Solar FR 245,FR,solar,7.7390799999999995,6.053467,44.370987,PV,R
4524,Solar FR 246,FR,solar,18.052579999999992,-1.230469,47.062638,PV,R
4483,Solar FR 247,FR,solar,0.05888,1.38427700000001,42.771211,PV,R
5019,Solar FR 248,FR,solar,2.3520030000000007,7.66845700000001,48.79239,PV,R
7404,Solar FR 249,FR,solar,3.98138,1.40567287063848,43.4940988604965,PV,R
4508,Solar FR 250,FR,solar,46.11981999999999,-0.527343999999999,45.614037,PV,R
3087,Solar FR 251,FR,solar,0.27767000000000003,5.89965800000001,49.560852,PV,R
4526,Solar FR 252,FR,solar,42.55369799999999,-0.878905999999996,47.062638,PV,R
4791,Solar FR 253,FR,solar,12.780610000000003,5.614014,46.687131,PV,R
4916,Solar FR 254,FR,solar,1.86014,1.593018,50.04303,PV,R
7337,Solar FR 255,FR,solar,5.19888,4.61608483783024,46.6941031491342,PV,R
4981,Solar FR 256,FR,solar,4.414740000000001,6.64672900000001,48.070738,PV,R
4602,Solar FR 257,FR,solar,33.0877,2.702637,44.824708,PV,R
4754,Solar FR 258,FR,solar,14.924080000000009,5.54809599999999,45.344424,PV,R
4585,Solar FR 259,FR,solar,126.66799600000009,2.14233400000001,43.98491,PV,R
5113,Solar FR 260,FR,solar,3.10124,6.64672900000001,45.135555,PV,R
4580,Solar FR 261,FR,solar,85.62447999999985,4.822998,43.436966,PV,R
5096,Solar FR 262,FR,solar,46.082,1.79077100000001,47.279229,PV,R
4488,Solar FR 263,FR,solar,2.0868800000000003,1.51611300000001,42.85986,PV,R
4980,Solar FR 264,FR,solar,8.140625000000002,6.38305700000001,48.180739,PV,R
6077,Solar FR 265,FR,solar,18.91692,-0.78002899999999,47.435519,PV,R
4568,Solar FR 266,FR,solar,43.56542200000002,1.60400400000001,43.125043,PV,R
4850,Solar FR 267,FR,solar,3.5244799999999996,1.80175799999999,48.908059,PV,R
5031,Solar FR 268,FR,solar,10.021020000000007,4.416504,49.482401,PV,R
4718,Solar FR 269,FR,solar,30.09630999999999,5.44921900000001,43.699651,PV,R
7346,Solar FR 270,FR,solar,12.629719999999999,7.07805060997393,48.7083943429227,PV,R
4532,Solar FR 271,FR,solar,1.10341,-0.450439000000003,46.263443,PV,R
4641,Solar FR 272,FR,solar,5.475666,3.85620100000001,43.683764,PV,R
6061,Solar FR 273,FR,solar,33.14266000000001,0.494385000000006,46.927759,PV,R
4915,Solar FR 274,FR,solar,2.18135,2.31811500000001,51.013755,PV,R
4659,Solar FR 275,FR,solar,35.075260000000014,5.10864299999999,44.056012,PV,R
4885,Solar FR 276,FR,solar,27.069059999999997,4.119873,48.363549,PV,R
7017,Solar FR 277,FR,solar,0.77954,1.40749511146604,49.6195421718321,PV,R
6968,Solar FR 278,FR,solar,2.9538600000000006,4.33960000000001,49.066668,PV,R
4882,Solar FR 279,FR,solar,34.09947,3.91113299999999,47.480088,PV,R
2664,Solar FR 280,FR,solar,0.21597,7.36083999999999,49.325122,PV,R
4751,Solar FR 281,FR,solar,4.0541,5.66894500000001,45.120053,PV,R
4907,Solar FR 282,FR,solar,1.2661099999999998,3.94409200000001,49.253465,PV,R
5164,Solar FR 283,FR,solar,8.40632,7.283936,44.190082,PV,R
4939,Solar FR 284,FR,solar,10.60412,2.95532199999999,50.548344,PV,R
4940,Solar FR 285,FR,solar,1.7563799999999998,3.38378899999999,50.373496,PV,R
5057,Solar FR 286,FR,solar,0.77252,4.70214800000001,49.781264,PV,R
4547,Solar FR 287,FR,solar,38.49165000000001,0.505371000000011,46.581518,PV,R
4681,Solar FR 288,FR,solar,12.661230000000002,4.383545,46.611715,PV,R
4571,Solar FR 289,FR,solar,38.39899999999988,2.75756800000001,42.698586,PV,R
4714,Solar FR 290,FR,solar,31.6607,5.89965800000001,43.149094,PV,R
4854,Solar FR 291,FR,solar,32.01666,2.26318400000001,48.893615,PV,R
4517,Solar FR 292,FR,solar,115.88933,0.747069999999996,44.879228,PV,R
5033,Solar FR 293,FR,solar,2.233000000000001,3.043213,48.451066,PV,R
4729,Solar FR 294,FR,solar,133.84005999999994,5.976562,43.913723,PV,R
5951,Solar FR 295,FR,solar,19.66166,-0.64819299999999,48.334343,PV,R
6149,Solar FR 296,FR,solar,10.083900000000002,-2.076416,47.435519,PV,R
4823,Solar FR 297,FR,solar,2.92579,2.39502000000001,48.487486,PV,R
4891,Solar FR 298,FR,solar,1.29358,2.59277299999999,49.081062,PV,R
7510,Solar FR 299,FR,solar,3.315520000000001,-1.52709999999999,47.107523,PV,R
5026,Solar FR 300,FR,solar,53.95101000000002,0.823974999999992,46.362093,PV,R
5045,Solar FR 301,FR,solar,0.45513,1.274414,50.000678,PV,R
4468,Solar FR 302,FR,solar,5.06212,1.680908,47.576526,PV,R
4491,Solar FR 303,FR,solar,68.39420000000001,-0.131836,45.166547,PV,R
6150,Solar FR 304,FR,solar,11.812490000000002,-2.80151400000001,48.429201,PV,R
4566,Solar FR 305,FR,solar,85.67166000000003,1.955566,43.34915,PV,R
4970,Solar FR 306,FR,solar,1.45355,6.108398,48.589326,PV,R
4366,Solar FR 307,FR,solar,0.069,4.80102499999999,50.099441,PV,R
4806,Solar FR 308,FR,solar,9.25328,1.955566,47.813155,PV,R
4539,Solar FR 309,FR,solar,23.640710000000002,-0.450439000000003,47.502359,PV,R
5032,Solar FR 310,FR,solar,49.551649999999995,6.097412,48.669199,PV,R
5865,Solar FR 311,FR,solar,3.3110200000000005,5.31738300000001,48.312428,PV,R
5088,Solar FR 312,FR,solar,3.361686,2.834473,49.001844,PV,R
4922,Solar FR 313,FR,solar,2.5127699999999997,2.37304699999999,49.873398,PV,R
4875,Solar FR 314,FR,solar,2.05653,2.922363,48.356249,PV,R
4474,Solar FR 315,FR,solar,26.609450000000006,-0.812988000000009,45.943511,PV,R
4727,Solar FR 316,FR,solar,0.6647899999999999,6.196289,43.747289,PV,R
6157,Solar FR 317,FR,solar,31.027379999999987,-1.768799,48.114767,PV,R
4999,Solar FR 318,FR,solar,2.3805699999999996,7.05322299999999,47.798397,PV,R
4620,Solar FR 319,FR,solar,8.428260000000002,2.01049800000001,46.050361,PV,R
4871,Solar FR 320,FR,solar,7.467430000000002,2.823486,48.019324,PV,R
6932,Solar FR 321,FR,solar,17.191119999999998,-1.40715709378505,46.5986966080777,PV,R
7484,Solar FR 322,FR,solar,10.006630000000003,4.36157199999999,49.001844,PV,R
4971,Solar FR 323,FR,solar,22.85836,5.36132800000001,47.938427,PV,R
4551,Solar FR 324,FR,solar,8.578540000000002,-0.285644999999988,49.109838,PV,R
7713,Solar FR 325,FR,solar,27.716156999999985,-0.296630999999993,46.339343,PV,R
5085,Solar FR 326,FR,solar,6.122059999999999,4.47143600000001,49.138597,PV,R
5020,Solar FR 327,FR,solar,4.414471,7.84423800000001,48.835797,PV,R
4913,Solar FR 328,FR,solar,3.6297200000000016,3.94409200000001,49.353756,PV,R
7340,Solar FR 329,FR,solar,2.6120589999999995,4.064941,48.195387,PV,R
4556,Solar FR 330,FR,solar,56.64834000000001,0.703124999999998,46.830134,PV,R
4716,Solar FR 331,FR,solar,12.39676,5.33935499999999,43.452919,PV,R
6144,Solar FR 332,FR,solar,5.540689999999999,-1.84570299999999,47.301585,PV,R
4554,Solar FR 333,FR,solar,0.48239999999999994,-0.131836,49.138597,PV,R
4686,Solar FR 334,FR,solar,12.700229999999998,4.724121,45.359865,PV,R
4788,Solar FR 335,FR,solar,0.9572499999999999,5.94360399999999,46.24825,PV,R
7574,Solar FR 336,FR,solar,1.20393,1.856689,48.231991,PV,R
4982,Solar FR 337,FR,solar,20.32116,6.756592,47.52462,PV,R
4837,Solar FR 338,FR,solar,1.46036,0.626221000000005,49.539469,PV,R
7534,Solar FR 339,FR,solar,15.686840000000004,1.329346,43.636075,PV,R
2671,Solar FR 340,FR,solar,0.183126,8.23974600000001,48.763431,PV,R
4575,Solar FR 341,FR,solar,25.153789999999994,3.69140600000001,43.460894,PV,R
4640,Solar FR 342,FR,solar,91.93505899999998,4.33960000000001,43.834527,PV,R
6133,Solar FR 343,FR,solar,4.606420000000001,-4.09789999999999,48.458352,PV,R
4964,Solar FR 344,FR,solar,5.108250000000001,3.14209,50.618103,PV,R
4711,Solar FR 345,FR,solar,3.04117,5.58105500000001,43.34915,PV,R
6939,Solar FR 346,FR,solar,4.63973,4.32038022475984,47.8287695378832,PV,R
4827,Solar FR 347,FR,solar,2.9201699999999993,2.526855,48.545705,PV,R
5030,Solar FR 348,FR,solar,1.0429800000000002,2.76855499999999,49.767074,PV,R
6578,Solar FR 349,FR,solar,16.437139999999996,-1.71386699999999,47.916342,PV,R
4942,Solar FR 350,FR,solar,2.4696080000000005,2.823486,49.809632,PV,R
7793,Solar FR 351,FR,solar,12.339299999999998,6.83349599999999,48.951366,PV,R
4830,Solar FR 352,FR,solar,11.8658,0.911864999999989,49.009051,PV,R
4960,Solar FR 353,FR,solar,4.972109999999999,2.72460899999999,50.659908,PV,R
6143,Solar FR 354,FR,solar,5.363309999999998,-2.746582,48.502048,PV,R
4979,Solar FR 355,FR,solar,0.0,6.185303,49.037868,PV,R
6163,Solar FR 356,FR,solar,0.70636,-1.47216800000001,49.460984,PV,R
4881,Solar FR 357,FR,solar,0.3346,3.85620100000001,47.938427,PV,R
6076,Solar FR 358,FR,solar,1.2293499999999995,3.218994,50.34546,PV,R
7021,Solar FR 359,FR,solar,18.207440000000002,-2.53893224256282,47.7078723647013,PV,R
4904,Solar FR 360,FR,solar,2.4588799999999997,2.966309,49.674738,PV,R
4753,Solar FR 361,FR,solar,9.966220000000002,5.60302699999999,44.957024,PV,R
4656,Solar FR 362,FR,solar,14.696980000000005,5.28442399999999,43.747289,PV,R
4833,Solar FR 363,FR,solar,3.5817500000000004,1.098633,48.994636,PV,R
7549,Solar FR 364,FR,solar,5.330760000000001,6.96533199999999,48.756189,PV,R
4521,Solar FR 365,FR,solar,11.346050000000004,-0.472411999999992,48.719961,PV,R
4642,Solar FR 366,FR,solar,11.89839,3.87817399999999,43.564472,PV,R
6135,Solar FR 367,FR,solar,14.91177,-4.020996,48.019324,PV,R
5061,Solar FR 368,FR,solar,1.4298400000000002,2.60376,50.331436,PV,R
4631,Solar FR 369,FR,solar,108.99989000000011,2.614746,46.324172,PV,R
5954,Solar FR 370,FR,solar,3.95583,1.362305,43.53262,PV,R
4646,Solar FR 371,FR,solar,12.122810000000001,4.22973599999999,44.441624,PV,R
6074,Solar FR 372,FR,solar,4.278129999999999,5.53710900000001,43.301196,PV,R
4518,Solar FR 373,FR,solar,93.97411000000004,0.186768000000007,45.644768,PV,R
5953,Solar FR 374,FR,solar,3.8612000000000006,4.97680699999999,45.690833,PV,R
6148,Solar FR 375,FR,solar,11.29765,-2.19726599999999,47.338823,PV,R
4674,Solar FR 376,FR,solar,14.862880000000008,4.17480499999999,46.004593,PV,R
6948,Solar FR 377,FR,solar,36.634029999999996,2.73559585738224,44.4573099491017,PV,R
4973,Solar FR 378,FR,solar,2.3089700000000004,6.064453,48.480204,PV,R
4866,Solar FR 379,FR,solar,12.257610000000001,2.46093799999999,49.239121,PV,R
4492,Solar FR 380,FR,solar,21.72521,-0.439452999999998,44.762337,PV,R
5004,Solar FR 381,FR,solar,1.92357,7.23998999999999,48.056054,PV,R
5043,Solar FR 382,FR,solar,0.62894,0.472411999999992,49.539469,PV,R
4708,Solar FR 383,FR,solar,29.758409999999998,5.85571300000001,43.683764,PV,R
5040,Solar FR 384,FR,solar,13.585849999999999,-0.318604000000007,49.167339,PV,R
5913,Solar FR 385,FR,solar,19.262649999999972,-0.219727000000001,47.872144,PV,R
4736,Solar FR 386,FR,solar,19.694499999999998,6.77856400000001,43.683764,PV,R
4887,Solar FR 387,FR,solar,1.5813900000000003,3.91113299999999,48.283193,PV,R
5855,Solar FR 388,FR,solar,5.940572000000004,7.45971699999999,48.327039,PV,R
4723,Solar FR 389,FR,solar,6.84229,6.009521,43.189158,PV,R
4560,Solar FR 390,FR,solar,2.987089999999999,0.274658000000005,49.518076,PV,R
4763,Solar FR 391,FR,solar,12.133259999999996,5.85571300000001,45.58329,PV,R
6956,Solar FR 392,FR,solar,1.29863,2.60074249174346,48.949478725409,PV,R
7744,Solar FR 393,FR,solar,9.087649999999998,6.71264599999999,49.05227,PV,R
4992,Solar FR 394,FR,solar,1.3131899999999999,6.25122100000001,49.403825,PV,R
4635,Solar FR 395,FR,solar,17.381269999999997,3.186035,47.032695,PV,R
4591,Solar FR 396,FR,solar,32.4501,1.93359399999999,44.995883,PV,R
4363,Solar FR 397,FR,solar,0.1143,5.49316400000001,49.59647,PV,R
7402,Solar FR 398,FR,solar,0.34355,1.40443795264613,49.5439525858626,PV,R
4956,Solar FR 399,FR,solar,0.43304999999999993,3.95507800000001,50.021858,PV,R
4586,Solar FR 400,FR,solar,9.727808999999999,1.69189500000001,43.540585,PV,R
4809,Solar FR 401,FR,solar,31.699849999999973,1.40625,47.650588,PV,R
4853,Solar FR 402,FR,solar,2.86443,2.32910199999999,48.980217,PV,R
5047,Solar FR 403,FR,solar,22.852740000000004,3.07617199999999,50.240179,PV,R
6954,Solar FR 404,FR,solar,1.22846,3.59252900000001,48.538432,PV,R
4777,Solar FR 405,FR,solar,2.9034799999999996,6.39404299999999,45.675482,PV,R
4864,Solar FR 406,FR,solar,1.4634699999999996,2.27417000000001,49.246293,PV,R
4657,Solar FR 407,FR,solar,18.69547,5.130615,43.540585,PV,R
4805,Solar FR 408,FR,solar,1.62643,2.02148399999999,48.734455,PV,R
5058,Solar FR 409,FR,solar,0.8679499999999998,4.76806599999999,49.724479,PV,R
4845,Solar FR 410,FR,solar,0.23568,1.21948199999999,49.496675,PV,R
4482,Solar FR 411,FR,solar,40.99914000000002,0.0439449999999986,43.141078,PV,R
4784,Solar FR 412,FR,solar,4.54437,5.63598600000001,46.392411,PV,R
5013,Solar FR 413,FR,solar,4.400746000000002,7.66845700000001,48.385442,PV,R
4802,Solar FR 414,FR,solar,3.55926,4.954834,48.799627,PV,R
4721,Solar FR 415,FR,solar,17.174880000000005,5.91064499999999,43.858297,PV,R
4775,Solar FR 416,FR,solar,4.977566000000002,6.317139,45.521744,PV,R
4624,Solar FR 417,FR,solar,12.998780000000005,2.98828099999999,45.759859,PV,R
4673,Solar FR 418,FR,solar,12.759640000000005,4.18579099999999,45.197522,PV,R
6137,Solar FR 419,FR,solar,8.449130000000002,-4.27368199999999,48.392738,PV,R
4692,Solar FR 420,FR,solar,10.680880000000005,4.779053,45.675482,PV,R
4666,Solar FR 421,FR,solar,12.553809999999999,4.87793000000001,44.653024,PV,R
4609,Solar FR 422,FR,solar,15.080160000000001,3.087158,44.980342,PV,R
4685,Solar FR 423,FR,solar,4.39711,4.79003900000001,45.537137,PV,R
6356,Solar FR 424,FR,solar,0.28989,-1.82373,43.357138,PV,R
7015,Solar FR 425,FR,solar,25.33875999999999,1.40867363234957,46.2085970959993,PV,R
7369,Solar FR 426,FR,solar,1.33858,7.294922,47.982568,PV,R
5000,Solar FR 427,FR,solar,17.799068000000002,7.31689499999999,47.776252,PV,R
4873,Solar FR 428,FR,solar,5.662759999999999,3.65844699999999,47.857403,PV,R
4542,Solar FR 429,FR,solar,25.835169999999994,0.329590000000012,47.908978,PV,R
4911,Solar FR 430,FR,solar,6.591209999999999,4.22973599999999,49.224773,PV,R
5111,Solar FR 431,FR,solar,1.53729,2.46093799999999,50.176898,PV,R
4780,Solar FR 432,FR,solar,0.63962,6.78955099999999,45.621722,PV,R
4678,Solar FR 433,FR,solar,10.754739999999996,3.65844699999999,47.301585,PV,R
4667,Solar FR 434,FR,solar,29.606780000000004,4.87793000000001,44.887012,PV,R
4822,Solar FR 435,FR,solar,3.073209999999999,2.384033,48.698212,PV,R
5100,Solar FR 436,FR,solar,0.8768099999999999,3.76831100000001,50.148746,PV,R
4579,Solar FR 437,FR,solar,102.18397000000002,4.96582000000001,43.500752,PV,R
4509,Solar FR 438,FR,solar,139.00779999999992,0.252685999999995,44.488668,PV,R
5860,Solar FR 439,FR,solar,8.174819999999997,5.84472700000001,47.279229,PV,R
5115,Solar FR 440,FR,solar,2.5837099999999995,6.020508,46.172223,PV,R
5089,Solar FR 441,FR,solar,0.6680000000000001,3.72436500000001,49.15297,PV,R
5910,Solar FR 442,FR,solar,30.390340000000002,5.42724599999999,48.414619,PV,R
7824,Solar FR 443,FR,solar,16.67897,-2.93335000000001,48.465637,PV,R
5059,Solar FR 444,FR,solar,0.0492,4.504395,49.866317,PV,R
4832,Solar FR 445,FR,solar,6.160809999999999,1.625977,49.001844,PV,R
4494,Solar FR 446,FR,solar,317.31296,-0.812988000000009,43.977005,PV,R
7575,Solar FR 447,FR,solar,11.181894999999992,6.04247999999999,45.859412,PV,R
5114,Solar FR 448,FR,solar,1.53082,6.097412,46.240652,PV,R
7322,Solar FR 449,FR,solar,1.6563600000000003,5.72412577556339,45.5792855337976,PV,R
5503,Solar FR 450,FR,solar,0.64605,6.547852,46.800059,PV,R
6973,Solar FR 451,FR,solar,2.8071040000000007,7.30590800000001,48.268569,PV,R
4903,Solar FR 452,FR,solar,1.3820299999999999,3.35082999999999,49.346599,PV,R
4914,Solar FR 453,FR,solar,1.57268,4.87793000000001,49.759978,PV,R
4974,Solar FR 454,FR,solar,62.309889999999996,6.08642599999999,48.821333,PV,R
4769,Solar FR 455,FR,solar,0.048,6.591797,45.18978,PV,R
4677,Solar FR 456,FR,solar,51.73605000000002,4.13085900000001,46.573967,PV,R
6955,Solar FR 457,FR,solar,0.657,3.83500230645138,49.29028112698,PV,R
4834,Solar FR 458,FR,solar,7.0159199999999995,0.988770000000011,49.296472,PV,R
4937,Solar FR 459,FR,solar,0.89216,2.164307,50.923813,PV,R
5534,Solar FR 460,FR,solar,1.6196899999999999,7.19604499999999,47.361153,PV,R
4771,Solar FR 461,FR,solar,1.4511,6.47094700000001,45.18978,PV,R
4996,Solar FR 462,FR,solar,10.376539999999997,7.59155299999999,48.261256,PV,R
4581,Solar FR 463,FR,solar,18.094409999999996,5.27343800000001,43.53262,PV,R
4626,Solar FR 464,FR,solar,14.229600000000007,3.19702100000001,45.514046,PV,R
4808,Solar FR 465,FR,solar,5.373580000000002,1.74682600000001,47.680183,PV,R
4902,Solar FR 466,FR,solar,1.13737,2.823486,49.696062,PV,R
4627,Solar FR 467,FR,solar,18.51564000000001,3.25195299999999,45.721522,PV,R
7014,Solar FR 468,FR,solar,55.066020000000094,1.40625,46.437857,PV,R
4661,Solar FR 469,FR,solar,31.678059999999995,4.735107,44.370987,PV,R
4728,Solar FR 470,FR,solar,6.11406,6.020508,44.73893,PV,R
4697,Solar FR 471,FR,solar,5.14558,4.92187500000001,45.752193,PV,R
6002,Solar FR 472,FR,solar,4.541389999999999,5.63598600000001,45.321254,PV,R
7321,Solar FR 473,FR,solar,5.4395,4.36157237762019,45.4061636023228,PV,R
4917,Solar FR 474,FR,solar,0.189,1.373291,49.979488,PV,R
7375,Solar FR 475,FR,solar,1.80408,-1.40279958946155,49.3123868702144,PV,R
6154,Solar FR 476,FR,solar,37.58463000000002,-1.417236,46.596619,PV,R
3078,Solar FR 477,FR,solar,0.69423,5.976562,49.482401,PV,R
5064,Solar FR 478,FR,solar,4.810860000000002,2.72460899999999,44.746733,PV,R
6945,Solar FR 479,FR,solar,38.173549999999985,5.96557587683583,43.2211899102484,PV,R
5109,Solar FR 480,FR,solar,24.734,-0.0549320000000076,44.692088,PV,R
6987,Solar FR 481,FR,solar,14.075679999999997,-1.40644699726759,48.1588212452246,PV,R
4968,Solar FR 482,FR,solar,1.6575400000000002,6.273193,48.319734,PV,R
4676,Solar FR 483,FR,solar,7.4312700000000005,4.42749,45.437008,PV,R
4599,Solar FR 484,FR,solar,26.454042999999995,3.72436500000001,43.659924,PV,R
7866,Solar FR 485,FR,solar,1.15745,3.273926,50.57626,PV,R
6079,Solar FR 486,FR,solar,69.89986500000006,0.274658000000005,46.362093,PV,R
4694,Solar FR 487,FR,solar,3.38032,4.987793,45.629405,PV,R
4722,Solar FR 488,FR,solar,51.23047,6.097412,43.691708,PV,R
6159,Solar FR 489,FR,solar,27.128129999999995,-1.417236,47.687579,PV,R
4549,Solar FR 490,FR,solar,1.14553,-0.164794999999993,49.081062,PV,R
4950,Solar FR 491,FR,solar,2.3846700000000003,3.35082999999999,50.317408,PV,R
5097,Solar FR 492,FR,solar,1.25195,1.86767600000001,48.741701,PV,R
7437,Solar FR 493,FR,solar,42.65228999999999,-0.791015999999999,43.889975,PV,R
4553,Solar FR 494,FR,solar,0.8568299999999999,-0.164794999999993,49.217597,PV,R
5028,Solar FR 495,FR,solar,2.0277000000000003,7.10815399999999,48.114767,PV,R
7012,Solar FR 496,FR,solar,22.107559999999985,1.4079948038919,43.2697235907022,PV,R
4510,Solar FR 497,FR,solar,97.16278999999996,0.703124999999998,44.197959,PV,R
4782,Solar FR 498,FR,solar,2.6423530000000004,6.73461900000001,45.9053,PV,R
6072,Solar FR 499,FR,solar,0.5996900000000001,5.394287,43.229195,PV,R
4632,Solar FR 500,FR,solar,54.53186999999998,3.39477499999999,46.536193,PV,R
4933,Solar FR 501,FR,solar,0.9919099999999998,2.219238,50.687758,PV,R
4519,Solar FR 502,FR,solar,93.98989000000007,0.988770000000011,45.912944,PV,R
4520,Solar FR 503,FR,solar,28.68182,-1.29638700000001,46.777493,PV,R
4683,Solar FR 504,FR,solar,8.249069999999998,4.71313499999999,45.966425,PV,R
7449,Solar FR 505,FR,solar,2.67457,6.448975,48.268569,PV,R
7339,Solar FR 506,FR,solar,0.18252000000000002,4.59778942629073,46.6662097888388,PV,R
4857,Solar FR 507,FR,solar,8.274222,2.14233400000001,49.382373,PV,R
4595,Solar FR 508,FR,solar,63.7811300000001,2.208252,44.964798,PV,R
4787,Solar FR 509,FR,solar,6.63355,5.54809599999999,46.118942,PV,R
4525,Solar FR 510,FR,solar,51.27382000000003,-1.065674,46.149394,PV,R
6139,Solar FR 511,FR,solar,2.5349899999999996,-3.82324200000001,47.864774,PV,R
5107,Solar FR 512,FR,solar,4.15085,1.96655299999999,50.310392,PV,R
4872,Solar FR 513,FR,solar,14.65303,3.52661099999999,47.783635,PV,R
4874,Solar FR 514,FR,solar,0.79956,3.087158,48.363549,PV,R
6957,Solar FR 515,FR,solar,0.8334499999999999,6.11987483545589,43.7571961745006,PV,R
4633,Solar FR 516,FR,solar,7.011689999999996,3.28491200000001,46.24825,PV,R
4593,Solar FR 517,FR,solar,32.47953999999998,2.14233400000001,44.613934,PV,R
5067,Solar FR 518,FR,solar,12.826180000000011,4.943848,44.785734,PV,R
4675,Solar FR 519,FR,solar,3.71531,4.416504,45.359865,PV,R
4382,Solar FR 520,FR,solar,0.0754,4.372559,50.261254,PV,R
6140,Solar FR 521,FR,solar,11.431549999999996,-3.273926,47.813155,PV,R
4790,Solar FR 522,FR,solar,22.60358,5.00976600000001,47.271775,PV,R
4899,Solar FR 523,FR,solar,1.3505580000000001,2.88940400000001,49.439557,PV,R
6953,Solar FR 524,FR,solar,11.28042,-1.40645664873197,43.3812839523185,PV,R
5864,Solar FR 525,FR,solar,2.7471199999999993,7.734375,48.893615,PV,R
5003,Solar FR 526,FR,solar,5.493179999999999,7.44873000000001,47.791016,PV,R
4879,Solar FR 527,FR,solar,7.24524,3.55957000000001,48.502048,PV,R
4767,Solar FR 528,FR,solar,2.88652,5.701904,45.912944,PV,R
6936,Solar FR 529,FR,solar,16.478199999999998,1.58203099999999,43.413029,PV,R
4544,Solar FR 530,FR,solar,15.92671,0.296630999999993,48.056054,PV,R
7494,Solar FR 531,FR,solar,0.23704000000000003,0.977783000000002,49.353756,PV,R
4715,Solar FR 532,FR,solar,37.81299999999998,5.526123,43.500752,PV,R
4941,Solar FR 533,FR,solar,1.5399600000000002,2.68066399999999,50.162824,PV,R
7332,Solar FR 534,FR,solar,3.4874600000000013,6.41440348793292,48.7476341571702,PV,R
6136,Solar FR 535,FR,solar,11.474690000000008,-4.44946299999999,48.443778,PV,R
7567,Solar FR 536,FR,solar,16.93442,-0.538330000000004,46.255847,PV,R
4638,Solar FR 537,FR,solar,20.841419999999992,4.822998,45.081279,PV,R
4622,Solar FR 538,FR,solar,13.70532000000001,3.493652,46.157005,PV,R
5073,Solar FR 539,FR,solar,50.49300999999999,6.51489300000001,43.460894,PV,R
7707,Solar FR 540,FR,solar,9.186610000000002,0.582275000000003,46.626806,PV,R
4555,Solar FR 541,FR,solar,8.304030000000003,0.527343999999999,48.092757,PV,R
4608,Solar FR 542,FR,solar,25.94359999999997,3.03222699999999,45.151053,PV,R
7636,Solar FR 543,FR,solar,0.0667,4.812012,50.028917,PV,R
4867,Solar FR 544,FR,solar,5.9849000000000006,4.515381,48.705463,PV,R
6130,Solar FR 545,FR,solar,4.08412,-1.724854,49.518076,PV,R
7357,Solar FR 546,FR,solar,22.416039999999995,-1.40218305725865,46.929084559811,PV,R
4592,Solar FR 547,FR,solar,43.343560000000004,1.461182,44.925918,PV,R
7341,Solar FR 548,FR,solar,1.0825399999999998,-0.107445204004644,49.0994036272401,PV,R
4481,Solar FR 549,FR,solar,0.28,-0.0549320000000076,42.827639,PV,R
4730,Solar FR 550,FR,solar,47.30278999999999,5.95458999999999,44.245199,PV,R
4943,Solar FR 551,FR,solar,3.523,3.39477499999999,49.880478,PV,R
4815,Solar FR 552,FR,solar,55.85383999999999,1.47216800000001,48.647428,PV,R
4503,Solar FR 553,FR,solar,108.09451,-0.494385000000006,44.957024,PV,R
4530,Solar FR 554,FR,solar,43.040757999999975,-0.109863000000011,46.845164,PV,R
4706,Solar FR 555,FR,solar,24.06389,4.66918899999999,47.323931,PV,R
5960,Solar FR 556,FR,solar,22.149679999999993,-0.977783000000002,47.967859,PV,R
5065,Solar FR 557,FR,solar,8.2377,2.823486,44.762337,PV,R
4621,Solar FR 558,FR,solar,64.95900000000002,1.73584000000001,47.129951,PV,R
4835,Solar FR 559,FR,solar,2.2435799999999997,0.867919999999991,49.317961,PV,R
7477,Solar FR 560,FR,solar,20.343670000000003,-0.90087900000001,47.15984,PV,R
4900,Solar FR 561,FR,solar,8.574064000000003,2.72460899999999,49.37522,PV,R
4946,Solar FR 562,FR,solar,1.7675800000000004,2.823486,50.324423,PV,R
4573,Solar FR 563,FR,solar,34.963010000000004,2.658691,43.277205,PV,R
4651,Solar FR 564,FR,solar,19.797980000000003,4.70214800000001,43.810747,PV,R
4810,Solar FR 565,FR,solar,23.042289999999998,1.04370099999999,47.61357,PV,R
6158,Solar FR 566,FR,solar,13.932099999999997,-2.05444300000001,48.596592,PV,R
4793,Solar FR 567,FR,solar,4.205089999999999,5.51513699999999,47.122476,PV,R
6132,Solar FR 568,FR,solar,11.675699999999997,-3.35082999999999,48.734455,PV,R
4472,Solar FR 569,FR,solar,11.873300000000004,4.812012,43.842451,PV,R
5050,Solar FR 570,FR,solar,10.90412,3.86718799999999,50.303376,PV,R
4816,Solar FR 571,FR,solar,8.05717,2.01049800000001,48.056054,PV,R
4895,Solar FR 572,FR,solar,16.88418,2.702637,48.879167,PV,R
4849,Solar FR 573,FR,solar,3.7866299999999993,2.15331999999999,48.763431,PV,R
4860,Solar FR 574,FR,solar,1.12124,1.955566,49.28214,PV,R
5106,Solar FR 575,FR,solar,5.2322500000000005,7.50366199999999,47.894248,PV,R
4779,Solar FR 576,FR,solar,0.76631,6.459961,45.752193,PV,R
6552,Solar FR 577,FR,solar,15.954389999999998,-3.273926,47.931066,PV,R
4744,Solar FR 578,FR,solar,6.5897999999999985,7.163086,43.794889,PV,R
7349,Solar FR 579,FR,solar,10.883259999999998,4.87728918327167,43.786285099721,PV,R
5053,Solar FR 580,FR,solar,0.8581099999999999,3.72436500000001,48.085419,PV,R
4761,Solar FR 581,FR,solar,31.92755999999999,5.306396,45.844108,PV,R
4843,Solar FR 582,FR,solar,1.46943,1.098633,49.518076,PV,R
5016,Solar FR 583,FR,solar,0.893539,7.75634799999999,48.640169,PV,R
5102,Solar FR 584,FR,solar,19.395699999999987,2.746582,44.142798,PV,R
4601,Solar FR 585,FR,solar,7.314868,3.76831100000001,43.969098,PV,R
6946,Solar FR 586,FR,solar,1.85112,6.50644174520929,48.2111585376258,PV,R
4893,Solar FR 587,FR,solar,2.1882099999999998,2.702637,48.756189,PV,R
4934,Solar FR 588,FR,solar,17.13156,2.340088,50.750359,PV,R
7320,Solar FR 589,FR,solar,21.167479999999998,-1.40588485273162,46.6038982098921,PV,R
4696,Solar FR 590,FR,solar,10.638950000000001,4.943848,45.47554,PV,R
4493,Solar FR 591,FR,solar,136.55019,-0.845947000000002,44.582643,PV,R
4740,Solar FR 592,FR,solar,11.436209999999999,7.13012700000001,43.667872,PV,R
5083,Solar FR 593,FR,solar,6.047730000000003,5.174561,48.980217,PV,R
4616,Solar FR 594,FR,solar,13.693440000000004,2.50488299999999,45.452424,PV,R
4650,Solar FR 595,FR,solar,12.581289999999996,4.74609400000001,43.874138,PV,R
4932,Solar FR 596,FR,solar,0.33528,2.076416,50.778155,PV,R
5023,Solar FR 597,FR,solar,5.9469199999999995,2.966309,47.517201,PV,R
6949,Solar FR 598,FR,solar,42.037139999999965,2.08601282991016,46.0954100275021,PV,R
4774,Solar FR 599,FR,solar,0.8487399999999999,6.547852,45.514046,PV,R
4750,Solar FR 600,FR,solar,2.51825,5.66894500000001,45.182037,PV,R
2673,Solar FR 601,FR,solar,0.651776,8.32763700000001,49.009051,PV,R
4735,Solar FR 602,FR,solar,21.353590000000008,6.240234,44.449468,PV,R
7034,Solar FR 603,FR,solar,9.758450000000002,-1.56005873286766,47.2046419092573,PV,R
4511,Solar FR 604,FR,solar,39.56974000000002,0.944824000000009,44.016521,PV,R
4829,Solar FR 605,FR,solar,0.93581,1.724854,48.741701,PV,R
4814,Solar FR 606,FR,solar,10.474330000000004,1.625977,48.188063,PV,R
7808,Solar FR 607,FR,solar,0.7432799999999999,1.593018,48.748945,PV,R
4470,Solar FR 608,FR,solar,124.98549,-0.549316000000009,44.559163,PV,R
4856,Solar FR 609,FR,solar,6.453869999999998,2.40600600000001,48.908059,PV,R
4514,Solar FR 610,FR,solar,51.932829999999996,1.35131799999999,43.739352,PV,R
4921,Solar FR 611,FR,solar,1.9802800000000003,1.856689,49.781264,PV,R
4755,Solar FR 612,FR,solar,0.47678,6.009521,44.964798,PV,R
4660,Solar FR 613,FR,solar,35.384049999999995,4.79003900000001,44.582643,PV,R
4604,Solar FR 614,FR,solar,52.63777000000005,2.614746,44.41024,PV,R
4467,Solar FR 615,FR,solar,18.803440000000005,2.746582,44.0718,PV,R
5618,Solar FR 616,FR,solar,0.29435,6.503906,46.521076,PV,R
4536,Solar FR 617,FR,solar,18.610180000000003,-0.76904300000001,48.070738,PV,R
4792,Solar FR 618,FR,solar,8.560070000000001,5.438232,47.047669,PV,R
5538,Solar FR 619,FR,solar,2.8078570000000007,7.58056600000001,47.480088,PV,R
4741,Solar FR 620,FR,solar,0.37585,7.05322299999999,43.786958,PV,R
4789,Solar FR 621,FR,solar,30.64891999999999,5.06469699999999,47.390912,PV,R
6934,Solar FR 622,FR,solar,1.8074000000000001,2.78064704935781,50.4754798613106,PV,R
6060,Solar FR 623,FR,solar,34.02837,0.0439449999999986,45.73686,PV,R
7578,Solar FR 624,FR,solar,2.1992200000000004,5.37231400000001,46.286224,PV,R
6162,Solar FR 625,FR,solar,1.7930899999999999,-1.494141,49.582226,PV,R
6062,Solar FR 626,FR,solar,1.56922,1.97753899999999,48.922499,PV,R
4655,Solar FR 627,FR,solar,27.584610000000005,4.735107,44.095476,PV,R
4613,Solar FR 628,FR,solar,86.48117000000005,1.48315400000001,45.236218,PV,R
4935,Solar FR 629,FR,solar,0.3739799999999999,2.15331999999999,50.993014,PV,R
4966,Solar FR 630,FR,solar,20.967781999999996,6.84448199999999,49.131408,PV,R
4967,Solar FR 631,FR,solar,14.34949,5.98754899999999,49.196064,PV,R
4908,Solar FR 632,FR,solar,2.9453899999999993,3.81225600000001,49.05227,PV,R
4766,Solar FR 633,FR,solar,8.54623,5.701904,45.675482,PV,R
4701,Solar FR 634,FR,solar,9.104310000000002,4.63622999999999,46.573967,PV,R
5087,Solar FR 635,FR,solar,9.200676000000001,3.98803700000001,43.691708,PV,R
5006,Solar FR 636,FR,solar,3.742400000000001,6.95434600000001,48.173412,PV,R
5042,Solar FR 637,FR,solar,1.52963,0.373535000000011,49.475263,PV,R
5009,Solar FR 638,FR,solar,3.169844,7.470703,48.582058,PV,R
4825,Solar FR 639,FR,solar,6.96949,2.27417000000001,48.632909,PV,R
7370,Solar FR 640,FR,solar,15.90193,5.76753336479526,43.6782186593191,PV,R
4490,Solar FR 641,FR,solar,24.88329,1.29638700000001,43.55651,PV,R
4639,Solar FR 642,FR,solar,30.30444999999999,4.36157199999999,44.535675,PV,R
4500,Solar FR 643,FR,solar,116.65760999999999,-0.76904300000001,45.166547,PV,R
7016,Solar FR 644,FR,solar,35.21523999999999,1.40744507166958,43.7171101022577,PV,R
7709,Solar FR 645,FR,solar,0.592,1.80175799999999,48.261256,PV,R
4596,Solar FR 646,FR,solar,43.386660000000006,2.94433599999999,43.588349,PV,R
7326,Solar FR 647,FR,solar,0.5554899999999999,6.40378625023313,45.6730505950152,PV,R
4948,Solar FR 648,FR,solar,2.6011200000000008,2.69165,50.485474,PV,R
4794,Solar FR 649,FR,solar,9.68294,6.317139,46.126556,PV,R
6937,Solar FR 650,FR,solar,0.58375,1.97753899999999,50.812877,PV,R
4501,Solar FR 651,FR,solar,1.7046899999999998,-0.340575999999992,45.02695,PV,R
5084,Solar FR 652,FR,solar,2.4629100000000004,4.87793000000001,45.805829,PV,R
4670,Solar FR 653,FR,solar,6.5154000000000005,4.63622999999999,45.521744,PV,R
4719,Solar FR 654,FR,solar,1.6864200000000003,5.73486299999999,43.723475,PV,R
7865,Solar FR 655,FR,solar,1.17785,6.756592,47.583937,PV,R
5018,Solar FR 656,FR,solar,20.852710000000005,7.03125,49.05947,PV,R
4505,Solar FR 657,FR,solar,4.85225,-0.472411999999992,44.840291,PV,R
4469,Solar FR 658,FR,solar,4.005109999999999,2.471924,51.020666,PV,R
4732,Solar FR 659,FR,solar,1.6684,6.08642599999999,44.158563,PV,R
4569,Solar FR 660,FR,solar,5.756205000000001,1.77978500000001,42.690511,PV,R
6164,Solar FR 661,FR,solar,19.11275999999999,-2.30712900000001,47.916342,PV,R
6146,Solar FR 662,FR,solar,16.813260000000007,-2.63671899999999,47.643186,PV,R
6551,Solar FR 663,FR,solar,1.92965,-1.65893599999999,43.381098,PV,R
6951,Solar FR 664,FR,solar,1.04409,3.56979699528977,47.9598457410931,PV,R
4647,Solar FR 665,FR,solar,6.46955,4.20776400000001,44.676466,PV,R
6066,Solar FR 666,FR,solar,122.99710999999988,2.88940400000001,42.690511,PV,R
4625,Solar FR 667,FR,solar,6.848680000000002,3.22998,45.598666,PV,R
6156,Solar FR 668,FR,solar,5.03378,-1.51611300000001,47.26432,PV,R
5857,Solar FR 669,FR,solar,41.13158999999996,3.42773400000001,46.346928,PV,R
4485,Solar FR 670,FR,solar,50.91507000000002,0.571288999999998,43.125043,PV,R
5024,Solar FR 671,FR,solar,0.10779999999999999,6.83349599999999,46.065608,PV,R
5861,Solar FR 672,FR,solar,0.7315999999999999,6.70165999999999,49.296472,PV,R
4477,Solar FR 673,FR,solar,2.84977,-0.406494000000004,42.940339,PV,R
4909,Solar FR 674,FR,solar,15.330400000000001,4.251709,48.987427,PV,R
7403,Solar FR 675,FR,solar,0.16634,1.40522192445109,50.0012999491174,PV,R
4800,Solar FR 676,FR,solar,5.195890000000004,6.591797,47.383474,PV,R
6147,Solar FR 677,FR,solar,7.361789999999998,-2.28515599999999,47.309034,PV,R
6065,Solar FR 678,FR,solar,14.787560000000001,-0.241699000000011,45.135555,PV,R
7330,Solar FR 679,FR,solar,1.2771500000000002,-0.286954540553711,44.9642377558146,PV,R
7399,Solar FR 680,FR,solar,3.547690000000001,-3.77929700000001,47.916342,PV,R
4785,Solar FR 681,FR,solar,3.86153,5.41625999999999,46.217852,PV,R
5069,Solar FR 682,FR,solar,3.057664,5.789795,46.065608,PV,R
4831,Solar FR 683,FR,solar,9.054580000000005,0.681152000000009,48.734455,PV,R
4820,Solar FR 684,FR,solar,10.651190000000001,2.62573200000001,47.768868,PV,R
5034,Solar FR 685,FR,solar,2.179356,6.38305700000001,45.874712,PV,R
4489,Solar FR 686,FR,solar,53.231059999999985,1.29638700000001,43.468868,PV,R
5512,Solar FR 687,FR,solar,0.05348,6.932373,46.513516,PV,R
4561,Solar FR 688,FR,solar,4.334149999999999,0.483397999999997,48.312428,PV,R
6167,Solar FR 689,FR,solar,2.7606300000000004,-1.461182,43.34915,PV,R
4559,Solar FR 690,FR,solar,18.875349999999997,0.76904300000001,47.539455,PV,R
4516,Solar FR 691,FR,solar,134.79721000000004,1.373291,43.905808,PV,R
4993,Solar FR 692,FR,solar,1.9138250000000008,6.097412,49.267805,PV,R
4949,Solar FR 693,FR,solar,23.977930000000004,3.14209,50.380502,PV,R
4760,Solar FR 694,FR,solar,2.762550000000001,5.438232,45.73686,PV,R
7328,Solar FR 695,FR,solar,0.1656,6.191894654608,48.9600236529823,PV,R
5017,Solar FR 696,FR,solar,1.57557,7.822266,48.676454,PV,R
4813,Solar FR 697,FR,solar,10.202644000000001,1.58203099999999,48.385442,PV,R
4846,Solar FR 698,FR,solar,20.011139999999997,1.75781199999999,48.965794,PV,R
6958,Solar FR 699,FR,solar,4.40582,0.556197932605753,48.2910128424303,PV,R
6007,Solar FR 700,FR,solar,6.25476,1.77978500000001,48.334343,PV,R
5066,Solar FR 701,FR,solar,26.346189999999993,3.92211899999999,45.104546,PV,R
4684,Solar FR 702,FR,solar,29.69184,4.866943,45.298075,PV,R
4645,Solar FR 703,FR,solar,7.410549999999998,4.020996,44.504341,PV,R
4607,Solar FR 704,FR,solar,22.272109999999994,3.29589800000001,44.824708,PV,R
7342,Solar FR 705,FR,solar,1.0729499999999998,-1.40456002265463,47.2253074853447,PV,R
4385,Solar FR 706,FR,solar,0.19183,5.614014,49.560852,PV,R
4773,Solar FR 707,FR,solar,0.08255,6.69067400000001,45.251688,PV,R
7459,Solar FR 708,FR,solar,4.34067,6.547852,49.102645,PV,R
4797,Solar FR 709,FR,solar,8.798189999999998,6.405029,46.301406,PV,R
4552,Solar FR 710,FR,solar,15.23572,0.164794999999993,48.334343,PV,R
7741,Solar FR 711,FR,solar,61.31423000000004,-0.626221000000005,45.95115,PV,R
4733,Solar FR 712,FR,solar,30.276830000000004,6.08642599999999,44.0718,PV,R
4671,Solar FR 713,FR,solar,28.56881999999998,3.98803700000001,46.004593,PV,R
4745,Solar FR 714,FR,solar,1.15523,7.56958000000001,43.834527,PV,R
7380,Solar FR 715,FR,solar,0.09,4.55338798726329,46.5984550432742,PV,R
6166,Solar FR 716,FR,solar,7.4984199999999985,-1.64794900000001,48.063397,PV,R
5958,Solar FR 717,FR,solar,68.84604000000002,5.81176799999999,43.739352,PV,R
4614,Solar FR 718,FR,solar,7.618549999999999,2.19726599999999,45.267155,PV,R
6938,Solar FR 719,FR,solar,22.62889999999999,-1.4063738043641,47.4365741379546,PV,R
6006,Solar FR 720,FR,solar,1.8762199999999998,2.06542999999999,47.724545,PV,R
6155,Solar FR 721,FR,solar,17.34484,-1.61498999999999,47.129951,PV,R
4565,Solar FR 722,FR,solar,25.423650000000002,5.16357399999999,43.644026,PV,R
4841,Solar FR 723,FR,solar,0.92187,1.31835899999999,49.353756,PV,R
6008,Solar FR 724,FR,solar,0.17213,6.064453,49.482401,PV,R
4725,Solar FR 725,FR,solar,96.90428999999997,6.07543900000001,43.317185,PV,R
6071,Solar FR 726,FR,solar,1.18659,6.097412,48.363549,PV,R
4590,Solar FR 727,FR,solar,39.55965,2.31811500000001,43.524655,PV,R
4693,Solar FR 728,FR,solar,17.38396,4.79003900000001,45.882361,PV,R
5015,Solar FR 729,FR,solar,1.552217,7.75634799999999,48.552978,PV,R
7483,Solar FR 730,FR,solar,0.09913999999999999,6.987305,46.286224,PV,R
4994,Solar FR 731,FR,solar,1.9137699999999997,6.20727500000001,49.360912,PV,R
5104,Solar FR 732,FR,solar,0.67723,3.74633799999999,50.268277,PV,R
4664,Solar FR 733,FR,solar,17.502569999999995,4.79003900000001,44.472991,PV,R
7374,Solar FR 734,FR,solar,0.66964,-1.40503494828143,49.3756247589563,PV,R
5076,Solar FR 735,FR,solar,8.47849,6.69067400000001,43.612217,PV,R
4567,Solar FR 736,FR,solar,13.865880000000002,1.768799,42.609706,PV,R
4884,Solar FR 737,FR,solar,6.60868,4.57031200000001,47.864774,PV,R
5956,Solar FR 738,FR,solar,2.5920199999999998,6.141357,46.890232,PV,R
4691,Solar FR 739,FR,solar,5.03983,4.79003900000001,45.73686,PV,R
4897,Solar FR 740,FR,solar,19.12553,2.966309,48.936935,PV,R
4739,Solar FR 741,FR,solar,7.716180000000001,7.075195,43.636075,PV,R
4919,Solar FR 742,FR,solar,1.49932,1.109619,49.710273,PV,R
4734,Solar FR 743,FR,solar,31.835980000000003,6.108398,44.551335,PV,R
4540,Solar FR 744,FR,solar,46.19149999999999,-1.021729,49.131408,PV,R
4564,Solar FR 745,FR,solar,17.388540000000003,5.130615,45.644768,PV,R
4931,Solar FR 746,FR,solar,1.4085400000000001,2.219238,50.826758,PV,R
6959,Solar FR 747,FR,solar,0.5228,2.59277299999999,48.451066,PV,R
5063,Solar FR 748,FR,solar,17.5342,3.54858400000001,43.365126,PV,R
6067,Solar FR 749,FR,solar,125.13182000000133,2.878418,42.625876,PV,R
2642,Solar FR 750,FR,solar,0.44608000000000003,6.624756,49.432413,PV,R
7356,Solar FR 751,FR,solar,56.120450000000005,4.559326,43.826601,PV,R
4798,Solar FR 752,FR,solar,4.818274999999999,6.30615199999999,46.912751,PV,R
4612,Solar FR 753,FR,solar,26.270559999999985,2.30712900000001,45.897655,PV,R
4929,Solar FR 754,FR,solar,0.52596,1.83471699999999,50.903033,PV,R
7348,Solar FR 755,FR,solar,0.5781999999999999,5.1859255724842,48.3627715612059,PV,R
4704,Solar FR 756,FR,solar,12.337780000000006,4.76806599999999,46.581518,PV,R
4997,Solar FR 757,FR,solar,8.986270000000001,7.19604499999999,47.923705,PV,R
6931,Solar FR 758,FR,solar,15.08817,-0.220223990096185,44.9482641324372,PV,R
7363,Solar FR 759,FR,solar,0.31658,6.16150295950575,48.3988947819673,PV,R
7821,Solar FR 760,FR,solar,25.82776399999999,5.46020499999999,45.313529,PV,R
4598,Solar FR 761,FR,solar,28.426507000000004,3.449707,43.651975,PV,R
4497,Solar FR 762,FR,solar,8.350110000000003,-0.604247999999991,44.73893,PV,R
7364,Solar FR 763,FR,solar,2.7420500000000008,5.05371100000001,48.334343,PV,R
5014,Solar FR 764,FR,solar,7.603261000000001,7.65747100000001,48.654686,PV,R
5041,Solar FR 765,FR,solar,3.2331000000000003,0.0329589999999936,48.777913,PV,R
5011,Solar FR 766,FR,solar,0.8949660000000002,7.66845700000001,48.589326,PV,R
5054,Solar FR 767,FR,solar,1.8848200000000004,3.19702100000001,47.554287,PV,R
4759,Solar FR 768,FR,solar,6.709200000000001,5.306396,45.775186,PV,R
5012,Solar FR 769,FR,solar,2.741567,7.63549799999999,48.502048,PV,R
4920,Solar FR 770,FR,solar,3.299890000000001,1.75781199999999,50.485474,PV,R
4724,Solar FR 771,FR,solar,13.141139999999996,6.097412,43.141078,PV,R
4496,Solar FR 772,FR,solar,205.71954599999995,-0.428466999999993,43.818675,PV,R
4506,Solar FR 773,FR,solar,22.967250000000007,-0.51635699999999,45.213004,PV,R
2662,Wind DE 1,DE,wind,53.75999999999999,6.943359,49.389524,WD,R
2821,Wind DE 2,DE,wind,18.1,11.184082,48.078079,WD,R
2673,Wind DE 3,DE,wind,37.800000000000004,8.32763700000001,49.009051,WD,R
2678,Wind DE 4,DE,wind,74.35,8.393555,49.901711,WD,R
2632,Wind DE 5,DE,wind,59.05,10.184326,52.247983,WD,R
2693,Wind DE 6,DE,wind,13.3,6.624756,51.11042,WD,R
6022,Wind DE 7,DE,wind,50.74999999999997,12.392578,53.271783,WD,R
5013,Wind DE 8,DE,wind,11.25,7.66845700000001,48.385442,WD,R
2903,Wind DE 9,DE,wind,159.17500000000004,11.030273,49.993615,WD,R
2438,Wind DE 10,DE,wind,13.549999999999999,9.92065400000001,54.927142,WD,R
2915,Wind DE 11,DE,wind,17.5,9.953613,53.813626,WD,R
2876,Wind DE 12,DE,wind,60.54999999999998,8.69018599999999,51.706608,WD,R
3042,Wind DE 13,DE,wind,9.5,12.744141,48.799627,WD,R
2780,Wind DE 14,DE,wind,24.0,8.569336,48.777913,WD,R
2665,Wind DE 15,DE,wind,187.39000000000013,7.00927699999999,50.092393,WD,R
2719,Wind DE 16,DE,wind,3.0,7.020264,51.495065,WD,R
7843,Wind DE 17,DE,wind,53.55999999999999,9.503174,49.781264,WD,R
7660,Wind DE 18,DE,wind,33.330000000000005,10.755615,48.019324,WD,R
2700,Wind DE 19,DE,wind,63.72999999999999,6.61376999999999,51.631657,WD,R
2757,Wind DE 20,DE,wind,413.78000000000065,7.26196300000001,53.376775,WD,R
2749,Wind DE 21,DE,wind,4.68,7.50366199999999,51.495065,WD,R
2781,Wind DE 22,DE,wind,3.45,8.481445,49.28214,WD,R
2398,Wind DE 23,DE,wind,2.8,13.688965,50.562304,WD,R
7652,Wind DE 24,DE,wind,9.6,9.03076200000001,53.087426,WD,R
7451,Wind DE 25,DE,wind,37.6,6.624756,49.546598,WD,R
2956,Wind DE 26,DE,wind,8.8,12.337646,50.597186,WD,R
2934,Wind DE 27,DE,wind,116.70999999999998,10.437012,53.265213,WD,R
2643,Wind DE 28,DE,wind,38.035,6.74560499999999,49.460984,WD,R
2666,Wind DE 29,DE,wind,76.45999999999998,7.382812,50.373496,WD,R
2880,Wind DE 30,DE,wind,63.55,8.87695299999999,52.988337,WD,R
2637,Wind DE 31,DE,wind,41.5,12.930908,52.462704,WD,R
2811,Wind DE 32,DE,wind,400.64000000000067,10.096436,48.79239,WD,R
2973,Wind DE 33,DE,wind,185.02499999999986,13.447266,51.296276,WD,R
2722,Wind DE 34,DE,wind,4.0,6.82251000000001,51.330612,WD,R
2658,Wind DE 35,DE,wind,49.75000000000001,7.877197,48.502048,WD,R
7576,Wind DE 36,DE,wind,15.900000000000002,8.54736300000001,51.896834,WD,R
2649,Wind DE 37,DE,wind,268.9600000000001,6.56982399999999,50.401515,WD,R
2859,Wind DE 38,DE,wind,67.48999999999998,9.26147499999999,51.027576,WD,R
2884,Wind DE 39,DE,wind,1534.4029999999925,9.239502,53.904338,WD,R
6021,Wind DE 40,DE,wind,5.0,13.216553,53.572938,WD,R
2430,Wind DE 41,DE,wind,214.39199999999997,8.86596699999999,55.072078,WD,R
5826,Wind DE 42,DE,wind,41.849999999999994,11.502686,54.565693,WD,R
7615,Wind DE 43,DE,wind,77.60000000000001,12.128906,53.572938,WD,R
2762,Wind DE 44,DE,wind,91.09000000000002,7.70141600000001,52.247983,WD,R
7725,Wind DE 45,DE,wind,53.80499999999998,8.06396500000001,50.812877,WD,R
2702,Wind DE 46,DE,wind,11.05,7.83325200000001,51.713416,WD,R
2989,Wind DE 47,DE,wind,28.700000000000006,14.611816,52.126744,WD,R
2886,Wind DE 48,DE,wind,185.77500000000012,9.239502,53.041213,WD,R
7769,Wind DE 49,DE,wind,144.358,12.062988,50.868378,WD,R
7721,Wind DE 50,DE,wind,57.09999999999999,7.94311499999999,51.801822,WD,R
7748,Wind DE 51,DE,wind,35.08,7.17407200000001,49.396675,WD,R
5936,Wind DE 52,DE,wind,47.44999999999999,7.163086,52.84923,WD,R
5821,Wind DE 53,DE,wind,0.3,12.875977,54.718275,WD,R
2874,Wind DE 54,DE,wind,27.200000000000003,8.95385700000001,51.98488,WD,R
2964,Wind DE 55,DE,wind,17.95,12.689209,51.310013,WD,R
7703,Wind DE 56,DE,wind,141.4500000000001,6.229248,50.979182,WD,R
2812,Wind DE 57,DE,wind,72.7,10.206299,48.625647,WD,R
2635,Wind DE 58,DE,wind,14.7,12.480469,51.316881,WD,R
2746,Wind DE 59,DE,wind,25.85,7.69043,51.351201,WD,R
2838,Wind DE 60,DE,wind,16.1,8.81103500000001,50.141706,WD,R
2830,Wind DE 61,DE,wind,0.8,11.843262,48.871941,WD,R
2864,Wind DE 62,DE,wind,92.495,9.547119,51.310013,WD,R
2670,Wind DE 63,DE,wind,50.93,8.41552700000001,49.203243,WD,R
7611,Wind DE 64,DE,wind,194.39999999999986,7.965088,52.456009,WD,R
7649,Wind DE 65,DE,wind,2.4000000000000004,7.54760699999999,51.034486,WD,R
5380,Wind DE 66,DE,wind,93.90499999999997,6.70165999999999,52.200874,WD,R
2743,Wind DE 67,DE,wind,49.57499999999999,8.25073199999999,50.930738,WD,R
2988,Wind DE 68,DE,wind,41.15,14.80957,51.144894,WD,R
2858,Wind DE 69,DE,wind,120.33,9.36035199999999,49.603591,WD,R
2893,Wind DE 70,DE,wind,36.9,10.788574,49.958288,WD,R
2689,Wind DE 71,DE,wind,29.610000000000003,6.37207,51.220647,WD,R
5378,Wind DE 72,DE,wind,0.055,6.20727500000001,52.509535,WD,R
2849,Wind DE 73,DE,wind,129.30000000000007,8.45947300000001,50.792047,WD,R
2944,Wind DE 74,DE,wind,273.4150000000003,11.777344,50.268277,WD,R
2981,Wind DE 75,DE,wind,34.18000000000001,13.414307,52.596375,WD,R
2954,Wind DE 76,DE,wind,14.600000000000001,12.799072,50.847573,WD,R
2855,Wind DE 77,DE,wind,13.2,8.97583,50.092393,WD,R
2937,Wind DE 78,DE,wind,165.65000000000006,10.887451,53.949621,WD,R
3032,Wind DE 79,DE,wind,16.9,10.678711,52.308479,WD,R
7653,Wind DE 80,DE,wind,19.95,7.998047,51.76784,WD,R
3013,Wind DE 81,DE,wind,18.35,11.052246,50.408518,WD,R
2732,Wind DE 82,DE,wind,157.63,7.064209,51.658927,WD,R
7560,Wind DE 83,DE,wind,156.1,10.008545,49.61071,WD,R
7877,Wind DE 84,DE,wind,7.9,6.811523,50.771208,WD,R
2816,Wind DE 85,DE,wind,26.689999999999998,10.83252,48.625647,WD,R
2648,Wind DE 86,DE,wind,67.05,6.64672900000001,49.688955,WD,R
7848,Wind DE 87,DE,wind,30.200000000000003,13.128662,50.958427,WD,R
7478,Wind DE 88,DE,wind,6.0,12.98584,51.76784,WD,R
7728,Wind DE 89,DE,wind,19.2,10.447998,48.458352,WD,R
3002,Wind DE 90,DE,wind,33.7,13.64502,52.422523,WD,R
7852,Wind DE 91,DE,wind,6.0,8.4375,51.957807,WD,R
2870,Wind DE 92,DE,wind,661.7799999999999,8.81103500000001,51.665741,WD,R
7815,Wind DE 93,DE,wind,7.699999999999999,12.623291,51.062113,WD,R
2970,Wind DE 94,DE,wind,241.24000000000026,13.359375,52.099757,WD,R
2773,Wind DE 95,DE,wind,67.175,8.11889599999999,53.298056,WD,R
2766,Wind DE 96,DE,wind,8.875,7.93212900000001,52.281602,WD,R
7518,Wind DE 97,DE,wind,108.85000000000001,8.129883,50.303376,WD,R
2982,Wind DE 98,DE,wind,60.20000000000001,13.897705,52.469397,WD,R
2943,Wind DE 99,DE,wind,3.375,12.788086,50.611132,WD,R
5969,Wind DE 100,DE,wind,78.2,9.327393,53.722717,WD,R
5906,Wind DE 101,DE,wind,126.35000000000001,13.304443,53.794162,WD,R
2744,Wind DE 102,DE,wind,12.9,7.470703,51.351201,WD,R
7868,Wind DE 103,DE,wind,4.0,8.756104,50.198001,WD,R
3026,Wind DE 104,DE,wind,199.58999999999995,13.172607,51.733833,WD,R
7373,Wind DE 105,DE,wind,78.85000000000001,14.4659923242764,53.297671580175,WD,R
6024,Wind DE 106,DE,wind,133.19999999999996,14.414062,52.261434,WD,R
7473,Wind DE 107,DE,wind,126.06499999999994,13.94165,53.186288,WD,R
2967,Wind DE 108,DE,wind,48.675000000000004,12.139893,52.335339,WD,R
2738,Wind DE 109,DE,wind,53.825,7.92114300000001,50.812877,WD,R
2708,Wind DE 110,DE,wind,4.6,6.987305,51.048301,WD,R
7780,Wind DE 111,DE,wind,21.599999999999998,11.019287,48.443778,WD,R
2999,Wind DE 112,DE,wind,42.7,13.601074,54.110943,WD,R
2899,Wind DE 113,DE,wind,30.15,9.77783200000001,51.978113,WD,R
2684,Wind DE 114,DE,wind,27.3,6.240234,50.916887,WD,R
7257,Wind DE 115,DE,wind,53.19999999999998,8.50341800000001,47.960502,WD,R
3020,Wind DE 116,DE,wind,123.99999999999997,12.249756,53.337433,WD,R
5970,Wind DE 117,DE,wind,74.49999999999997,13.348389,53.625095,WD,R
2797,Wind DE 118,DE,wind,9.899999999999999,9.327393,48.734455,WD,R
7258,Wind DE 119,DE,wind,3.0,6.81152323834133,50.9238131802869,WD,R
7474,Wind DE 120,DE,wind,39.99999999999999,8.41552700000001,53.179704,WD,R
2824,Wind DE 121,DE,wind,186.22,11.359863,48.850258,WD,R
7472,Wind DE 122,DE,wind,23.700000000000003,11.722412,53.625095,WD,R
2861,Wind DE 123,DE,wind,73.19999999999997,8.89892600000001,51.344339,WD,R
2534,Wind DE 124,DE,wind,3.6,8.19580100000001,56.474628,WD,R
3035,Wind DE 125,DE,wind,10.7,13.579102,51.096623,WD,R
2725,Wind DE 126,DE,wind,16.400000000000002,6.987305,51.583897,WD,R
2833,Wind DE 127,DE,wind,3.05,12.293701,48.661943,WD,R
2994,Wind DE 128,DE,wind,200.30000000000013,12.205811,53.761702,WD,R
2755,Wind DE 129,DE,wind,92.00000000000003,7.22900399999999,52.796119,WD,R
2760,Wind DE 130,DE,wind,74.67500000000003,7.67944299999999,51.978113,WD,R
2753,Wind DE 131,DE,wind,372.6399999999998,7.13012700000001,52.214339,WD,R
3022,Wind DE 132,DE,wind,106.94999999999996,11.799316,53.553363,WD,R
2857,Wind DE 133,DE,wind,52.44699999999998,9.503174,49.724479,WD,R
2710,Wind DE 134,DE,wind,2.2,6.92138699999999,50.771208,WD,R
2640,Wind DE 135,DE,wind,31.500000000000004,7.877197,47.709762,WD,R
2866,Wind DE 136,DE,wind,11.2,8.756104,52.011937,WD,R
2638,Wind DE 137,DE,wind,16.5,9.36035199999999,49.908787,WD,R
7361,Wind DE 138,DE,wind,30.91,9.27246099999999,53.67068,WD,R
2904,Wind DE 139,DE,wind,104.93,11.304932,49.453843,WD,R
7836,Wind DE 140,DE,wind,92.48099999999995,12.315674,53.265213,WD,R
2898,Wind DE 141,DE,wind,102.64999999999998,9.83276399999999,51.467697,WD,R
6026,Wind DE 142,DE,wind,186.02500000000006,12.963867,51.842566,WD,R
2664,Wind DE 143,DE,wind,56.19,7.36083999999999,49.325122,WD,R
2699,Wind DE 144,DE,wind,31.900000000000002,6.591797,51.454007,WD,R
2734,Wind DE 145,DE,wind,11.95,7.22900399999999,51.536086,WD,R
7716,Wind DE 146,DE,wind,21.599999999999998,14.436035,52.113252,WD,R
2936,Wind DE 147,DE,wind,143.05,11.45874,53.566414,WD,R
3041,Wind DE 148,DE,wind,23.400000000000002,13.128662,51.027576,WD,R
2828,Wind DE 149,DE,wind,3.5,11.590576,48.268569,WD,R
7539,Wind DE 150,DE,wind,278.52000000000015,7.50366199999999,50.268277,WD,R
3014,Wind DE 151,DE,wind,201.92999999999998,7.19604499999999,52.902276,WD,R
6042,Wind DE 152,DE,wind,85.30999999999996,8.81103500000001,52.589701,WD,R
2626,Wind DE 153,DE,wind,88.77499999999998,9.16259800000001,52.52959,WD,R
2770,Wind DE 154,DE,wind,342.9000000000008,7.998047,53.553363,WD,R
2897,Wind DE 155,DE,wind,4.2,9.74487300000001,51.624837,WD,R
2862,Wind DE 156,DE,wind,299.9800000000003,9.62402299999999,50.861444,WD,R
2991,Wind DE 157,DE,wind,105.39299999999999,12.271729,54.065836,WD,R
3043,Wind DE 158,DE,wind,66.82,9.25048800000001,51.76784,WD,R
3015,Wind DE 159,DE,wind,36.74999999999999,8.481445,50.659908,WD,R
7831,Wind DE 160,DE,wind,11.65,7.338867,52.502848,WD,R
2659,Wind DE 161,DE,wind,73.605,7.70141600000001,49.403825,WD,R
2851,Wind DE 162,DE,wind,24.0,8.756104,50.240179,WD,R
2863,Wind DE 163,DE,wind,48.0,9.52514600000001,51.193115,WD,R
2901,Wind DE 164,DE,wind,78.51000000000003,11.184082,50.212064,WD,R
3034,Wind DE 165,DE,wind,13.974999999999998,12.974854,50.604159,WD,R
2961,Wind DE 166,DE,wind,8.399999999999999,13.820801,51.013755,WD,R
3008,Wind DE 167,DE,wind,13.61,6.73461900000001,50.854509,WD,R
7367,Wind DE 168,DE,wind,17.75,7.25249226526137,53.3790348087155,WD,R
2976,Wind DE 169,DE,wind,3.3,13.831787,52.254709,WD,R
2895,Wind DE 170,DE,wind,43.199999999999996,10.085449,49.95122,WD,R
3012,Wind DE 171,DE,wind,72.05000000000003,12.381592,51.268789,WD,R
6043,Wind DE 172,DE,wind,0.9500000000000001,8.59130900000001,53.028,WD,R
2918,Wind DE 173,DE,wind,53.07999999999999,9.88769499999999,53.442264,WD,R
2905,Wind DE 174,DE,wind,226.62000000000003,11.019287,51.47454,WD,R
2879,Wind DE 175,DE,wind,197.7349999999999,8.393555,53.343993,WD,R
2720,Wind DE 176,DE,wind,2.3,6.855469,51.460852,WD,R
3004,Wind DE 177,DE,wind,2.3,8.02001999999999,48.640169,WD,R
2931,Wind DE 178,DE,wind,69.50999999999999,11.744385,52.227799,WD,R
7255,Wind DE 179,DE,wind,202.15,13.51293287611,52.7027848953608,WD,R
2756,Wind DE 180,DE,wind,496.21000000000004,7.37182599999999,53.061025,WD,R
2685,Wind DE 181,DE,wind,54.610000000000014,6.47094700000001,50.833698,WD,R
2800,Wind DE 182,DE,wind,5.4,9.34936500000001,49.030665,WD,R
2957,Wind DE 183,DE,wind,73.3,12.5354,50.792047,WD,R
2764,Wind DE 184,DE,wind,45.42000000000001,8.20678699999999,52.038977,WD,R
5829,Wind DE 185,DE,wind,21.2,13.172607,52.301761,WD,R
2965,Wind DE 186,DE,wind,4.0,11.865234,52.099757,WD,R
3040,Wind DE 187,DE,wind,599.8050000000009,11.755371,52.736292,WD,R
7737,Wind DE 188,DE,wind,178.7500000000002,8.85498000000001,51.385495,WD,R
3033,Wind DE 189,DE,wind,37.2,8.25073199999999,51.801822,WD,R
2972,Wind DE 190,DE,wind,466.9750000000002,13.919678,51.896834,WD,R
7828,Wind DE 191,DE,wind,36.949999999999996,14.315186,52.261434,WD,R
5903,Wind DE 192,DE,wind,274.19000000000034,7.85522499999999,49.94415,WD,R
2912,Wind DE 193,DE,wind,42.5,9.942627,52.200874,WD,R
3018,Wind DE 194,DE,wind,77.18000000000002,7.23998999999999,52.703019,WD,R
2846,Wind DE 195,DE,wind,8.36,8.800049,49.930008,WD,R
7490,Wind DE 196,DE,wind,57.559999999999974,8.481445,49.830896,WD,R
2877,Wind DE 197,DE,wind,211.35999999999999,8.47045899999999,52.948638,WD,R
2675,Wind DE 198,DE,wind,292.02999999999986,7.72338899999999,49.79545,WD,R
2978,Wind DE 199,DE,wind,8.4,13.447266,52.435921,WD,R
2902,Wind DE 200,DE,wind,26.900000000000002,11.019287,49.632062,WD,R
2924,Wind DE 201,DE,wind,18.54,10.151367,54.354956,WD,R
2881,Wind DE 202,DE,wind,135.14999999999998,8.986816,52.822683,WD,R
3030,Wind DE 203,DE,wind,630.2350000000004,9.40429699999999,54.74365,WD,R
2968,Wind DE 204,DE,wind,19.05,12.381592,52.562995,WD,R
2837,Wind DE 205,DE,wind,227.0270000000001,9.66796899999999,50.541363,WD,R
2692,Wind DE 206,DE,wind,104.82,6.547852,51.062113,WD,R
2646,Wind DE 207,DE,wind,22.75,6.52587899999999,49.965356,WD,R
2682,Wind DE 208,DE,wind,47.63999999999998,6.547852,50.993014,WD,R
2624,Wind DE 209,DE,wind,34.025000000000006,8.32763700000001,53.107217,WD,R
7812,Wind DE 210,DE,wind,21.0,6.84448199999999,49.346599,WD,R
2975,Wind DE 211,DE,wind,0.8,14.403076,51.795027,WD,R
2962,Wind DE 212,DE,wind,13.5,12.744141,52.569673,WD,R
2979,Wind DE 213,DE,wind,4.0,13.051758,52.643063,WD,R
2771,Wind DE 214,DE,wind,185.61000000000007,8.085938,53.618579,WD,R
7377,Wind DE 215,DE,wind,53.95499999999998,12.3512576090538,54.2910676840457,WD,R
2679,Wind DE 216,DE,wind,101.41999999999997,8.10791000000001,50.394512,WD,R
2950,Wind DE 217,DE,wind,8.35,11.722412,50.583237,WD,R
5819,Wind DE 218,DE,wind,54.5,9.34936500000001,53.566414,WD,R
7785,Wind DE 219,DE,wind,9.4,9.12963899999999,51.144894,WD,R
6025,Wind DE 220,DE,wind,12.149999999999999,13.205566,52.842595,WD,R
2704,Wind DE 221,DE,wind,22.799999999999997,7.31689499999999,51.51558,WD,R
2919,Wind DE 222,DE,wind,251.6293000000001,9.75585899999999,54.303704,WD,R
7870,Wind DE 223,DE,wind,22.087,9.07470700000001,52.167194,WD,R
7734,Wind DE 224,DE,wind,16.650000000000002,6.635742,49.837982,WD,R
2778,Wind DE 225,DE,wind,9.899999999999999,8.78906199999999,47.791016,WD,R
2808,Wind DE 226,DE,wind,9.35,10.17334,48.494768,WD,R
2698,Wind DE 227,DE,wind,140.23000000000005,6.273193,51.618017,WD,R
2888,Wind DE 228,DE,wind,58.90000000000002,9.40429699999999,53.904338,WD,R
7456,Wind DE 229,DE,wind,174.04999999999987,7.39379900000001,52.536273,WD,R
2958,Wind DE 230,DE,wind,14.0,12.700195,51.117317,WD,R
7252,Wind DE 231,DE,wind,50.35000000000001,11.8647398334315,52.0250101374534,WD,R
2892,Wind DE 232,DE,wind,257.91399999999993,9.56909199999999,53.962549,WD,R
2620,Wind DE 233,DE,wind,131.74499999999995,8.129883,53.520717,WD,R
7103,Wind DE 234,DE,wind,109.04999999999997,12.9440918246521,52.3715745773201,WD,R
2634,Wind DE 235,DE,wind,81.59999999999998,10.964355,52.113252,WD,R
2835,Wind DE 236,DE,wind,4.7,13.040771,48.676454,WD,R
2878,Wind DE 237,DE,wind,115.59999999999994,8.37158200000001,52.589701,WD,R
2831,Wind DE 238,DE,wind,32.800000000000004,12.030029,48.994636,WD,R
2827,Wind DE 239,DE,wind,3.0,11.678467,48.319734,WD,R
7378,Wind DE 240,DE,wind,48.150000000000006,12.974854,52.703019,WD,R
2785,Wind DE 241,DE,wind,13.2,8.86596699999999,48.246626,WD,R
3016,Wind DE 242,DE,wind,217.10000000000005,10.030518,50.127622,WD,R
2909,Wind DE 243,DE,wind,139.85,10.393066,53.008173,WD,R
2772,Wind DE 244,DE,wind,183.4400000000001,8.07495099999999,52.915527,WD,R
2823,Wind DE 245,DE,wind,5.3,11.359863,48.275882,WD,R
7881,Wind DE 246,DE,wind,2.5,9.766846,51.76784,WD,R
2687,Wind DE 247,DE,wind,23.3,6.679688,50.993014,WD,R
7466,Wind DE 248,DE,wind,192.4249999999999,10.349121,51.006842,WD,R
2645,Wind DE 249,DE,wind,112.5249999999999,6.26220699999999,49.993615,WD,R
5377,Wind DE 250,DE,wind,7.85,6.26220699999999,51.99841,WD,R
2617,Wind DE 251,DE,wind,12.0,7.03125,49.339441,WD,R
3021,Wind DE 252,DE,wind,308.6200000000001,8.99780299999999,53.468431,WD,R
2945,Wind DE 253,DE,wind,52.199999999999996,12.052002,49.688955,WD,R
7566,Wind DE 254,DE,wind,121.90000000000005,7.13012700000001,52.796119,WD,R
2686,Wind DE 255,DE,wind,18.81,6.51489300000001,50.930738,WD,R
2927,Wind DE 256,DE,wind,13.399999999999999,10.513916,52.200874,WD,R
2779,Wind DE 257,DE,wind,34.3,8.525391,48.078079,WD,R
2910,Wind DE 258,DE,wind,39.0,9.88769499999999,52.382306,WD,R
5365,Wind DE 259,DE,wind,19.974999999999998,5.91064499999999,51.179343,WD,R
7463,Wind DE 260,DE,wind,110.05999999999996,13.161621,51.822198,WD,R
7622,Wind DE 261,DE,wind,28.27,7.69043,51.6998,WD,R
2928,Wind DE 262,DE,wind,2.0,10.447998,52.261434,WD,R
2986,Wind DE 263,DE,wind,23.300000000000004,14.447021,51.529251,WD,R
2706,Wind DE 264,DE,wind,2.3,7.13012700000001,51.206883,WD,R
2907,Wind DE 265,DE,wind,301.9199999999999,11.45874,51.604372,WD,R
2913,Wind DE 266,DE,wind,27.450000000000006,10.305176,52.288323,WD,R
7521,Wind DE 267,DE,wind,39.00999999999999,6.503906,51.392351,WD,R
2754,Wind DE 268,DE,wind,33.60000000000001,7.27294899999999,52.462704,WD,R
2623,Wind DE 269,DE,wind,25.642000000000003,8.92089799999999,52.173932,WD,R
7362,Wind DE 270,DE,wind,44.584999999999994,12.227783,52.61639,WD,R
7879,Wind DE 271,DE,wind,249.10999999999973,8.305664,49.560852,WD,R
3005,Wind DE 272,DE,wind,24.799999999999997,10.26123,49.93708,WD,R
2908,Wind DE 273,DE,wind,88.29999999999994,11.722412,52.011937,WD,R
7554,Wind DE 274,DE,wind,163.4,12.073975,53.014783,WD,R
2891,Wind DE 275,DE,wind,241.0500000000001,9.51416000000001,53.41608,WD,R
2691,Wind DE 276,DE,wind,6.6,6.70165999999999,51.165567,WD,R
2672,Wind DE 277,DE,wind,2.0,8.42651399999999,48.994636,WD,R
7651,Wind DE 278,DE,wind,31.400000000000006,13.31543,52.835958,WD,R
2628,Wind DE 279,DE,wind,126.92999999999996,9.42627000000001,51.937492,WD,R
2631,Wind DE 280,DE,wind,50.330000000000005,9.93164099999999,51.815407,WD,R
3009,Wind DE 281,DE,wind,88.46,9.39331099999999,51.583897,WD,R
2966,Wind DE 282,DE,wind,225.6000000000001,11.942139,53.067627,WD,R
2896,Wind DE 283,DE,wind,138.93999999999997,10.799561,49.410973,WD,R
2865,Wind DE 284,DE,wind,12.23,8.887939,52.389011,WD,R
2930,Wind DE 285,DE,wind,39.0,11.107178,52.173932,WD,R
2923,Wind DE 286,DE,wind,22.3,10.250244,53.566414,WD,R
2723,Wind DE 287,DE,wind,0.8,6.932373,51.412912,WD,R
2860,Wind DE 288,DE,wind,49.29999999999999,9.019775,51.082822,WD,R
2853,Wind DE 289,DE,wind,171.60000000000002,8.69018599999999,51.385495,WD,R
7588,Wind DE 290,DE,wind,77.05,8.32763700000001,53.232345,WD,R
2948,Wind DE 291,DE,wind,7.3999999999999995,12.073975,50.764259,WD,R
2894,Wind DE 292,DE,wind,6.5,9.92065400000001,49.986552,WD,R
2935,Wind DE 293,DE,wind,139.60499999999996,10.546875,53.833081,WD,R
2952,Wind DE 294,DE,wind,234.12499999999986,11.45874,50.979182,WD,R
2798,Wind DE 295,DE,wind,15.6,9.602051,48.400032,WD,R
7816,Wind DE 296,DE,wind,94.04999999999997,8.37158200000001,52.462704,WD,R
2900,Wind DE 297,DE,wind,167.6749999999999,10.393066,50.944584,WD,R
7630,Wind DE 298,DE,wind,181.84500000000014,8.59130900000001,53.199452,WD,R
2805,Wind DE 299,DE,wind,18.8,10.349121,47.739323,WD,R
2768,Wind DE 300,DE,wind,3.0,8.140869,52.254709,WD,R
6046,Wind DE 301,DE,wind,353.50000000000045,14.018555,54.642055,WD,R
2803,Wind DE 302,DE,wind,283.6200000000001,9.547119,49.260635,WD,R
2926,Wind DE 303,DE,wind,47.199999999999996,10.83252,52.335339,WD,R
2818,Wind DE 304,DE,wind,2.3,11.975098,47.938427,WD,R
3240,Wind DE 305,DE,wind,6.0,15.084229,51.069017,WD,R
2941,Wind DE 306,DE,wind,387.6649999999998,13.985596,53.455349,WD,R
2661,Wind DE 307,DE,wind,205.03000000000011,7.26196300000001,49.425267,WD,R
7246,Wind DE 308,DE,wind,206.41000000000014,7.15304896124145,53.4041872883277,WD,R
7537,Wind DE 309,DE,wind,45.980000000000004,13.930664,53.113811,WD,R
2736,Wind DE 310,DE,wind,9.6,7.998047,51.055207,WD,R
6881,Wind DE 311,DE,wind,16.85,6.55883800000001,49.77417,WD,R
2820,Wind DE 312,DE,wind,36.15,11.260986,48.348948,WD,R
2636,Wind DE 313,DE,wind,115.69999999999995,11.942139,51.392351,WD,R
2629,Wind DE 314,DE,wind,60.760000000000005,9.38232400000001,53.826597,WD,R
5393,Wind DE 315,DE,wind,109.62000000000002,6.811523,53.343993,WD,R
3019,Wind DE 316,DE,wind,123.34200000000001,13.765869,53.199452,WD,R
7610,Wind DE 317,DE,wind,161.57,13.282471,53.748711,WD,R
2852,Wind DE 318,DE,wind,123.92999999999995,8.70117199999999,50.659908,WD,R
7864,Wind DE 319,DE,wind,9.0,8.481445,48.864715,WD,R
2650,Wind DE 320,DE,wind,29.3,7.71240200000001,48.100095,WD,R
2642,Wind DE 321,DE,wind,23.8,6.624756,49.432413,WD,R
6992,Wind DE 322,DE,wind,48.69000000000001,9.07026287499835,50.0572283595714,WD,R
3001,Wind DE 323,DE,wind,8.0,12.821045,52.409121,WD,R
5831,Wind DE 324,DE,wind,4.6,10.327148,54.380557,WD,R
2997,Wind DE 325,DE,wind,152.73499999999996,13.062744,54.258807,WD,R
3023,Wind DE 326,DE,wind,16.0,14.60083,51.727028,WD,R
2854,Wind DE 327,DE,wind,52.19999999999999,8.94287100000001,49.518076,WD,R
7646,Wind DE 328,DE,wind,18.7,8.4375,53.067627,WD,R
2998,Wind DE 329,DE,wind,139.49999999999997,13.139648,53.839564,WD,R
2790,Wind DE 330,DE,wind,19.8,9.39331099999999,48.034019,WD,R
3038,Wind DE 331,DE,wind,108.19999999999999,11.810303,51.412912,WD,R
2826,Wind DE 332,DE,wind,6.0,11.777344,48.545705,WD,R
5968,Wind DE 333,DE,wind,1455.0219999999974,9.25048800000001,54.794352,WD,R
6879,Wind DE 334,DE,wind,15.21,9.28031253122269,52.3546885961593,WD,R
7504,Wind DE 335,DE,wind,7.05,10.019531,49.880478,WD,R
2933,Wind DE 336,DE,wind,48.750000000000014,10.458984,53.435719,WD,R
2817,Wind DE 337,DE,wind,2.3,10.83252,48.502048,WD,R
2776,Wind DE 338,DE,wind,16.055,12.172852,48.640169,WD,R
2963,Wind DE 339,DE,wind,86.56,12.183838,51.76104,WD,R
7890,Wind DE 340,DE,wind,97.44999999999999,13.271484,53.65115,WD,R
2750,Wind DE 341,DE,wind,39.749999999999986,8.06396500000001,51.652111,WD,R
2393,Wind DE 342,DE,wind,36.5,12.601318,50.064192,WD,R
7508,Wind DE 343,DE,wind,100.65999999999998,7.62451200000001,49.453843,WD,R
2871,Wind DE 344,DE,wind,3.8,8.613281,52.025459,WD,R
2990,Wind DE 345,DE,wind,146.83899999999994,12.128906,54.168866,WD,R
2942,Wind DE 346,DE,wind,11.600000000000001,14.18335,51.18623,WD,R
5899,Wind DE 347,DE,wind,287.9999999999999,13.007812,54.990222,WD,R
2633,Wind DE 348,DE,wind,49.57500000000001,10.447998,52.119999,WD,R
6087,Wind DE 349,DE,wind,4.0,8.97583,49.979488,WD,R
2960,Wind DE 350,DE,wind,2.3,13.040771,50.847573,WD,R
5892,Wind DE 351,DE,wind,4.7,9.327393,49.102645,WD,R
5822,Wind DE 352,DE,wind,4.6,11.348877,50.666872,WD,R
6041,Wind DE 353,DE,wind,39.82499999999999,9.909668,49.930008,WD,R
2758,Wind DE 354,DE,wind,16.68,8.28369100000001,52.342052,WD,R
7509,Wind DE 355,DE,wind,55.74999999999999,12.172852,51.570241,WD,R
3007,Wind DE 356,DE,wind,60.36999999999998,7.70141600000001,52.315195,WD,R
2911,Wind DE 357,DE,wind,154.35,10.019531,52.335339,WD,R
2540,Wind DE 358,DE,wind,70.20000000000002,7.80029300000001,55.497527,WD,R
2618,Wind DE 359,DE,wind,26.3,6.71264599999999,51.549751,WD,R
2984,Wind DE 360,DE,wind,55.82499999999999,14.249268,53.087426,WD,R
2799,Wind DE 361,DE,wind,27.540000000000003,9.56909199999999,48.618385,WD,R
2625,Wind DE 362,DE,wind,81.9,8.55834999999999,53.100621,WD,R
7726,Wind DE 363,DE,wind,98.27000000000002,9.39331099999999,53.871963,WD,R
2784,Wind DE 364,DE,wind,8.6,8.74511699999999,48.516604,WD,R
2868,Wind DE 365,DE,wind,13.639999999999999,8.42651399999999,51.896834,WD,R
7555,Wind DE 366,DE,wind,19.599999999999998,10.05249,54.258807,WD,R
2917,Wind DE 367,DE,wind,22.6,9.678955,53.677188,WD,R
3024,Wind DE 368,DE,wind,317.8550000000002,14.205322,51.501904,WD,R
3028,Wind DE 369,DE,wind,195.54999999999995,6.70165999999999,49.823809,WD,R
3027,Wind DE 370,DE,wind,30.900000000000002,6.04247999999999,50.819818,WD,R
2946,Wind DE 371,DE,wind,47.635,12.030029,49.346599,WD,R
6666,Wind DE 372,DE,wind,19.88,6.932373,53.324312,WD,R
2925,Wind DE 373,DE,wind,13.05,10.162354,54.252389,WD,R
2683,Wind DE 374,DE,wind,117.52500000000003,6.273193,50.833698,WD,R
3039,Wind DE 375,DE,wind,43.919999999999995,9.99755900000001,53.494582,WD,R
2662,Solar DE 1,DE,solar,2.0387,6.943359,49.389524,PV,R
2821,Solar DE 2,DE,solar,1.4992750000000001,11.184082,48.078079,PV,R
2632,Solar DE 3,DE,solar,0.74978,10.184326,52.247983,PV,R
2802,Solar DE 4,DE,solar,0.93028,9.29443400000001,49.160155,PV,R
6022,Solar DE 5,DE,solar,17.628124999999997,12.392578,53.271783,PV,R
2809,Solar DE 6,DE,solar,0.8414149999999999,10.063477,48.20271,PV,R
2903,Solar DE 7,DE,solar,0.45087,11.030273,49.993615,PV,R
3042,Solar DE 8,DE,solar,22.273035000000004,12.744141,48.799627,PV,R
2876,Solar DE 9,DE,solar,0.749925,8.69018599999999,51.706608,PV,R
2665,Solar DE 10,DE,solar,19.168320000000005,7.00927699999999,50.092393,PV,R
7843,Solar DE 11,DE,solar,14.083295,9.503174,49.781264,PV,R
7660,Solar DE 12,DE,solar,28.358,10.755615,48.019324,PV,R
2781,Solar DE 13,DE,solar,4.7992799999999995,8.481445,49.28214,PV,R
2398,Solar DE 14,DE,solar,0.79976,13.688965,50.562304,PV,R
2956,Solar DE 15,DE,solar,7.19058,12.337646,50.597186,PV,R
2643,Solar DE 16,DE,solar,9.997200000000001,6.74560499999999,49.460984,PV,R
2666,Solar DE 17,DE,solar,1.1979000000000002,7.382812,50.373496,PV,R
2880,Solar DE 18,DE,solar,5.14868,8.87695299999999,52.988337,PV,R
2637,Solar DE 19,DE,solar,0.15,12.930908,52.462704,PV,R
2811,Solar DE 20,DE,solar,11.617819999999998,10.096436,48.79239,PV,R
2973,Solar DE 21,DE,solar,41.776555,13.447266,51.296276,PV,R
2814,Solar DE 22,DE,solar,7.48332,10.777588,48.312428,PV,R
7256,Solar DE 23,DE,solar,1.499,9.80099905771964,47.6359031995964,PV,R
6021,Solar DE 24,DE,solar,31.970919999999996,13.216553,53.572938,PV,R
7615,Solar DE 25,DE,solar,3.01498,12.128906,53.572938,PV,R
2886,Solar DE 26,DE,solar,2.385,9.239502,53.041213,PV,R
7769,Solar DE 27,DE,solar,5.68853,12.062988,50.868378,PV,R
7748,Solar DE 28,DE,solar,1.69441,7.17407200000001,49.396675,PV,R
2964,Solar DE 29,DE,solar,6.08061,12.689209,51.310013,PV,R
7703,Solar DE 30,DE,solar,1.4968800000000002,6.229248,50.979182,PV,R
2812,Solar DE 31,DE,solar,2.996,10.206299,48.625647,PV,R
2635,Solar DE 32,DE,solar,0.2392,12.480469,51.316881,PV,R
2830,Solar DE 33,DE,solar,0.74925,11.843262,48.871941,PV,R
2864,Solar DE 34,DE,solar,0.74936,9.547119,51.310013,PV,R
7729,Solar DE 35,DE,solar,2.60712,10.063477,48.283193,PV,R
2819,Solar DE 36,DE,solar,8.367075000000002,11.502686,48.79239,PV,R
2988,Solar DE 37,DE,solar,7.92556,14.80957,51.144894,PV,R
2893,Solar DE 38,DE,solar,10.51803,10.788574,49.958288,PV,R
2849,Solar DE 39,DE,solar,1.7492,8.45947300000001,50.792047,PV,R
2944,Solar DE 40,DE,solar,26.43908,11.777344,50.268277,PV,R
2981,Solar DE 41,DE,solar,1.9985,13.414307,52.596375,PV,R
2954,Solar DE 42,DE,solar,4.29018,12.799072,50.847573,PV,R
2855,Solar DE 43,DE,solar,2.49645,8.97583,50.092393,PV,R
3013,Solar DE 44,DE,solar,1.98119,11.052246,50.408518,PV,R
2732,Solar DE 45,DE,solar,0.9926799999999999,7.064209,51.658927,PV,R
7560,Solar DE 46,DE,solar,16.539884999999998,10.008545,49.61071,PV,R
2648,Solar DE 47,DE,solar,1.00392,6.64672900000001,49.688955,PV,R
2816,Solar DE 48,DE,solar,11.885909999999999,10.83252,48.625647,PV,R
7848,Solar DE 49,DE,solar,4.2561599999999995,13.128662,50.958427,PV,R
7478,Solar DE 50,DE,solar,4.718999999999999,12.98584,51.76784,PV,R
7728,Solar DE 51,DE,solar,4.850560000000001,10.447998,48.458352,PV,R
7815,Solar DE 52,DE,solar,8.519174999999999,12.623291,51.062113,PV,R
2970,Solar DE 53,DE,solar,6.79088,13.359375,52.099757,PV,R
7518,Solar DE 54,DE,solar,0.52315,8.129883,50.303376,PV,R
2982,Solar DE 55,DE,solar,49.983705000000015,13.897705,52.469397,PV,R
2782,Solar DE 56,DE,solar,0.747,8.536377,49.117029,PV,R
5906,Solar DE 57,DE,solar,1.2632999999999999,13.304443,53.794162,PV,R
2363,Solar DE 58,DE,solar,0.499,13.282471,49.61071,PV,R
3026,Solar DE 59,DE,solar,11.052840000000002,13.172607,51.733833,PV,R
7373,Solar DE 60,DE,solar,8.928,14.4659923242764,53.297671580175,PV,R
3264,Solar DE 61,DE,solar,9.9792,14.458008,53.605544,PV,R
6024,Solar DE 62,DE,solar,0.616,14.414062,52.261434,PV,R
2967,Solar DE 63,DE,solar,19.53735,12.139893,52.335339,PV,R
2829,Solar DE 64,DE,solar,1.29855,11.821289,48.312428,PV,R
2738,Solar DE 65,DE,solar,9.74604,7.92114300000001,50.812877,PV,R
7780,Solar DE 66,DE,solar,5.6690760000000004,11.019287,48.443778,PV,R
2999,Solar DE 67,DE,solar,1.2714,13.601074,54.110943,PV,R
2845,Solar DE 68,DE,solar,1.8095999999999999,8.67919900000001,49.532339,PV,R
7257,Solar DE 69,DE,solar,3.4351,8.50341800000001,47.960502,PV,R
3020,Solar DE 70,DE,solar,37.53076999999999,12.249756,53.337433,PV,R
5970,Solar DE 71,DE,solar,39.016375,13.348389,53.625095,PV,R
2824,Solar DE 72,DE,solar,36.710229999999996,11.359863,48.850258,PV,R
7472,Solar DE 73,DE,solar,7.81748,11.722412,53.625095,PV,R
2861,Solar DE 74,DE,solar,0.5566,8.89892600000001,51.344339,PV,R
2833,Solar DE 75,DE,solar,4.381205,12.293701,48.661943,PV,R
2994,Solar DE 76,DE,solar,3.08385,12.205811,53.761702,PV,R
3022,Solar DE 77,DE,solar,6.2729800000000004,11.799316,53.553363,PV,R
2857,Solar DE 78,DE,solar,1.1928599999999998,9.503174,49.724479,PV,R
2638,Solar DE 79,DE,solar,1.43635,9.36035199999999,49.908787,PV,R
2904,Solar DE 80,DE,solar,9.8362,11.304932,49.453843,PV,R
7836,Solar DE 81,DE,solar,9.804,12.315674,53.265213,PV,R
2898,Solar DE 82,DE,solar,0.9011699999999999,9.83276399999999,51.467697,PV,R
6026,Solar DE 83,DE,solar,0.7496900000000001,12.963867,51.842566,PV,R
2664,Solar DE 84,DE,solar,1.870825,7.36083999999999,49.325122,PV,R
2936,Solar DE 85,DE,solar,46.13534500000001,11.45874,53.566414,PV,R
2828,Solar DE 86,DE,solar,1.21895,11.590576,48.268569,PV,R
3041,Solar DE 87,DE,solar,0.74664,13.128662,51.027576,PV,R
7539,Solar DE 88,DE,solar,1.4484400000000002,7.50366199999999,50.268277,PV,R
6042,Solar DE 89,DE,solar,0.49992000000000003,8.81103500000001,52.589701,PV,R
2626,Solar DE 90,DE,solar,0.499545,9.16259800000001,52.52959,PV,R
2897,Solar DE 91,DE,solar,1.844185,9.74487300000001,51.624837,PV,R
2770,Solar DE 92,DE,solar,0.748,7.998047,53.553363,PV,R
2862,Solar DE 93,DE,solar,1.1978,9.62402299999999,50.861444,PV,R
2991,Solar DE 94,DE,solar,7.02726,12.271729,54.065836,PV,R
3015,Solar DE 95,DE,solar,3.146,8.481445,50.659908,PV,R
2851,Solar DE 96,DE,solar,2.7595400000000003,8.756104,50.240179,PV,R
2863,Solar DE 97,DE,solar,2.02778,9.52514600000001,51.193115,PV,R
2901,Solar DE 98,DE,solar,20.18694,11.184082,50.212064,PV,R
2976,Solar DE 99,DE,solar,7.605119999999999,13.831787,52.254709,PV,R
3012,Solar DE 100,DE,solar,1.181925,12.381592,51.268789,PV,R
2905,Solar DE 101,DE,solar,35.35307,11.019287,51.47454,PV,R
2931,Solar DE 102,DE,solar,21.447719999999997,11.744385,52.227799,PV,R
7255,Solar DE 103,DE,solar,15.36948,13.51293287611,52.7027848953608,PV,R
2764,Solar DE 104,DE,solar,7.68775,8.20678699999999,52.038977,PV,R
2957,Solar DE 105,DE,solar,2.65556,12.5354,50.792047,PV,R
5829,Solar DE 106,DE,solar,7.60656,13.172607,52.301761,PV,R
3040,Solar DE 107,DE,solar,52.076735,11.755371,52.736292,PV,R
3033,Solar DE 108,DE,solar,0.4883,8.25073199999999,51.801822,PV,R
2972,Solar DE 109,DE,solar,40.23306,13.919678,51.896834,PV,R
7828,Solar DE 110,DE,solar,3.0306,14.315186,52.261434,PV,R
2877,Solar DE 111,DE,solar,0.49968,8.47045899999999,52.948638,PV,R
2675,Solar DE 112,DE,solar,8.9495,7.72338899999999,49.79545,PV,R
2902,Solar DE 113,DE,solar,16.0485,11.019287,49.632062,PV,R
2881,Solar DE 114,DE,solar,8.357809999999999,8.986816,52.822683,PV,R
3030,Solar DE 115,DE,solar,43.41502,9.40429699999999,54.74365,PV,R
7758,Solar DE 116,DE,solar,4.29502,11.217041,47.52462,PV,R
2837,Solar DE 117,DE,solar,6.23337,9.66796899999999,50.541363,PV,R
2968,Solar DE 118,DE,solar,18.871840000000002,12.381592,52.562995,PV,R
2646,Solar DE 119,DE,solar,17.76728,6.52587899999999,49.965356,PV,R
2975,Solar DE 120,DE,solar,20.354840000000003,14.403076,51.795027,PV,R
2962,Solar DE 121,DE,solar,10.86073,12.744141,52.569673,PV,R
7880,Solar DE 122,DE,solar,3.0664,12.788086,48.392738,PV,R
6655,Solar DE 123,DE,solar,3.6906,13.381348,48.297812,PV,R
2639,Solar DE 124,DE,solar,1.8003,13.656006,48.494768,PV,R
2771,Solar DE 125,DE,solar,1.79674,8.085938,53.618579,PV,R
7377,Solar DE 126,DE,solar,2.89872,12.3512576090538,54.2910676840457,PV,R
2679,Solar DE 127,DE,solar,1.2005400000000002,8.10791000000001,50.394512,PV,R
2950,Solar DE 128,DE,solar,0.749925,11.722412,50.583237,PV,R
3017,Solar DE 129,DE,solar,5.763170000000001,11.151123,50.492463,PV,R
7785,Solar DE 130,DE,solar,3.809985,9.12963899999999,51.144894,PV,R
7734,Solar DE 131,DE,solar,4.2336,6.635742,49.837982,PV,R
2919,Solar DE 132,DE,solar,21.481379999999998,9.75585899999999,54.303704,PV,R
2958,Solar DE 133,DE,solar,4.145275,12.700195,51.117317,PV,R
2634,Solar DE 134,DE,solar,12.21772,10.964355,52.113252,PV,R
2835,Solar DE 135,DE,solar,6.217740000000001,13.040771,48.676454,PV,R
2878,Solar DE 136,DE,solar,1.1622,8.37158200000001,52.589701,PV,R
2831,Solar DE 137,DE,solar,22.742900000000006,12.030029,48.994636,PV,R
2785,Solar DE 138,DE,solar,6.48468,8.86596699999999,48.246626,PV,R
7557,Solar DE 139,DE,solar,9.972,12.557373,53.559889,PV,R
3016,Solar DE 140,DE,solar,24.306699999999996,10.030518,50.127622,PV,R
2909,Solar DE 141,DE,solar,1.4937999999999998,10.393066,53.008173,PV,R
2823,Solar DE 142,DE,solar,0.749835,11.359863,48.275882,PV,R
7466,Solar DE 143,DE,solar,13.965160000000001,10.349121,51.006842,PV,R
2645,Solar DE 144,DE,solar,6.627420000000001,6.26220699999999,49.993615,PV,R
2617,Solar DE 145,DE,solar,4.799880000000001,7.03125,49.339441,PV,R
3021,Solar DE 146,DE,solar,1.4995,8.99780299999999,53.468431,PV,R
2945,Solar DE 147,DE,solar,13.760905000000001,12.052002,49.688955,PV,R
4319,Solar DE 148,DE,solar,0.7473,13.084717,48.253941,PV,R
2779,Solar DE 149,DE,solar,4.9698,8.525391,48.078079,PV,R
7463,Solar DE 150,DE,solar,0.7496499999999999,13.161621,51.822198,PV,R
2977,Solar DE 151,DE,solar,2.5095300000000003,13.040771,52.409121,PV,R
2907,Solar DE 152,DE,solar,15.02868,11.45874,51.604372,PV,R
2621,Solar DE 153,DE,solar,0.74898,8.536377,49.696062,PV,R
2850,Solar DE 154,DE,solar,0.70587,8.38256799999999,51.158677,PV,R
2623,Solar DE 155,DE,solar,0.749995,8.92089799999999,52.173932,PV,R
7362,Solar DE 156,DE,solar,0.7484400000000001,12.227783,52.61639,PV,R
7879,Solar DE 157,DE,solar,0.03933,8.305664,49.560852,PV,R
3005,Solar DE 158,DE,solar,9.495,10.26123,49.93708,PV,R
2908,Solar DE 159,DE,solar,20.93131,11.722412,52.011937,PV,R
7554,Solar DE 160,DE,solar,18.36769,12.073975,53.014783,PV,R
2628,Solar DE 161,DE,solar,0.1938,9.42627000000001,51.937492,PV,R
2631,Solar DE 162,DE,solar,2.9867749999999997,9.93164099999999,51.815407,PV,R
3009,Solar DE 163,DE,solar,0.4992,9.39331099999999,51.583897,PV,R
2896,Solar DE 164,DE,solar,32.282421,10.799561,49.410973,PV,R
2865,Solar DE 165,DE,solar,2.534,8.887939,52.389011,PV,R
2930,Solar DE 166,DE,solar,24.501320000000003,11.107178,52.173932,PV,R
2860,Solar DE 167,DE,solar,1.972,9.019775,51.082822,PV,R
7588,Solar DE 168,DE,solar,0.74979,8.32763700000001,53.232345,PV,R
2948,Solar DE 169,DE,solar,5.96735,12.073975,50.764259,PV,R
2894,Solar DE 170,DE,solar,0.48319999999999996,9.92065400000001,49.986552,PV,R
2952,Solar DE 171,DE,solar,14.96463,11.45874,50.979182,PV,R
2798,Solar DE 172,DE,solar,12.668,9.602051,48.400032,PV,R
2900,Solar DE 173,DE,solar,23.731816000000002,10.393066,50.944584,PV,R
6046,Solar DE 174,DE,solar,0.74536,14.018555,54.642055,PV,R
2805,Solar DE 175,DE,solar,4.372475,10.349121,47.739323,PV,R
2803,Solar DE 176,DE,solar,2.11108,9.547119,49.260635,PV,R
2926,Solar DE 177,DE,solar,5.54509,10.83252,52.335339,PV,R
2889,Solar DE 178,DE,solar,7.606,9.44824199999999,53.690201,PV,R
3240,Solar DE 179,DE,solar,1.3475,15.084229,51.069017,PV,R
2987,Solar DE 180,DE,solar,3.70504,14.47998,51.364921,PV,R
2661,Solar DE 181,DE,solar,3.34584,7.26196300000001,49.425267,PV,R
7246,Solar DE 182,DE,solar,2.32254,7.15304896124145,53.4041872883277,PV,R
7537,Solar DE 183,DE,solar,4.3715,13.930664,53.113811,PV,R
4318,Solar DE 184,DE,solar,6.287084999999999,12.98584,47.945786,PV,R
2807,Solar DE 185,DE,solar,4.69028,10.426025,48.56752,PV,R
6881,Solar DE 186,DE,solar,0.7484400000000001,6.55883800000001,49.77417,PV,R
2820,Solar DE 187,DE,solar,2.1114,11.260986,48.348948,PV,R
2636,Solar DE 188,DE,solar,26.693334999999998,11.942139,51.392351,PV,R
2813,Solar DE 189,DE,solar,1.48784,10.865479,48.42191,PV,R
3019,Solar DE 190,DE,solar,28.109039999999997,13.765869,53.199452,PV,R
2852,Solar DE 191,DE,solar,2.7983200000000004,8.70117199999999,50.659908,PV,R
7610,Solar DE 192,DE,solar,7.638,13.282471,53.748711,PV,R
2650,Solar DE 193,DE,solar,2.623,7.71240200000001,48.100095,PV,R
6992,Solar DE 194,DE,solar,1.3998599999999999,9.07026287499835,50.0572283595714,PV,R
3001,Solar DE 195,DE,solar,0.7495499999999999,12.821045,52.409121,PV,R
2997,Solar DE 196,DE,solar,19.407030000000002,13.062744,54.258807,PV,R
3023,Solar DE 197,DE,solar,27.272879999999997,14.60083,51.727028,PV,R
2641,Solar DE 198,DE,solar,0.7123999999999999,6.679688,49.353756,PV,R
2832,Solar DE 199,DE,solar,4.631449999999999,12.623291,48.20271,PV,R
2998,Solar DE 200,DE,solar,11.70745,13.139648,53.839564,PV,R
2790,Solar DE 201,DE,solar,11.3028,9.39331099999999,48.034019,PV,R
3038,Solar DE 202,DE,solar,11.340259999999999,11.810303,51.412912,PV,R
2826,Solar DE 203,DE,solar,49.040924999999994,11.777344,48.545705,PV,R
5968,Solar DE 204,DE,solar,9.974639999999999,9.25048800000001,54.794352,PV,R
6879,Solar DE 205,DE,solar,0.8486499999999999,9.28031253122269,52.3546885961593,PV,R
2668,Solar DE 206,DE,solar,0.7481599999999999,7.58056600000001,50.324423,PV,R
2933,Solar DE 207,DE,solar,32.679809999999996,10.458984,53.435719,PV,R
2776,Solar DE 208,DE,solar,17.894005,12.172852,48.640169,PV,R
2963,Solar DE 209,DE,solar,27.12288,12.183838,51.76104,PV,R
7890,Solar DE 210,DE,solar,5.29092,13.271484,53.65115,PV,R
7508,Solar DE 211,DE,solar,1.4979900000000002,7.62451200000001,49.453843,PV,R
2942,Solar DE 212,DE,solar,0.7452000000000001,14.18335,51.18623,PV,R
5822,Solar DE 213,DE,solar,0.74979,11.348877,50.666872,PV,R
5892,Solar DE 214,DE,solar,3.1940999999999997,9.327393,49.102645,PV,R
6041,Solar DE 215,DE,solar,3.9045599999999996,9.909668,49.930008,PV,R
7509,Solar DE 216,DE,solar,27.36344,12.172852,51.570241,PV,R
3007,Solar DE 217,DE,solar,0.749,7.70141600000001,52.315195,PV,R
2784,Solar DE 218,DE,solar,0.5832,8.74511699999999,48.516604,PV,R
7726,Solar DE 219,DE,solar,7.576,9.39331099999999,53.871963,PV,R
7555,Solar DE 220,DE,solar,15.21338,10.05249,54.258807,PV,R
3024,Solar DE 221,DE,solar,49.53308,14.205322,51.501904,PV,R
3028,Solar DE 222,DE,solar,9.515160000000002,6.70165999999999,49.823809,PV,R
2946,Solar DE 223,DE,solar,44.479,12.030029,49.346599,PV,R
7499,Solar DE 224,DE,solar,3.817,11.601562,50.632042,PV,R
